HIERARCHY
ROOT root
{
  OFFSET 0.000000 0.000000 0.000000
  CHANNELS 6 Xposition Yposition Zposition Zrotation Yrotation Xrotation
  JOINT lhipjoint
  {
    OFFSET 0.000000 0.000000 0.000000
    CHANNELS 3 Zrotation Yrotation Xrotation
    JOINT lfemur
    {
      OFFSET 0.079867 -0.104186 0.044249
      CHANNELS 3 Zrotation Yrotation Xrotation
      JOINT ltibia
      {
        OFFSET 0.145649 -0.400168 0.000000
        CHANNELS 3 Zrotation Yrotation Xrotation
        JOINT lfoot
        {
          OFFSET 0.149419 -0.410526 0.000000
          CHANNELS 3 Zrotation Yrotation Xrotation
          JOINT ltoes
          {
            OFFSET 0.011694 -0.032129 0.124324
            CHANNELS 3 Zrotation Yrotation Xrotation
            End Site
            {
              OFFSET 0.000000 -0.000000 0.064484
            }
          }
        }
      }
    }
  }
  JOINT rhipjoint
  {
    OFFSET 0.000000 0.000000 0.000000
    CHANNELS 3 Zrotation Yrotation Xrotation
    JOINT rfemur
    {
      OFFSET -0.079333 -0.104186 0.044249
      CHANNELS 3 Zrotation Yrotation Xrotation
      JOINT rtibia
      {
        OFFSET -0.144821 -0.397891 0.000000
        CHANNELS 3 Zrotation Yrotation Xrotation
        JOINT rfoot
        {
          OFFSET -0.145612 -0.400066 0.000000
          CHANNELS 3 Zrotation Yrotation Xrotation
          JOINT rtoes
          {
            OFFSET -0.015073 -0.041413 0.124638
            CHANNELS 3 Zrotation Yrotation Xrotation
            End Site
            {
              OFFSET -0.000000 -0.000000 0.065614
            }
          }
        }
      }
    }
  }
  JOINT lowerback
  {
    OFFSET 0.000000 0.000000 0.000000
    CHANNELS 3 Zrotation Yrotation Xrotation
    JOINT upperback
    {
      OFFSET -0.002647 0.115822 -0.003961
      CHANNELS 3 Zrotation Yrotation Xrotation
      JOINT thorax
      {
        OFFSET 0.002306 0.115858 0.000451
        CHANNELS 3 Zrotation Yrotation Xrotation
        JOINT lowerneck
        {
          OFFSET 0.003530 0.115814 0.002237
          CHANNELS 3 Zrotation Yrotation Xrotation
          JOINT upperneck
          {
            OFFSET -0.002022 0.102161 0.010894
            CHANNELS 3 Zrotation Yrotation Xrotation
            JOINT head
            {
              OFFSET 0.000537 0.101710 -0.020540
              CHANNELS 3 Zrotation Yrotation Xrotation
              End Site
              {
                OFFSET 0.000222 0.104457 -0.008181
              }
            }
          }
        }
        JOINT lclavicle
        {
          OFFSET 0.003530 0.115814 0.002237
          CHANNELS 3 Zrotation Yrotation Xrotation
          JOINT lhumerus
          {
            OFFSET 0.200504 0.078867 -0.007715
            CHANNELS 3 Zrotation Yrotation Xrotation
            JOINT lradius
            {
              OFFSET 0.290411 -0.000000 -0.000000
              CHANNELS 3 Zrotation Yrotation Xrotation
              JOINT lwrist
              {
                OFFSET 0.197920 -0.000000 0.000000
                CHANNELS 3 Zrotation Yrotation Xrotation
                End Site
                {
                  OFFSET 0.098960 -0.000000 0.000000
                }
              }
            }
          }
        }
        JOINT rclavicle
        {
          OFFSET 0.003530 0.115814 0.002237
          CHANNELS 3 Zrotation Yrotation Xrotation
          JOINT rhumerus
          {
            OFFSET -0.172984 0.091039 -0.016263
            CHANNELS 3 Zrotation Yrotation Xrotation
            JOINT rradius
            {
              OFFSET -0.295317 -0.000000 -0.000000
              CHANNELS 3 Zrotation Yrotation Xrotation
              JOINT rwrist
              {
                OFFSET -0.206384 -0.000000 0.000000
                CHANNELS 3 Zrotation Yrotation Xrotation
                End Site
                {
                  OFFSET -0.103192 -0.000000 0.000000
                }
              }
            }
          }
        }
      }
    }
  }
}
MOTION
Frames: 36
Frame Time: 0.04166667
0.00000 0.83043 0.00000 -178.58200 -26.08790 -157.83900 0.00000 -0.00000 0.00000 -6.01125 -6.87958 -74.91961 21.31022 19.95879 93.83335 0.25630 -8.16914 -9.96242 0.60584 -4.98220 -13.85782 0.00000 -0.00000 0.00000 24.00232 -6.49618 -9.45051 -5.23288 -13.64135 41.81932 -1.97643 -6.72273 -29.66169 -7.52600 15.75930 -50.83679 3.07884 3.90483 17.08290 -1.29742 5.63079 -0.91331 -4.57000 2.44896 -10.15010 -6.90029 -5.64718 -15.93630 -4.00469 -5.66595 13.65900 -0.80178 -3.52838 6.89215 0.00000 0.00000 0.00000 -63.02473 35.59593 11.01934 49.96671 -52.98206 -26.14758 -0.00000 0.00000 -8.88301 0.00000 0.00000 0.00000 68.16775 15.93419 46.59018 -112.47522 58.00255 -79.33358 0.00000 -0.00000 -0.83366
0.00000 0.83816 0.00000 -177.70300 -34.20790 -160.19600 0.00000 -0.00000 0.00000 -7.19327 -10.77617 -81.26611 16.12107 19.63537 78.59221 0.14644 -10.51802 -9.50524 0.87734 -5.97150 -16.70176 0.00000 -0.00000 0.00000 28.58246 -12.11496 6.11694 -1.90176 -8.65837 24.73238 0.08063 -5.03129 -1.97000 -5.49675 13.92227 -42.92694 2.36923 4.07007 14.99620 -2.43226 5.50450 0.34820 -5.08518 2.49904 -7.55165 -9.49713 -7.23914 -13.20980 -0.70309 -8.03708 14.98800 0.46214 -4.51678 7.14077 -0.00000 -0.00000 0.00000 -53.72929 39.84250 11.81657 63.19195 -57.10219 -37.00940 -0.00000 0.00000 -15.23530 -0.00000 -0.00000 0.00000 61.95387 12.54991 41.26364 -121.39322 55.92711 -86.81557 0.00000 0.00000 3.42085
0.00000 0.84865 0.00000 -174.67400 -41.90950 -161.48900 0.00000 -0.00000 0.00000 -12.72942 -12.90592 -85.37902 9.82933 17.31276 58.91641 -0.34519 -11.08846 -0.18268 0.52980 -4.66428 -12.95345 0.00000 -0.00000 0.00000 34.94651 -12.47712 7.29524 -1.53287 -7.81652 22.15818 -1.86037 -1.34200 25.42278 -4.84627 13.20855 -40.15425 1.97820 3.95784 14.88620 -3.16089 5.14890 1.62546 -5.48031 2.35965 -6.11756 -10.86200 -8.14646 -12.11500 2.37045 -9.64616 16.24800 1.49462 -5.10210 7.65961 0.00000 -0.00000 0.00000 -53.80484 39.20576 6.81803 80.62850 -59.66553 -51.89316 -0.00000 0.00000 -12.83850 0.00000 -0.00000 0.00000 61.87249 9.01123 37.04218 -111.30000 58.21434 -78.33575 0.00000 -0.00000 -3.81924
0.00000 0.85762 0.00000 -172.17800 -46.98900 -165.42900 0.00000 -0.00000 0.00000 -20.34026 -13.03736 -82.82526 5.97178 14.40094 44.86834 0.19073 -5.97530 12.54261 0.37943 -3.95599 -10.95289 0.00000 -0.00000 0.00000 38.02176 -14.71426 -4.13978 -6.74689 -15.11500 47.91042 -0.40514 -2.41101 11.43287 -5.69155 14.12262 -43.73087 0.88050 4.18017 20.46800 -3.62327 4.77388 4.99549 -5.55604 2.07067 -5.57649 -12.39830 -9.11899 -9.91827 4.98402 -11.25100 13.39440 2.51270 -5.70362 6.70338 0.00000 -0.00000 0.00000 -62.51641 33.52442 -0.00542 101.69588 -59.47675 -70.11113 -0.00000 0.00000 -11.97820 0.00000 -0.00000 0.00000 65.51002 8.99944 31.82654 -85.83650 59.93440 -56.39510 0.00000 -0.00000 -6.76800
0.00000 0.85131 0.00000 -167.32100 -50.71230 -172.79900 0.00000 -0.00000 0.00000 -19.73758 -13.32426 -79.14599 6.18439 14.60468 45.71732 0.57487 1.85022 13.80669 0.38716 -3.99564 -11.06440 0.00000 -0.00000 0.00000 38.98471 -16.19037 -17.85785 -14.94682 -19.37645 75.07647 0.03528 -5.66243 2.81426 -4.26912 12.51017 -37.56150 1.16576 4.67530 27.64750 -2.70374 4.73165 8.96101 -5.04588 1.80323 -4.86153 -13.00990 -9.41895 -7.56394 6.74291 -11.94580 10.22520 3.23460 -5.95289 5.50893 -0.00000 0.00000 0.00000 -73.75157 26.03442 0.35401 122.73384 -55.53632 -87.92349 -0.00000 0.00000 -12.05850 -0.00000 0.00000 0.00000 66.61523 13.08348 28.59337 -56.01225 55.15012 -31.04505 0.00000 -0.00000 -16.16370
0.00000 0.82184 0.00000 -162.51900 -54.53030 -178.22200 0.00000 -0.00000 0.00000 -16.09180 -14.53754 -77.57125 8.50459 16.47813 54.36050 0.33299 -5.12183 13.99468 2.53681 9.90452 28.66810 0.00000 -0.00000 0.00000 37.01406 -14.88108 -35.35678 -22.26225 -19.87685 96.62744 0.19308 -10.36879 -11.11826 -2.78289 10.33501 -30.06854 1.59872 4.52680 34.19620 -2.27796 3.96877 11.19350 -4.49351 1.20295 -4.77603 -13.02800 -9.83306 -3.80013 9.53665 -12.93730 4.95060 4.27323 -6.37984 3.55972 0.00000 0.00000 0.00000 -79.25461 19.82530 10.72972 137.18227 -49.65347 -99.43827 -0.00000 0.00000 -8.16678 0.00000 0.00000 0.00000 69.56513 17.72042 24.05804 -36.94096 46.14939 -16.19745 0.00000 -0.00000 -17.40760
0.00000 0.78477 0.00000 -166.54300 -61.35070 -176.05200 0.00000 -0.00000 0.00000 -16.40808 -17.70547 -79.81800 13.34589 18.90351 70.19643 -0.07725 -5.56884 -0.74119 2.83821 10.42843 30.37555 0.00000 -0.00000 0.00000 24.43117 -14.78196 -54.05396 -26.00813 -19.11157 107.82033 0.09382 -15.86454 -21.55328 -0.96662 6.25969 -17.53980 -0.92721 4.01258 42.75220 -1.19982 1.74207 12.49050 -1.38322 -0.17535 -6.23337 -14.37160 -10.60320 -2.38027 11.74450 -13.97250 0.60598 5.21929 -6.92881 2.40653 -0.00000 -0.00000 0.00000 -81.50027 12.17372 25.67665 143.12275 -46.10701 -103.84848 -0.00000 -0.00000 5.20324 -0.00000 -0.00000 0.00000 69.85805 19.28450 18.39487 -28.86138 39.89722 -10.67169 0.00000 -0.00000 -14.92440
0.00000 0.74883 0.00000 -164.64400 -70.01810 -178.23100 0.00000 -0.00000 0.00000 -12.02652 -17.40725 -84.31325 18.18328 19.92068 84.68153 -0.21581 -14.29870 -7.28549 2.79099 10.34877 30.11369 0.00000 -0.00000 0.00000 10.18439 -14.37070 -66.39616 -24.23792 -19.56384 102.47796 -0.22730 -17.85687 -27.15365 -0.52512 4.64394 -12.89575 0.28986 1.58963 53.12970 0.55281 -0.96567 11.74780 1.04060 -1.63539 -7.78502 -14.95430 -10.71860 -0.34460 15.02460 -14.09830 -5.57790 6.58400 -7.15291 0.59221 -0.00000 -0.00000 0.00000 -78.55358 3.09797 35.78001 147.87206 -42.64894 -107.17258 -0.00000 -0.00000 9.62736 -0.00000 -0.00000 0.00000 70.07809 21.23374 15.06806 -24.97676 36.18023 -8.27618 0.00000 -0.00000 -12.27140
0.00000 0.73773 0.00000 -158.65100 -74.60610 176.29600 0.00000 -0.00000 0.00000 -7.05157 -10.08629 -85.89158 20.93163 19.97918 92.72480 -0.81293 -25.29924 -12.02551 1.98162 8.82769 25.25778 0.00000 -0.00000 0.00000 -3.07237 -12.14607 -66.69085 -16.78425 -19.75024 80.56006 0.45067 -19.87671 -24.31333 -1.15102 6.81203 -19.15969 1.37285 1.71637 60.87400 2.75968 -0.33093 11.59960 2.82669 -1.65509 -8.42204 -13.80170 -11.32060 1.05380 16.41430 -14.79340 -9.67496 7.03583 -7.72156 -0.67777 0.00000 0.00000 0.00000 -71.69798 -7.85472 38.13210 150.16816 -40.74882 -108.70031 -0.00000 -0.00000 8.93548 0.00000 0.00000 0.00000 69.95651 21.73649 11.56763 -24.42732 35.61288 -7.95402 0.00000 -0.00000 -10.63780
0.00000 0.72009 0.00000 -157.02500 -78.99030 -178.63600 0.00000 -0.00000 0.00000 -1.08427 -3.45863 -93.91755 22.21351 19.88212 96.48410 -2.67757 -34.58291 -9.77997 1.51460 7.77193 22.02349 0.00000 -0.00000 0.00000 -14.66308 -12.71246 -70.36643 -10.94494 -17.90804 62.60267 0.42626 -14.52115 -14.85244 -1.46424 7.64739 -21.64809 2.03116 -0.18836 57.35270 1.91540 -1.91870 12.40120 2.17521 -2.10478 -7.32156 -13.63760 -11.07760 1.49321 19.35310 -14.22800 -11.15110 8.03446 -7.63206 -0.99284 0.00000 -0.00000 0.00000 -58.91527 -16.40579 25.26574 148.59094 -42.07095 -107.65696 -0.00000 -0.00000 2.21015 0.00000 -0.00000 0.00000 73.83156 18.37218 15.79203 -28.37123 39.45575 -10.35875 0.00000 -0.00000 -13.31700
0.00000 0.71310 0.00000 -168.88500 -83.19020 -166.54100 0.00000 -0.00000 0.00000 3.28810 1.28584 -90.79800 21.69203 19.93122 94.95263 -4.35728 -40.44176 -8.36415 0.78696 5.66312 15.81003 0.00000 -0.00000 0.00000 -22.09502 -14.04443 -65.62584 -6.99590 -15.32844 48.85883 1.38244 -20.35319 -9.79493 -1.76951 8.36850 -23.83907 2.39959 -1.35984 61.65230 1.78603 -2.90163 11.93800 2.39115 -2.50638 -7.96263 -13.09990 -11.45930 1.68608 20.25460 -14.56450 -12.70580 8.29656 -7.95092 -1.36916 0.00000 0.00000 0.00000 -46.91229 -22.37819 10.30201 138.52567 -48.91952 -100.45659 -0.00000 0.00000 -4.07611 0.00000 0.00000 0.00000 74.00334 12.15250 19.46410 -36.56440 45.89744 -15.92647 0.00000 -0.00000 -17.78250
0.00000 0.70488 0.00000 172.43700 -83.58090 -146.29600 0.00000 -0.00000 0.00000 9.69205 5.01076 -85.59001 19.92804 19.99988 89.78961 -3.97877 -40.93231 -11.33392 0.00299 0.35330 0.97073 0.00000 -0.00000 0.00000 -18.11491 -16.15590 -73.67191 -7.46617 -15.71221 50.61618 1.03856 -17.72103 -5.55115 -2.57368 9.97065 -28.88175 1.09556 -1.53909 61.22940 0.95936 -3.88005 12.05890 2.43955 -2.83161 -7.82294 -13.07870 -11.24210 1.66645 19.58360 -14.30660 -13.11090 8.12952 -7.80892 -1.59328 0.00000 0.00000 0.00000 -40.05197 -21.69876 -1.03021 120.03880 -56.29958 -85.69119 -0.00000 0.00000 -14.55120 0.00000 0.00000 0.00000 73.19856 8.06946 26.79117 -41.00325 48.65317 -19.18903 0.00000 -0.00000 -9.16748
0.00000 0.70487 0.00000 153.28700 -83.40750 -127.95400 0.00000 -0.00000 0.00000 17.63725 2.20944 -73.16931 16.72232 19.74045 80.37676 -0.54756 -31.72925 -19.60093 1.76098 -8.34939 -23.78041 0.00000 -0.00000 0.00000 -16.15193 -16.64770 -81.66470 -13.09122 -18.81485 69.40859 0.33574 -10.36315 -1.90004 -2.98443 10.66980 -31.17418 1.19238 -2.90625 62.49950 -0.17196 -5.41687 11.71120 1.84615 -3.37810 -8.29234 -13.19900 -11.15620 1.49364 18.35780 -14.29120 -13.57640 7.79275 -7.75051 -1.81451 0.00000 0.00000 0.00000 -46.11152 -18.10475 -7.97379 104.58048 -59.18128 -72.59235 -0.00000 0.00000 -8.46294 0.00000 0.00000 0.00000 74.18396 4.09736 31.65663 -44.61116 50.57656 -21.93797 0.00000 -0.00000 -8.34455
0.00000 0.71947 0.00000 158.38100 -82.01150 -133.79100 0.00000 -0.00000 0.00000 25.40447 -1.98678 -59.33426 13.60107 18.98855 70.98236 0.36626 -16.60176 -15.03963 4.05679 -12.23559 -36.57057 0.00000 -0.00000 0.00000 -7.62088 -14.69892 -88.42415 -18.21288 -19.92325 84.76839 -0.26077 -2.19668 -10.70956 -2.78660 10.34131 -30.08922 0.58915 -3.14816 62.29630 -1.78794 -6.34813 11.69230 0.72949 -3.68539 -8.46896 -13.51150 -10.88320 1.66741 17.85050 -14.04410 -12.56830 7.65975 -7.54818 -1.61472 -0.00000 -0.00000 0.00000 -59.44345 -14.34064 -16.19909 105.53591 -59.06806 -73.41239 -0.00000 0.00000 -13.59740 -0.00000 -0.00000 0.00000 77.30748 0.41914 34.59732 -49.25233 52.68946 -25.57827 0.00000 -0.00000 -11.23990
0.00000 0.74014 0.00000 141.44200 -79.27980 -117.78500 0.00000 -0.00000 0.00000 25.09497 -6.20968 -56.30258 13.05690 18.80261 69.30215 0.00894 -2.22066 3.76900 1.22790 -7.02781 -19.79779 0.00000 -0.00000 0.00000 -0.99300 -14.43906 -90.21171 -21.27569 -19.96094 93.73220 -1.23668 -0.40141 -21.17641 -2.30980 9.48357 -27.32002 -2.25764 -3.05911 61.43960 -4.56288 -8.34851 11.73930 -0.22068 -4.36980 -8.66156 -13.58360 -10.50300 2.30654 19.61870 -13.54540 -10.50030 8.18101 -7.30191 -1.03301 0.00000 -0.00000 0.00000 -69.49189 -11.93646 -19.35238 113.35264 -57.83564 -80.07703 -0.00000 0.00000 -25.45050 0.00000 -0.00000 0.00000 83.53927 -5.65139 34.94128 -54.30964 54.59237 -29.65251 0.00000 -0.00000 -7.85685
0.00000 0.75396 0.00000 127.33900 -79.07070 -103.05900 0.00000 -0.00000 0.00000 18.98984 -3.32070 -64.46459 15.57900 19.52479 76.97478 -0.31592 -10.35469 0.58239 0.38098 -3.96402 -10.97545 0.00000 -0.00000 0.00000 7.04025 -16.10709 -92.52906 -24.03779 -19.60453 101.88089 -1.63783 2.70748 -23.48288 -3.14883 10.93217 -32.05147 -3.17170 -3.50683 57.59420 -5.70509 -9.21259 12.33980 -0.69443 -4.70582 -7.97024 -13.80000 -10.04370 2.94756 19.86790 -13.12870 -8.21917 8.26233 -7.01306 -0.52158 -0.00000 -0.00000 0.00000 -74.20849 -10.26289 -16.19231 119.55482 -56.42740 -85.28824 -0.00000 0.00000 -22.24910 -0.00000 -0.00000 0.00000 88.85431 -11.86157 33.18452 -57.54468 55.61936 -32.30626 0.00000 -0.00000 -7.54025
0.00000 0.75935 0.00000 113.97300 -83.01900 -88.56800 0.00000 -0.00000 0.00000 9.70653 2.60939 -80.72292 21.30263 19.95927 93.81112 -0.08614 -12.08730 -7.23167 0.22995 -3.08646 -8.51956 0.00000 -0.00000 0.00000 14.30335 -18.11424 -98.85397 -27.30126 -18.67067 111.81283 0.41651 11.74115 1.11170 -2.25243 9.37318 -26.96980 -1.54680 -4.17826 53.28490 -4.78696 -8.58531 12.98820 -0.75354 -4.48567 -6.87747 -13.35650 -9.57999 3.44755 21.25930 -12.59410 -6.84230 8.64724 -6.76885 -0.22496 0.00000 0.00000 0.00000 -74.55956 -7.80173 -6.38838 130.61823 -52.74309 -94.31874 -0.00000 0.00000 -19.97440 0.00000 0.00000 0.00000 90.90974 -11.31670 31.60428 -50.44096 53.17180 -26.52671 0.00000 -0.00000 -10.19610
0.00000 0.76075 0.00000 6.54131 -87.09960 17.96140 0.00000 -0.00000 0.00000 0.72186 4.60134 -93.02016 24.83973 19.42890 104.28100 -2.32052 -28.66103 -2.66456 0.94286 -6.18445 -17.32053 0.00000 -0.00000 0.00000 16.64288 -19.94918 -97.93671 -28.81843 -18.02279 116.63020 0.19695 10.57506 11.43174 -0.07580 1.77607 -4.88721 3.11012 -5.34692 53.45940 -2.52028 -7.11834 12.53440 -1.00955 -3.83961 -7.31378 -11.18090 -10.24810 3.66917 21.74010 -13.39210 -6.73595 8.40970 -7.25083 -0.21151 0.00000 -0.00000 0.00000 -71.85722 -7.29179 7.59794 139.95885 -48.09426 -101.53014 -0.00000 0.00000 -13.26550 0.00000 -0.00000 0.00000 91.06988 -6.15860 29.51754 -37.96706 46.81825 -16.94157 0.00000 -0.00000 -12.71510
0.00000 0.76329 0.00000 -26.23910 -85.50890 49.50580 0.00000 -0.00000 0.00000 -5.97017 3.75681 -90.18794 22.90335 19.79668 98.51654 -3.16369 -33.48510 -4.12873 1.47838 7.68260 21.75409 0.00000 -0.00000 0.00000 6.70070 -17.96925 -90.45616 -26.96307 -18.79546 110.75983 -0.02723 -0.38819 3.00218 -0.52350 -4.63691 12.87579 2.12114 -3.32626 54.27390 0.43995 -4.93560 12.19350 1.72811 -3.08245 -7.36390 -13.14660 -10.68870 3.37136 22.93840 -13.85260 -8.74289 9.12599 -7.57131 -0.39158 0.00000 -0.00000 0.00000 -72.89216 -10.34196 19.51619 142.76128 -46.34613 -103.58747 -0.00000 -0.00000 4.73246 0.00000 -0.00000 0.00000 87.03164 0.77062 26.65591 -27.93500 39.05633 -10.08270 0.00000 -0.00000 -10.71470
0.00000 0.76399 0.00000 -25.58810 -86.86710 49.38970 0.00000 -0.00000 0.00000 2.40635 2.18119 -80.28893 20.58007 19.99193 91.69624 1.81778 -20.53087 -26.34047 0.12896 -2.31481 -6.37652 0.00000 -0.00000 0.00000 -4.02229 -14.63171 -84.41016 -19.94107 -19.99992 89.82771 0.38591 -12.09100 -9.97992 -0.68779 -5.30207 14.77216 1.45672 -2.08507 52.57500 1.13094 -3.60839 11.36670 2.21654 -2.46332 -8.09676 -11.70830 -11.96350 2.70164 21.97860 -15.27410 -11.12240 8.55132 -8.39109 -0.90984 0.00000 -0.00000 0.00000 -74.63061 -12.98248 27.52991 139.98126 -48.08099 -101.54682 -0.00000 -0.00000 8.76443 0.00000 -0.00000 0.00000 83.88707 4.30171 19.65964 -24.72533 35.92192 -8.12821 0.00000 -0.00000 -7.08066
0.00000 0.75335 0.00000 89.41860 -87.34250 -65.06390 0.00000 -0.00000 0.00000 8.06890 4.87804 -74.02759 18.70910 19.96000 86.22323 0.91304 -22.37464 -21.85154 1.33139 -7.30669 -20.62720 0.00000 -0.00000 0.00000 -8.76161 -15.19092 -84.44456 -13.38570 -18.91702 70.31928 1.78911 -23.64177 -2.54243 -0.15334 -2.52326 6.95413 -0.09448 -1.49028 47.74130 -0.34720 -3.63572 11.67220 1.37442 -2.30611 -8.43684 -10.57590 -13.04130 2.55041 22.51770 -16.30470 -15.36900 8.70416 -9.23556 -1.97539 -0.00000 0.00000 0.00000 -77.47402 -16.19733 28.07092 122.61976 -55.57045 -87.82942 -0.00000 -0.00000 13.99020 -0.00000 0.00000 0.00000 81.46396 2.81875 14.59102 -28.17940 39.28086 -10.23707 0.00000 -0.00000 -10.18370
0.00000 0.75023 0.00000 119.89500 -80.33330 -99.21670 0.00000 -0.00000 0.00000 8.52852 4.68231 -57.16391 14.64037 19.29688 74.15098 1.38087 -16.51864 -22.47272 3.10836 -10.86844 -31.83746 0.00000 -0.00000 0.00000 -7.46494 -16.52062 -90.07905 -16.52479 -19.70795 79.79148 0.88512 -16.55771 -8.79170 -0.87967 5.97923 -16.72418 -2.14465 -1.69123 47.09890 -2.86337 -5.08240 10.49590 0.38314 -2.82529 -9.71817 -10.82950 -13.21210 1.64698 22.25740 -16.42230 -18.13250 8.76856 -9.39361 -2.61448 -0.00000 -0.00000 0.00000 -80.17177 -16.45850 24.42225 92.86940 -59.96887 -62.48471 -0.00000 -0.00000 10.24530 -0.00000 -0.00000 0.00000 75.61349 3.59790 11.18351 -27.28328 38.44800 -9.67475 0.00000 -0.00000 -3.84107
0.00000 0.75801 0.00000 136.31800 -74.01780 -117.56600 0.00000 -0.00000 0.00000 11.55409 -1.94147 -38.06853 10.55916 17.71252 61.34143 0.75269 -4.19874 -15.51095 4.12035 -12.31885 -36.86947 0.00000 -0.00000 0.00000 -3.15403 -11.55422 -91.27939 -20.07094 -19.99988 90.20741 -0.23087 -10.66938 -18.27943 -0.86657 5.93569 -16.59793 -3.51921 -1.51409 45.42360 -4.33354 -5.62534 8.79400 -0.22454 -2.95234 -11.30330 -10.83360 -12.69740 -0.55466 22.52540 -15.56650 -20.78040 8.93674 -9.09494 -3.13509 0.00000 0.00000 0.00000 -83.55058 -9.58770 20.86443 91.08550 -59.99555 -60.94006 -0.00000 -0.00000 9.66502 0.00000 0.00000 0.00000 67.58774 10.65712 5.75281 -24.89818 36.09974 -8.22984 0.00000 -0.00000 -3.19613
0.00000 0.77712 0.00000 141.06300 -64.14880 -123.38000 0.00000 -0.00000 0.00000 6.83122 -17.88481 -18.39663 6.82852 15.18578 48.22278 -0.15305 12.18862 6.25964 3.42250 -11.34947 -33.46776 0.00000 -0.00000 0.00000 0.33784 -9.80222 -88.84515 -21.65481 -19.93422 94.84343 -1.84192 -4.19240 -27.42128 -1.13470 6.76520 -19.02160 -5.24433 -1.22775 41.71410 -6.35659 -6.13398 7.00567 -1.33107 -3.07635 -12.38680 -12.09630 -12.25690 -2.52003 21.56780 -15.07730 -21.21140 8.74956 -8.66198 -3.02158 -0.00000 -0.00000 0.00000 -86.70397 -3.18844 20.46889 95.09511 -59.90168 -64.41104 -0.00000 -0.00000 7.64712 -0.00000 -0.00000 0.00000 58.23621 19.12616 0.83292 -25.65056 36.86156 -8.67718 0.00000 -0.00000 -4.44428
0.00000 0.80331 0.00000 147.77500 -54.31210 -132.45700 0.00000 -0.00000 0.00000 -4.28642 -27.79481 -5.67640 6.55458 14.94504 47.16884 2.38650 -7.02175 32.33181 0.69094 5.31394 14.80618 0.00000 -0.00000 0.00000 6.07726 -7.69433 -79.86160 -21.48069 -19.94735 94.33290 -3.40375 -1.64306 -35.55509 -1.21958 7.00483 -19.72968 -6.11543 -0.04929 41.16040 -7.03874 -5.27491 4.69331 -1.98270 -2.55968 -14.92450 -14.09230 -11.63800 -4.67040 18.79660 -14.50600 -20.73010 8.07106 -7.98210 -2.79188 0.00000 0.00000 0.00000 -87.87580 4.53401 19.32767 94.28361 -59.93055 -63.70885 -0.00000 -0.00000 3.98161 0.00000 0.00000 0.00000 48.27388 28.65474 0.34174 -31.44746 42.10221 -12.36878 0.00000 -0.00000 -5.23128
0.00000 0.83275 0.00000 154.86900 -46.71700 -134.38100 0.00000 -0.00000 0.00000 -6.86773 -21.63271 -18.94524 11.65254 18.23988 64.88316 1.85963 -3.91223 27.40561 0.51063 4.58041 12.71557 0.00000 -0.00000 0.00000 12.58075 -4.31445 -74.60550 -20.20568 -19.99899 90.60136 -3.67789 0.70187 -36.23206 -2.09286 9.05689 -25.97345 -5.25279 0.03565 33.89080 -6.82018 -3.89208 2.39637 -2.88445 -1.90338 -15.02070 -12.67820 -10.80930 -8.08756 16.07220 -13.61330 -20.59000 6.88928 -7.46315 -2.75520 0.00000 -0.00000 0.00000 -84.61291 12.23017 16.25116 86.32857 -59.94900 -56.82100 -0.00000 -0.00000 5.93698 0.00000 -0.00000 0.00000 40.02468 39.90913 1.10247 -44.52581 50.53405 -21.87206 0.00000 -0.00000 -3.51703
0.00000 0.86637 0.00000 159.75900 -40.35490 -136.22600 0.00000 -0.00000 0.00000 -9.19349 -14.49686 -34.65209 17.22257 19.81403 81.85512 0.54469 -3.88052 15.89862 1.30035 7.22436 20.38178 0.00000 -0.00000 0.00000 17.13450 -3.26957 -63.57826 -17.39381 -19.83637 82.36002 -3.15492 7.86284 -32.20710 -2.17486 9.22118 -26.48968 -5.60229 1.06998 29.25220 -6.56626 -2.12913 0.77139 -3.20340 -1.04343 -14.78090 -10.76130 -10.02750 -9.83576 14.67010 -12.82180 -20.69110 6.14422 -7.14589 -2.88819 0.00000 -0.00000 0.00000 -80.52440 20.26682 13.36461 75.21260 -59.15742 -47.22997 -0.00000 -0.00000 2.51555 0.00000 -0.00000 0.00000 35.99495 46.71917 2.30532 -68.17014 58.12050 -41.21409 0.00000 -0.00000 -4.40462
0.00000 0.89427 0.00000 163.87100 -38.04110 -139.47900 0.00000 -0.00000 0.00000 -9.64928 -12.26134 -49.71009 20.50811 19.99381 91.48577 -0.64981 -14.33271 8.05442 0.09263 1.96291 5.40317 0.00000 -0.00000 0.00000 23.38849 -6.47118 -46.65698 -12.51247 -18.59899 67.60424 -1.99231 12.94936 -25.59464 -2.21546 9.30114 -26.74194 -5.42392 1.35264 25.96170 -5.90500 -1.21736 -0.05674 -3.24285 -0.63070 -14.78850 -9.00744 -9.40724 -9.04229 14.96400 -12.09020 -20.28530 6.02306 -6.89570 -3.04147 0.00000 -0.00000 0.00000 -77.13160 34.04743 14.04827 78.88224 -59.52776 -50.38701 -0.00000 0.00000 -0.79915 0.00000 -0.00000 0.00000 44.03368 48.51455 11.21056 -93.89270 59.94266 -63.37053 0.00000 -0.00000 -5.57861
0.00000 0.91753 0.00000 168.32100 -38.35410 -144.57300 0.00000 -0.00000 0.00000 -8.80906 -13.10603 -60.97733 20.43432 19.99548 91.26997 -1.35990 -20.43150 3.84973 0.29699 3.50420 9.68579 0.00000 -0.00000 0.00000 28.56143 -9.39716 -23.40663 -5.95126 -14.38095 44.78581 0.40551 11.30401 2.54434 -0.65042 5.15887 -14.36224 -5.66290 1.75600 21.92330 -4.52764 -0.02007 0.23562 -1.81439 0.02269 -12.12300 -8.39490 -9.80300 -8.79861 15.91080 -12.54120 -18.76150 6.10437 -7.11389 -2.51589 0.00000 -0.00000 0.00000 -75.34549 44.94287 18.45594 89.35542 -59.99843 -59.44178 -0.00000 0.00000 -2.47421 0.00000 -0.00000 0.00000 53.96180 44.73191 21.20832 -109.38798 58.53092 -76.70766 0.00000 0.00000 0.50845
0.00000 0.93379 0.00000 173.14500 -38.67930 -147.39100 0.00000 -0.00000 0.00000 -8.52347 -15.70501 -72.31895 17.50312 19.84986 82.68204 -1.08933 -18.44317 3.11612 1.46186 7.64144 21.63020 0.00000 -0.00000 0.00000 33.28907 -4.85899 0.48648 -0.89905 -6.04297 16.90916 -3.74531 -5.65108 35.52619 -0.22359 -3.04378 8.40067 -4.51757 1.96905 14.55430 -2.85112 1.47108 0.19918 -0.79900 0.76543 -8.01906 -7.63160 -10.25480 -9.30268 13.88300 -13.28020 -15.88610 5.16166 -7.24538 -1.73576 0.00000 0.00000 0.00000 -78.54953 49.93700 19.21824 97.77070 -59.77060 -66.72444 -0.00000 0.00000 -6.22009 0.00000 0.00000 0.00000 60.08317 37.96264 28.30206 -106.70644 58.91868 -74.41567 0.00000 -0.00000 -3.58257
0.00000 0.94879 0.00000 174.96500 -37.44380 -148.89100 0.00000 -0.00000 0.00000 -12.25504 -19.36657 -76.07677 10.63184 17.75016 61.58007 -0.55616 -13.09369 4.13792 3.18816 10.99359 32.25825 0.00000 -0.00000 0.00000 34.48024 -6.24828 13.03431 -0.33465 -3.71769 10.28374 -2.03380 -11.92103 25.73779 -0.96103 6.24208 -17.48844 -2.45835 2.52707 12.58430 -2.79542 2.69658 -0.11906 -2.07084 1.30920 -7.17517 -7.74606 -10.82180 -9.28023 13.62770 -14.02170 -15.22790 5.02519 -7.55220 -1.48744 0.00000 0.00000 0.00000 -84.50282 49.38682 17.06627 106.87255 -58.89651 -74.55791 -0.00000 0.00000 -8.33983 0.00000 0.00000 0.00000 65.96226 30.98442 30.56838 -89.16644 59.99737 -59.27813 0.00000 -0.00000 -2.43181
0.00000 0.95685 0.00000 178.06000 -31.20090 -153.10100 0.00000 -0.00000 0.00000 -14.70222 -18.04725 -72.65617 4.54922 12.85743 38.83709 0.51945 -7.96550 18.78757 3.63244 11.65453 34.52054 0.00000 -0.00000 0.00000 32.22119 -5.14032 10.60124 -3.69924 -11.74905 34.84992 -2.44791 -4.57886 28.55952 -0.68751 5.30101 -14.76912 -1.24083 4.64480 14.81620 -3.04960 5.57673 0.08760 -3.74927 2.63471 -8.01398 -7.98558 -10.72150 -9.66474 13.38150 -13.92180 -16.06970 5.01893 -7.53040 -1.69985 -0.00000 -0.00000 0.00000 -90.49090 43.99785 14.75575 110.85392 -58.29127 -77.95641 -0.00000 0.00000 -9.23528 -0.00000 -0.00000 0.00000 72.74400 25.57410 29.89601 -63.40562 57.15118 -37.18886 0.00000 -0.00000 -3.35829
0.00000 0.94157 0.00000 -177.50100 -25.03360 -158.23200 0.00000 -0.00000 0.00000 -10.78743 -15.75278 -70.36705 4.52990 12.83399 38.75019 0.94500 -9.14598 23.83184 4.60793 12.92819 39.10024 0.00000 -0.00000 0.00000 31.61888 -2.49331 6.40226 -11.11229 -17.98960 63.14570 -1.32034 -6.37715 20.55729 -0.95607 6.22639 -17.44271 0.09687 6.17514 14.13430 -1.48017 7.99223 0.59327 -3.19338 3.82121 -7.01554 -8.15695 -9.57590 -9.24103 10.90110 -12.54400 -15.19150 4.38641 -6.70739 -1.83471 -0.00000 0.00000 0.00000 -96.31983 37.24697 13.13176 111.95562 -58.09783 -78.89269 -0.00000 0.00000 -8.78275 -0.00000 0.00000 0.00000 77.23144 21.56395 28.65355 -36.86175 46.09669 -16.14035 0.00000 -0.00000 -8.36262
0.00000 0.91999 0.00000 174.66800 -24.74050 -160.36400 0.00000 -0.00000 0.00000 -15.31664 -21.35970 -63.94040 9.44553 17.08603 57.61853 -0.33457 -12.75550 -3.52404 0.01313 0.73999 2.03364 0.00000 -0.00000 0.00000 20.79397 -8.62525 -2.80879 -19.87563 -19.99963 89.63637 -0.29594 -6.08527 9.94578 -0.85607 5.90054 -16.49611 -4.66371 5.00597 19.52770 -2.62397 5.04019 0.66708 -1.64723 2.42702 -10.38930 -7.82731 -9.02866 -9.05816 9.94833 -11.79490 -12.18070 4.35655 -6.17189 -1.26786 0.00000 -0.00000 0.00000 -93.38637 30.78801 18.44010 113.99261 -57.70907 -80.61840 -0.00000 0.00000 -10.63120 0.00000 -0.00000 0.00000 83.47682 13.32424 22.11599 -22.22722 33.23286 -6.70994 0.00000 -0.00000 -4.39418
0.00000 0.91754 0.00000 170.95100 -23.14110 -159.36300 0.00000 -0.00000 0.00000 -20.58254 -17.96215 -57.94160 11.95117 18.36993 65.83395 0.05310 -17.28129 -12.65189 0.00250 0.32321 0.88805 0.00000 -0.00000 0.00000 14.26895 -7.25745 -21.82514 -25.82137 -19.16732 107.25073 -0.01310 0.59854 2.47064 -0.66117 5.20051 -14.48133 -5.97828 4.06779 19.03890 -3.24602 3.43956 0.54120 -1.10607 1.70430 -10.27510 -8.52110 -8.84910 -12.51120 9.13950 -11.33260 -9.26594 3.94424 -5.80326 0.22941 -0.00000 0.00000 0.00000 -87.02398 21.06434 26.41115 114.98221 -57.50517 -81.45402 -0.00000 0.00000 -8.79903 -0.00000 0.00000 0.00000 86.91431 2.07822 12.16538 -17.48765 27.49615 -4.31007 0.00000 -0.00000 -5.58291
0.00000 0.92828 0.00000 168.08700 -20.05710 -159.39200 0.00000 -0.00000 0.00000 -24.30667 -14.21073 -48.46840 12.66068 18.65620 68.06824 0.21237 -20.80941 -16.29014 0.17045 -2.65965 -7.33257 0.00000 -0.00000 0.00000 10.05965 -0.69217 -39.49380 -26.23610 -19.04086 108.51786 -0.11939 3.07590 -6.18447 -1.00638 6.38336 -17.90088 -7.61895 2.45292 18.43360 -3.79800 0.87088 -0.11349 -0.07064 0.55939 -10.60920 -7.49776 -6.76042 -13.80200 7.46787 -8.56899 -6.30721 3.27739 -4.34946 1.04513 0.00000 0.00000 0.00000 -82.48084 15.11828 27.89470 118.85331 -56.60783 -84.70314 -0.00000 0.00000 -8.53399 0.00000 0.00000 0.00000 89.03493 -8.40006 6.97214 -15.82771 25.28647 -3.57205 0.00000 0.00000 0.01942
