HIERARCHY
ROOT root
{
  OFFSET 0.000000 0.000000 0.000000
  CHANNELS 6 Xposition Yposition Zposition Zrotation Yrotation Xrotation
  JOINT lhipjoint
  {
    OFFSET 0.000000 0.000000 0.000000
    CHANNELS 3 Zrotation Yrotation Xrotation
    JOINT lfemur
    {
      OFFSET 0.101782 -0.086417 0.056216
      CHANNELS 3 Zrotation Yrotation Xrotation
      JOINT ltibia
      {
        OFFSET 0.127100 -0.349205 0.000000
        CHANNELS 3 Zrotation Yrotation Xrotation
        JOINT lfoot
        {
          OFFSET 0.127904 -0.351413 0.000000
          CHANNELS 3 Zrotation Yrotation Xrotation
          JOINT ltoes
          {
            OFFSET 0.013378 -0.036756 0.121834
            CHANNELS 3 Zrotation Yrotation Xrotation
            End Site
            {
              OFFSET 0.000000 -0.000000 0.063753
            }
          }
        }
      }
    }
  }
  JOINT rhipjoint
  {
    OFFSET 0.000000 0.000000 0.000000
    CHANNELS 3 Zrotation Yrotation Xrotation
    JOINT rfemur
    {
      OFFSET -0.109489 -0.086417 0.056216
      CHANNELS 3 Zrotation Yrotation Xrotation
      JOINT rtibia
      {
        OFFSET -0.128713 -0.353638 0.000000
        CHANNELS 3 Zrotation Yrotation Xrotation
        JOINT rfoot
        {
          OFFSET -0.127276 -0.349689 0.000000
          CHANNELS 3 Zrotation Yrotation Xrotation
          JOINT rtoes
          {
            OFFSET -0.016016 -0.044004 0.125948
            CHANNELS 3 Zrotation Yrotation Xrotation
            End Site
            {
              OFFSET -0.000000 -0.000000 0.066547
            }
          }
        }
      }
    }
  }
  JOINT lowerback
  {
    OFFSET 0.000000 0.000000 0.000000
    CHANNELS 3 Zrotation Yrotation Xrotation
    JOINT upperback
    {
      OFFSET -0.000050 0.119713 -0.001584
      CHANNELS 3 Zrotation Yrotation Xrotation
      JOINT thorax
      {
        OFFSET -0.000162 0.118345 0.007323
        CHANNELS 3 Zrotation Yrotation Xrotation
        JOINT lowerneck
        {
          OFFSET -0.000004 0.118618 0.007924
          CHANNELS 3 Zrotation Yrotation Xrotation
          JOINT upperneck
          {
            OFFSET 0.004136 0.103590 0.004115
            CHANNELS 3 Zrotation Yrotation Xrotation
            JOINT head
            {
              OFFSET -0.003772 0.098763 -0.027963
              CHANNELS 3 Zrotation Yrotation Xrotation
              End Site
              {
                OFFSET -0.001918 0.104514 -0.009919
              }
            }
          }
        }
        JOINT lclavicle
        {
          OFFSET -0.000004 0.118618 0.007924
          CHANNELS 3 Zrotation Yrotation Xrotation
          JOINT lhumerus
          {
            OFFSET 0.170526 0.066614 0.022918
            CHANNELS 3 Zrotation Yrotation Xrotation
            JOINT lradius
            {
              OFFSET 0.258819 -0.000000 -0.000000
              CHANNELS 3 Zrotation Yrotation Xrotation
              JOINT lwrist
              {
                OFFSET 0.151799 -0.000000 -0.000000
                CHANNELS 3 Zrotation Yrotation Xrotation
                End Site
                {
                  OFFSET 0.075900 -0.000000 -0.000000
                }
              }
            }
          }
        }
        JOINT rclavicle
        {
          OFFSET -0.000004 0.118618 0.007924
          CHANNELS 3 Zrotation Yrotation Xrotation
          JOINT rhumerus
          {
            OFFSET -0.166553 0.067080 0.017740
            CHANNELS 3 Zrotation Yrotation Xrotation
            JOINT rradius
            {
              OFFSET -0.252561 -0.000000 -0.000000
              CHANNELS 3 Zrotation Yrotation Xrotation
              JOINT rwrist
              {
                OFFSET -0.165888 -0.000000 -0.000000
                CHANNELS 3 Zrotation Yrotation Xrotation
                End Site
                {
                  OFFSET -0.082944 -0.000000 -0.000000
                }
              }
            }
          }
        }
      }
    }
  }
}
MOTION
Frames: 26
Frame Time: 0.04166667
0.00000 0.88492 0.00000 -0.08575 -17.39120 12.54900 0.00000 -0.00000 0.00000 -10.47745 -1.87505 -31.79654 7.94887 16.08152 52.37830 0.31520 -2.36914 -10.04952 0.71113 -5.38943 -15.02269 0.00000 -0.00000 0.00000 16.48353 13.07838 -17.90219 -2.73399 -10.25145 29.79490 -1.17142 -6.01222 -23.43841 -0.16538 2.61998 -7.22246 5.28193 -1.12553 0.56480 -0.18783 -1.34209 -5.29275 -3.07435 -0.93904 -5.95641 20.75830 14.61990 1.14949 -19.11260 23.50850 21.24890 -7.28672 11.37790 11.62200 0.00000 0.00000 0.00000 -87.85177 -15.60333 48.31876 105.12391 -59.11784 -73.05889 -0.00000 0.00000 -42.75630 0.00000 0.00000 0.00000 87.30257 13.67425 59.88576 -111.11963 58.24567 -78.18241 0.00000 -0.00000 -27.82760
0.00000 0.88526 0.00000 0.22205 -18.75880 12.17590 0.00000 -0.00000 0.00000 -8.71216 -1.25163 -32.94075 6.66743 15.04533 47.60502 0.32159 2.62485 -12.00368 0.47523 -4.42109 -12.26447 0.00000 -0.00000 0.00000 15.46108 12.94653 -17.62067 -2.71577 -10.22006 29.69234 -1.06749 -6.09212 -22.61769 -0.16453 2.61325 -7.20378 4.60815 -1.49365 1.58712 -0.24352 -1.81300 -5.18439 -2.70134 -1.14857 -6.44812 21.39510 15.09150 2.16072 -19.66870 24.52760 21.52880 -7.45816 11.90820 11.98410 -0.00000 0.00000 0.00000 -92.73250 -24.12092 54.75513 114.99607 -57.50225 -81.46571 -0.00000 0.00000 -47.33610 -0.00000 0.00000 0.00000 92.57782 24.40354 69.07993 -120.82056 56.08729 -86.34077 0.00000 -0.00000 -24.46960
0.00000 0.88512 0.00000 0.45237 -19.28530 12.18520 0.00000 -0.00000 0.00000 -6.36369 -2.84917 -31.24290 4.06278 12.24347 36.59881 -0.06907 10.43376 -13.72101 0.16268 -2.59858 -7.16310 0.00000 -0.00000 0.00000 14.39718 12.37128 -17.45281 -2.67883 -10.15603 29.48349 -1.02653 -6.17321 -22.31766 -0.19288 2.82828 -7.80104 4.03326 -1.79601 2.32410 -0.31156 -2.21649 -5.38322 -2.39257 -1.33537 -7.09690 21.86770 15.36310 2.88949 -19.64100 25.11440 22.05490 -7.45763 12.24540 12.27700 -0.00000 -0.00000 0.00000 -97.63018 -31.19780 60.74496 119.69856 -56.38972 -85.40798 -0.00000 0.00000 -52.13440 -0.00000 -0.00000 0.00000 97.39504 32.05529 77.33678 -127.36556 54.00429 -91.70792 0.00000 -0.00000 -19.70140
0.00000 0.88432 0.00000 0.17930 -19.15890 12.51320 0.00000 -0.00000 0.00000 -3.01946 -6.42562 -28.06195 1.95895 8.78005 25.10969 -1.06658 19.85121 -16.69151 0.01958 0.90347 2.48326 0.00000 -0.00000 0.00000 13.73343 11.59429 -16.59738 -2.49958 -9.83714 28.45094 -1.00363 -6.42916 -22.29128 -0.26185 3.29208 -9.09300 3.91326 -2.09229 2.06796 -0.19341 -2.62619 -5.41150 -2.17321 -1.52713 -6.99708 22.26000 15.55510 3.52736 -19.63830 25.55670 22.42690 -7.47487 12.50900 12.48610 0.00000 0.00000 0.00000 -100.84085 -36.57716 65.57785 121.53167 -55.88778 -86.93022 -0.00000 0.00000 -56.25900 0.00000 0.00000 0.00000 100.91599 37.61076 83.82087 -131.02321 52.57439 -94.64072 0.00000 -0.00000 -16.36070
0.00000 0.88305 0.00000 -0.29211 -18.62010 12.83040 0.00000 -0.00000 0.00000 0.30502 -10.57548 -25.42171 1.04724 6.50769 18.26481 -2.05738 25.58375 -18.40015 0.27384 3.36600 9.29943 0.00000 -0.00000 0.00000 13.15529 10.63306 -14.73198 -2.16893 -9.20942 26.45264 -0.95446 -6.95076 -22.22542 -0.37101 3.91233 -10.83015 3.99896 -2.29413 1.56896 0.02897 -2.90163 -5.50538 -1.98245 -1.66108 -6.82102 22.48360 15.60800 3.89251 -19.40240 25.76130 23.13610 -7.42205 12.64500 12.75720 -0.00000 -0.00000 0.00000 -100.24192 -39.76171 69.02581 121.09308 -56.01155 -86.56684 -0.00000 0.00000 -55.49390 -0.00000 -0.00000 0.00000 101.82152 40.62161 87.18936 -134.03787 51.23121 -97.01352 0.00000 -0.00000 -16.10520
0.00000 0.88043 0.00000 -1.19738 -17.26710 13.29170 0.00000 -0.00000 0.00000 1.91679 -11.63609 -26.31537 1.00871 6.39052 17.92181 -2.40642 26.34981 -13.49738 0.22067 3.02393 8.34537 0.00000 -0.00000 0.00000 12.95599 9.33376 -11.81289 -1.68748 -8.18230 23.26918 -0.87184 -7.83847 -22.15445 -0.49303 4.50194 -12.49326 4.44664 -2.44909 0.90829 0.52199 -3.09120 -5.67805 -1.72617 -1.76503 -6.63655 22.61510 15.48960 3.90591 -19.03430 25.65140 23.97440 -7.35263 12.62130 13.03010 0.00000 0.00000 0.00000 -94.93266 -40.21398 70.68428 120.74663 -56.10767 -86.27941 -0.00000 0.00000 -51.30840 0.00000 0.00000 0.00000 99.40789 41.29580 87.13001 -136.83501 49.83717 -99.17325 0.00000 -0.00000 -16.41440
0.00000 0.87507 0.00000 -2.31583 -14.73680 13.57220 0.00000 -0.00000 0.00000 0.76730 -9.02022 -30.50511 1.63685 8.06473 22.91086 -1.16048 18.65317 -6.97380 0.03277 1.16854 3.21267 0.00000 -0.00000 0.00000 12.97024 7.26134 -7.72490 -1.14924 -6.80693 19.14463 -0.79342 -8.80445 -22.22948 -0.61589 5.02261 -13.97305 5.31146 -2.55241 0.38308 1.18218 -3.18400 -5.87807 -1.52874 -1.83967 -6.57252 22.46190 15.10400 3.40757 -18.36240 25.00050 24.93860 -7.21019 12.32480 13.21140 -0.00000 0.00000 0.00000 -87.11728 -37.36165 71.54174 119.81758 -56.35835 -85.50708 -0.00000 0.00000 -45.27170 -0.00000 0.00000 0.00000 94.47653 40.18559 84.17658 -140.00702 48.06574 -101.56598 0.00000 -0.00000 -16.35980
0.00000 0.86897 0.00000 -2.90393 -11.45160 13.57670 0.00000 -0.00000 0.00000 -1.28167 -8.00272 -34.45441 2.61225 10.03919 29.10374 -0.39151 11.45207 -7.59609 0.00827 -0.58739 -1.61411 0.00000 -0.00000 0.00000 12.48593 4.85459 -2.59124 -0.60771 -4.98974 13.87931 -0.64076 -10.08360 -21.96332 -0.69623 5.33384 -14.86324 5.58100 -2.48991 0.12779 1.87027 -3.06471 -5.97357 -0.97843 -1.77287 -6.49747 21.95550 14.45760 2.44021 -18.06080 23.89670 25.29410 -7.21053 11.75990 13.12240 -0.00000 0.00000 0.00000 -79.33207 -31.37370 72.36470 118.69302 -56.64826 -84.56928 -0.00000 0.00000 -41.92960 -0.00000 0.00000 0.00000 88.79959 38.46809 79.64167 -141.73733 47.00624 -102.84253 0.00000 -0.00000 -15.74960
0.00000 0.86269 0.00000 -3.42265 -8.61129 14.29980 0.00000 -0.00000 0.00000 -2.89507 -8.13822 -37.91510 3.54807 11.53342 34.10074 -0.02579 7.50752 -10.11693 0.04452 -1.36183 -3.74496 0.00000 -0.00000 0.00000 11.84497 2.19411 2.70810 -0.13120 -2.33478 6.43182 -0.31676 -11.40743 -20.09826 -0.77775 5.63067 -15.71647 5.55134 -1.88311 -0.17727 2.55935 -2.21744 -6.38436 -0.29671 -1.33892 -6.67886 21.22210 13.66680 1.05650 -17.84340 22.58600 25.78120 -7.22666 11.05370 13.11140 -0.00000 0.00000 0.00000 -71.96715 -22.83463 72.20790 114.33360 -57.63994 -80.90655 -0.00000 0.00000 -38.67740 -0.00000 0.00000 0.00000 83.45520 34.99461 74.51393 -143.72477 45.70155 -104.28084 0.00000 -0.00000 -12.02430
0.00000 0.85701 0.00000 -3.95232 -7.08899 15.58500 0.00000 -0.00000 0.00000 -3.77816 -8.13933 -41.99510 4.74731 13.09345 39.71930 0.24339 5.03132 -12.53477 0.05631 -1.53126 -4.21190 0.00000 -0.00000 0.00000 10.79655 -0.39939 6.17436 0.00000 0.00000 -0.00000 -0.17956 -10.98156 -18.03433 -0.85878 5.90962 -16.52242 5.57345 -0.93217 -0.37166 2.81259 -0.92222 -6.70872 -0.11873 -0.69654 -6.84739 20.59240 13.17870 -0.76748 -17.55790 21.55330 25.86770 -7.10975 10.45270 13.11470 -0.00000 0.00000 0.00000 -64.30857 -13.07371 68.83831 103.70762 -59.27797 -71.84236 -0.00000 0.00000 -34.84690 -0.00000 0.00000 0.00000 80.12245 30.53359 70.22799 -145.43808 44.49677 -105.49454 0.00000 -0.00000 -10.24810
0.00000 0.85180 0.00000 -3.97068 -6.90088 16.22460 0.00000 -0.00000 0.00000 -4.94950 -7.44840 -45.03369 5.88544 14.31640 44.52020 0.43397 3.38713 -14.15021 0.04706 -1.40003 -3.85022 0.00000 -0.00000 0.00000 9.92814 -0.56186 6.35960 0.00000 -0.00000 0.00000 -0.16647 -11.71752 -18.78568 -0.67876 5.26783 -14.67406 5.09676 0.03635 0.43987 2.29090 0.38239 -6.38551 -0.47787 -0.03393 -6.90159 20.67580 12.93360 -2.21980 -18.04200 20.75890 24.09190 -7.30998 9.99460 12.55510 0.00000 -0.00000 0.00000 -57.09120 -4.91500 60.58661 81.74191 -59.74074 -52.85451 -0.00000 0.00000 -29.13290 0.00000 -0.00000 0.00000 79.45047 27.61121 67.50763 -145.30815 44.59084 -105.40340 0.00000 -0.00000 -11.76990
0.00000 0.84669 0.00000 -4.23699 -6.97554 16.48700 0.00000 -0.00000 0.00000 -5.46652 -7.32226 -46.30897 6.64571 15.02615 47.52130 0.60754 2.95094 -16.08978 0.04669 -1.39448 -3.83492 0.00000 -0.00000 0.00000 10.01782 -0.36327 6.56711 0.00000 -0.00000 0.00000 0.08723 -14.20533 -19.16990 -0.35304 3.81742 -10.56357 5.39602 0.65325 1.06746 1.55096 1.20440 -5.81451 -1.47849 0.34952 -6.59344 20.90090 12.80640 -2.74073 -18.32490 20.18730 22.21320 -7.46200 9.71378 11.83850 -0.00000 -0.00000 0.00000 -52.11953 -1.26620 49.92528 46.51729 -51.49051 -23.42012 -0.00000 0.00000 -4.68521 -0.00000 -0.00000 0.00000 80.75819 27.22783 66.10889 -142.53507 46.49415 -103.42360 0.00000 -0.00000 -11.85090
0.00000 0.84211 0.00000 -4.05757 -6.98610 16.76430 0.00000 -0.00000 0.00000 -5.83963 -8.33025 -47.04039 7.23750 15.52867 49.76695 0.73214 3.39870 -17.74600 0.06873 -1.69141 -4.65358 0.00000 -0.00000 0.00000 9.88635 -0.31475 6.58902 0.00000 0.00000 -0.00000 0.28250 -16.34640 -20.21918 -0.19626 2.85284 -7.86930 5.20385 0.83108 1.63780 0.81777 1.42122 -5.50213 -2.16034 0.45172 -6.55820 21.25890 12.86310 -3.05237 -18.31790 19.92100 20.84150 -7.49130 9.60574 11.35280 -0.00000 0.00000 0.00000 -48.26999 1.73224 38.13923 34.76083 -44.64059 -14.64504 -0.00000 -0.00000 13.41390 -0.00000 0.00000 0.00000 82.20303 28.38448 67.48890 -141.96573 46.86118 -103.00940 0.00000 -0.00000 -9.48211
0.00000 0.83883 0.00000 -4.03334 -6.45481 17.37400 0.00000 -0.00000 0.00000 -5.62615 -9.52576 -48.40266 7.77507 15.95130 51.74840 0.76730 3.72301 -18.30587 0.10954 -2.13404 -5.87624 0.00000 -0.00000 0.00000 9.78974 -0.69245 6.28097 0.00000 0.00000 -0.00000 0.28385 -16.75801 -20.87827 -0.18591 2.77704 -7.65863 5.03324 1.14290 1.69751 0.57233 1.82669 -5.61153 -2.35239 0.65010 -6.67469 20.78610 12.40360 -3.17763 -18.06070 19.09180 20.17740 -7.45580 9.20846 10.84140 -0.00000 -0.00000 0.00000 -45.21462 0.88670 42.84585 37.52701 -46.53455 -16.62145 -0.00000 0.00000 -4.39661 -0.00000 -0.00000 0.00000 82.33455 29.63201 69.58272 -143.57792 45.80129 -104.17565 0.00000 -0.00000 -9.03738
0.00000 0.83847 0.00000 -4.50202 -5.87038 17.58570 0.00000 -0.00000 0.00000 -4.95300 -10.12361 -48.83657 7.99053 16.11228 52.52855 0.76673 3.77245 -18.32901 0.14175 -2.42642 -6.68568 0.00000 -0.00000 0.00000 9.98536 -1.04602 6.43364 0.00000 0.00000 -0.00000 0.17861 -15.67951 -20.34718 -0.27194 3.35440 -9.26703 4.90648 0.97828 1.43897 1.46985 1.63425 -5.63341 -1.32512 0.59027 -6.59170 19.83600 12.28440 -3.37832 -18.24090 19.11420 20.65440 -7.38177 9.12394 10.97360 -0.00000 0.00000 0.00000 -46.66196 -0.31296 43.26450 38.36290 -47.06951 -17.23081 -0.00000 0.00000 -1.63605 -0.00000 0.00000 0.00000 82.72296 31.89662 72.23918 -143.48831 45.86188 -104.11138 0.00000 -0.00000 -9.91482
0.00000 0.84127 0.00000 -4.67034 -6.12944 17.40800 0.00000 -0.00000 0.00000 -4.58923 -10.28148 -48.32464 7.87346 16.02539 52.10561 0.67806 4.27374 -17.68971 0.17049 -2.65994 -7.33339 0.00000 -0.00000 0.00000 9.67561 -0.64536 6.71791 0.00000 0.00000 -0.00000 0.13309 -14.16643 -18.54691 -0.39943 4.05772 -11.23911 4.62670 0.67445 1.53135 2.07496 1.24941 -5.57848 -0.51242 0.43214 -6.62652 19.71300 12.29390 -3.18698 -18.80480 19.20320 19.98210 -7.55303 9.13693 10.76440 0.00000 -0.00000 0.00000 -48.72849 -1.77959 43.63327 39.08356 -47.51747 -17.76038 -0.00000 -0.00000 0.80876 0.00000 -0.00000 0.00000 84.11142 33.58059 74.56392 -142.76233 46.34545 -103.58823 0.00000 -0.00000 -9.15109
0.00000 0.84586 0.00000 -4.24314 -7.17603 16.91250 0.00000 -0.00000 0.00000 -4.79232 -10.18375 -46.85812 7.42086 15.67629 50.44868 0.52752 5.33576 -16.70726 0.19774 -2.86354 -7.89906 0.00000 -0.00000 0.00000 8.81441 0.66704 6.12747 -0.00822 -0.58535 1.60851 -0.00337 -12.11715 -17.28339 -0.43263 4.22092 -11.69904 4.22370 0.49568 1.74658 1.91378 0.99082 -5.54933 -0.43979 0.31861 -6.73062 20.02080 12.23600 -2.82333 -18.80620 19.01540 19.24900 -7.63376 9.10062 10.41860 -0.00000 0.00000 0.00000 -49.42680 -2.78999 46.23892 42.66684 -49.57289 -20.44679 -0.00000 0.00000 -6.31364 -0.00000 0.00000 0.00000 85.33319 34.25592 76.00876 -142.95181 46.22049 -103.72518 0.00000 -0.00000 -10.36450
0.00000 0.85091 0.00000 -3.40779 -8.66569 16.18760 0.00000 -0.00000 0.00000 -5.32436 -9.98839 -44.58853 6.71110 15.08371 47.77302 0.34246 6.98689 -15.77371 0.20662 -2.92674 -8.07486 0.00000 -0.00000 0.00000 7.81593 3.50641 1.86914 -0.35811 -3.84448 10.63955 -0.61433 -9.62991 -21.28680 -0.57381 4.85100 -13.48408 3.71965 0.33041 1.65786 1.50068 0.71191 -5.53934 -0.56856 0.19537 -6.67485 20.26800 12.15120 -1.96526 -19.01030 18.94830 18.58120 -7.79541 9.13090 10.05130 0.00000 -0.00000 0.00000 -50.01877 -3.65021 48.41124 47.37194 -51.87896 -24.09070 -0.00000 0.00000 -8.19238 0.00000 -0.00000 0.00000 85.63250 34.45321 76.41807 -142.68566 46.39575 -103.53273 0.00000 -0.00000 -10.58550
0.00000 0.85552 0.00000 -2.47525 -9.72489 15.16900 0.00000 -0.00000 0.00000 -5.64710 -10.02545 -41.91651 5.86783 14.29902 44.44894 0.10621 8.92276 -14.49899 0.20328 -2.90311 -8.00912 0.00000 -0.00000 0.00000 7.11469 3.66961 -0.89095 -0.80404 -5.72282 15.98228 -0.81502 -9.12794 -22.69654 -0.42903 4.20357 -11.65010 3.17198 0.12140 1.58156 1.11835 0.37818 -5.59697 -0.63649 0.04640 -6.70096 20.08240 11.89530 -1.06688 -18.99550 18.69700 18.33950 -7.85841 9.05827 9.71361 0.00000 -0.00000 0.00000 -52.10656 -4.75745 48.50873 51.76066 -53.68138 -27.58658 -0.00000 0.00000 -3.26330 0.00000 -0.00000 0.00000 84.23840 33.87131 75.29595 -141.93578 46.88028 -102.98754 0.00000 -0.00000 -10.55390
0.00000 0.86007 0.00000 -1.74557 -10.25800 14.15650 0.00000 -0.00000 0.00000 -5.18839 -10.69246 -38.85663 4.86030 13.22472 40.21562 -0.20119 11.40990 -12.91928 0.15741 -2.55641 -7.04608 0.00000 -0.00000 0.00000 7.38586 4.22125 -2.26786 -1.10938 -6.69182 18.80551 -0.64415 -9.96907 -21.88753 -0.36404 3.87584 -10.72763 2.55487 -0.21826 1.46130 0.98958 -0.12228 -5.58481 -0.38951 -0.17192 -6.63058 19.59770 11.90200 -1.10509 -18.95180 18.81710 18.90220 -7.76176 9.07223 9.88787 0.00000 -0.00000 0.00000 -55.79282 -5.49258 46.50383 59.57360 -56.19524 -33.98654 -0.00000 0.00000 -2.80648 0.00000 -0.00000 0.00000 81.60839 32.69160 73.32775 -140.69455 47.65298 -102.07579 0.00000 -0.00000 -10.37720
0.00000 0.86388 0.00000 -1.04798 -10.45800 13.45890 0.00000 -0.00000 0.00000 -4.18972 -11.80504 -35.65882 3.71505 11.77125 34.92747 -0.58682 14.44632 -11.08575 0.08247 -1.85234 -5.09775 0.00000 -0.00000 0.00000 8.30465 4.45686 -3.31725 -1.26411 -7.12684 20.09168 -0.72393 -10.17740 -22.81110 -0.64275 5.12894 -14.27670 2.13543 -0.38635 1.16670 0.64845 -0.39563 -5.68510 -0.49207 -0.29590 -6.57162 19.06490 11.73790 -1.47213 -18.73020 18.66930 19.87260 -7.63271 8.94234 10.18480 -0.00000 -0.00000 0.00000 -60.26486 -6.49661 44.06110 68.74813 -58.22273 -41.70516 -0.00000 0.00000 -5.12284 -0.00000 -0.00000 0.00000 78.59044 29.94053 70.76091 -138.47469 48.94806 -100.41815 0.00000 -0.00000 -9.72032
0.00000 0.86813 0.00000 -0.34007 -10.23240 13.18600 0.00000 -0.00000 0.00000 -2.59726 -13.64888 -32.16632 2.43569 9.72002 28.07474 -1.14338 18.58995 -8.75453 0.00535 -0.47255 -1.29847 0.00000 -0.00000 0.00000 9.73031 4.97542 -4.56824 -1.37653 -7.42454 20.97936 -0.83551 -10.88674 -24.41957 -0.67335 5.24725 -14.61512 1.88967 -0.40951 0.90446 0.00279 -0.47887 -5.88032 -1.02219 -0.34595 -6.63340 18.38060 11.53530 -2.37026 -17.86410 18.29670 21.19220 -7.25101 8.70290 10.57770 0.00000 0.00000 0.00000 -64.65167 -7.55417 42.06274 76.03473 -59.25009 -47.93618 -0.00000 0.00000 -4.65749 0.00000 0.00000 0.00000 76.24337 24.98373 68.26681 -134.36576 51.07544 -97.26889 0.00000 -0.00000 -10.29040
0.00000 0.87288 0.00000 0.18852 -9.25855 13.43340 0.00000 -0.00000 0.00000 -0.05602 -16.73124 -28.77810 1.26965 7.14183 20.13625 -2.12713 24.91013 -6.77585 0.09007 1.93561 5.32775 0.00000 -0.00000 0.00000 11.62366 5.20510 -6.42842 -1.45874 -7.63365 21.60676 -0.90035 -11.73458 -25.71861 -0.47003 4.39719 -12.19688 1.94519 -0.59534 0.58064 -0.72790 -0.77327 -6.09694 -1.79765 -0.52105 -6.70102 17.71250 11.37210 -3.18334 -16.78490 17.84640 21.96130 -6.78822 8.46185 10.72770 0.00000 -0.00000 0.00000 -68.12014 -7.92904 41.52378 80.99927 -59.69166 -52.21321 -0.00000 0.00000 -2.60250 0.00000 -0.00000 0.00000 75.20939 18.93110 66.10236 -126.27552 54.39149 -90.82384 0.00000 -0.00000 -12.15540
0.00000 0.87703 0.00000 0.19736 -7.77326 13.79860 0.00000 -0.00000 0.00000 4.90674 -24.70258 -25.15147 0.58107 4.88106 13.56964 -4.64551 34.90076 -15.32834 1.29265 7.20377 20.32048 0.00000 -0.00000 0.00000 13.76669 4.91469 -8.79501 -1.60047 -7.97896 22.65019 -0.93519 -11.75567 -26.01002 -0.33173 3.70160 -10.23864 2.61895 -0.98081 0.29784 -1.20905 -1.29703 -6.21758 -2.64789 -0.83654 -6.72621 17.17040 11.29880 -3.73445 -15.74410 17.48290 22.21910 -6.34484 8.29559 10.68500 0.00000 0.00000 0.00000 -70.60197 -6.91775 42.10138 83.44175 -59.83685 -54.32350 -0.00000 -0.00000 2.34144 0.00000 0.00000 0.00000 75.08616 12.67885 63.96301 -113.13891 57.87700 -79.89606 0.00000 -0.00000 -15.18340
0.00000 0.87961 0.00000 0.18261 -6.94246 13.74480 0.00000 -0.00000 0.00000 9.16292 -34.89867 -22.12400 0.49720 4.52067 12.54630 -2.63536 34.44385 -36.40708 3.62826 11.64858 34.49987 0.00000 -0.00000 0.00000 15.33426 4.79325 -11.42896 -1.93239 -8.72380 24.93509 -1.01379 -11.18824 -26.11057 -0.24997 3.21706 -8.88366 3.16667 -1.23208 0.18611 -1.40929 -1.62767 -6.19941 -3.14651 -1.03757 -6.69328 16.91520 11.28420 -4.01495 -15.02360 17.28760 22.40670 -6.05493 8.22484 10.66810 0.00000 -0.00000 0.00000 -72.45658 -4.23389 43.52381 82.26007 -59.77242 -53.30215 -0.00000 -0.00000 8.76914 0.00000 -0.00000 0.00000 75.15931 6.87219 61.11632 -94.04117 59.93820 -63.49903 0.00000 -0.00000 -16.16930
0.00000 0.88238 0.00000 0.69544 -6.59249 13.11080 0.00000 -0.00000 0.00000 3.55257 -25.19059 -21.49259 0.58103 4.88090 13.56917 -3.15641 30.13925 -18.61578 1.39844 7.48094 21.14825 0.00000 -0.00000 0.00000 16.05698 5.32472 -12.60836 -2.15515 -9.18204 26.36643 -0.99667 -11.45712 -26.21575 -0.16281 2.59963 -7.16601 2.73878 -1.32680 0.51335 -1.47768 -1.76656 -6.06806 -2.96309 -1.08272 -6.73852 16.71390 11.18820 -4.31499 -14.39680 17.01200 22.74340 -5.82649 8.11563 10.71310 -0.00000 0.00000 0.00000 -73.92617 -0.56932 45.36804 76.29200 -59.27793 -48.15731 -0.00000 -0.00000 13.50370 -0.00000 0.00000 0.00000 75.09683 1.89672 58.13980 -71.45599 58.65992 -44.01268 0.00000 -0.00000 -12.24310
