HIERARCHY
ROOT root
{
  OFFSET 0.000000 0.000000 0.000000
  CHANNELS 6 Xposition Yposition Zposition Zrotation Yrotation Xrotation
  JOINT lhipjoint
  {
    OFFSET 0.000000 0.000000 0.000000
    CHANNELS 3 Zrotation Yrotation Xrotation
    JOINT lfemur
    {
      OFFSET 0.102404 -0.080329 0.066655
      CHANNELS 3 Zrotation Yrotation Xrotation
      JOINT ltibia
      {
        OFFSET 0.121828 -0.334720 0.000000
        CHANNELS 3 Zrotation Yrotation Xrotation
        JOINT lfoot
        {
          OFFSET 0.142104 -0.390427 0.000000
          CHANNELS 3 Zrotation Yrotation Xrotation
          JOINT ltoes
          {
            OFFSET 0.010339 -0.028407 0.110130
            CHANNELS 3 Zrotation Yrotation Xrotation
            End Site
            {
              OFFSET 0.000000 -0.000000 0.057305
            }
          }
        }
      }
    }
  }
  JOINT rhipjoint
  {
    OFFSET 0.000000 0.000000 0.000000
    CHANNELS 3 Zrotation Yrotation Xrotation
    JOINT rfemur
    {
      OFFSET -0.081233 -0.080330 0.066655
      CHANNELS 3 Zrotation Yrotation Xrotation
      JOINT rtibia
      {
        OFFSET -0.127134 -0.349297 0.000000
        CHANNELS 3 Zrotation Yrotation Xrotation
        JOINT rfoot
        {
          OFFSET -0.139133 -0.382266 0.000000
          CHANNELS 3 Zrotation Yrotation Xrotation
          JOINT rtoes
          {
            OFFSET -0.014837 -0.040763 0.099426
            CHANNELS 3 Zrotation Yrotation Xrotation
            End Site
            {
              OFFSET -0.000000 -0.000000 0.053684
            }
          }
        }
      }
    }
  }
  JOINT lowerback
  {
    OFFSET 0.000000 0.000000 0.000000
    CHANNELS 3 Zrotation Yrotation Xrotation
    JOINT upperback
    {
      OFFSET -0.004925 0.109363 -0.016307
      CHANNELS 3 Zrotation Yrotation Xrotation
      JOINT thorax
      {
        OFFSET 0.000675 0.109981 0.003368
        CHANNELS 3 Zrotation Yrotation Xrotation
        JOINT lowerneck
        {
          OFFSET 0.002891 0.112938 0.011517
          CHANNELS 3 Zrotation Yrotation Xrotation
          JOINT upperneck
          {
            OFFSET 0.001559 0.090381 0.019281
            CHANNELS 3 Zrotation Yrotation Xrotation
            JOINT head
            {
              OFFSET -0.002701 0.094100 -0.013586
              CHANNELS 3 Zrotation Yrotation Xrotation
              End Site
              {
                OFFSET -0.001235 0.095160 -0.006750
              }
            }
          }
        }
        JOINT lclavicle
        {
          OFFSET 0.002891 0.112938 0.011517
          CHANNELS 3 Zrotation Yrotation Xrotation
          JOINT lhumerus
          {
            OFFSET 0.146536 0.100864 -0.016287
            CHANNELS 3 Zrotation Yrotation Xrotation
            JOINT lradius
            {
              OFFSET 0.292299 -0.000000 0.000000
              CHANNELS 3 Zrotation Yrotation Xrotation
              JOINT lwrist
              {
                OFFSET 0.192136 -0.000000 -0.000000
                CHANNELS 3 Zrotation Yrotation Xrotation
                End Site
                {
                  OFFSET 0.096068 -0.000000 -0.000000
                }
              }
            }
          }
        }
        JOINT rclavicle
        {
          OFFSET 0.002891 0.112938 0.011517
          CHANNELS 3 Zrotation Yrotation Xrotation
          JOINT rhumerus
          {
            OFFSET -0.162418 0.087763 -0.041252
            CHANNELS 3 Zrotation Yrotation Xrotation
            JOINT rradius
            {
              OFFSET -0.306127 -0.000000 -0.000000
              CHANNELS 3 Zrotation Yrotation Xrotation
              JOINT rwrist
              {
                OFFSET -0.193077 -0.000000 -0.000000
                CHANNELS 3 Zrotation Yrotation Xrotation
                End Site
                {
                  OFFSET -0.096539 -0.000000 -0.000000
                }
              }
            }
          }
        }
      }
    }
  }
}
MOTION
Frames: 96
Frame Time: 0.04166667
0.00000 0.09327 0.00000 8.11865 -0.00006 -93.78546 0.00000 -0.00000 0.00000 10.18028 13.34125 -31.95604 15.97291 19.60665 78.15098 0.80838 2.53385 16.31919 0.32500 3.66423 10.13390 0.00000 -0.00000 0.00000 19.35605 -24.17300 -22.14293 -6.67026 -15.04782 47.61590 1.48136 -21.04816 -10.39874 -0.40002 -4.06070 11.24751 6.81434 -2.74649 28.50450 4.20032 -0.31455 16.54240 0.89496 1.02032 2.98608 2.35049 -1.01648 -1.76620 -4.18443 2.48860 43.07800 -1.57301 2.22823 15.64210 0.00000 -0.00000 0.00000 -49.76620 -33.61327 45.69991 12.23057 -20.14953 -2.18107 -0.00000 0.00000 -10.56520 0.00000 -0.00000 0.00000 57.54285 37.80032 46.54160 -12.08282 19.92874 -2.13044 0.00000 0.00000 14.03570
0.00000 0.09437 0.00000 7.70502 -1.84801 -91.19920 0.00000 -0.00000 0.00000 12.03986 13.33320 -35.78957 16.48804 19.70168 79.68248 0.86641 2.04149 17.01741 0.25969 3.27859 9.05533 0.00000 -0.00000 0.00000 22.44840 -23.14503 -25.18818 -6.78118 -15.14483 48.04181 1.47546 -21.00192 -10.30141 -0.39405 -4.03064 11.16289 8.02609 -3.08945 28.82880 4.37985 -0.40415 16.27180 0.43245 1.02936 2.54364 2.50272 -0.87719 -1.48757 -4.28266 2.75315 43.04960 -1.61346 2.35067 15.58090 0.00000 0.00000 0.00000 -51.62340 -34.76776 45.35751 11.91467 -19.67655 -2.07347 -0.00000 0.00000 -8.85908 0.00000 0.00000 0.00000 60.03687 39.72487 47.08414 -12.29943 20.25218 -2.20484 0.00000 0.00000 14.16560
0.00000 0.09491 0.00000 7.75046 -1.08665 -90.36721 0.00000 -0.00000 0.00000 11.15853 13.44930 -36.94167 16.80235 19.75306 80.61363 0.91096 2.07303 17.45669 0.38624 3.99097 11.05128 0.00000 -0.00000 0.00000 21.95873 -22.38019 -26.64823 -7.14063 -15.44918 49.40420 1.53727 -21.32842 -9.27745 -0.43623 -4.23824 11.74789 6.40459 -2.76843 30.47670 4.02037 -0.16084 16.64090 0.89713 1.09183 2.23223 2.35040 -0.84912 -1.60878 -3.77861 2.64103 43.19140 -1.38389 2.32488 15.66900 -0.00000 0.00000 0.00000 -51.70207 -35.64753 48.48309 12.62282 -20.73207 -2.31806 -0.00000 0.00000 -11.41600 -0.00000 0.00000 0.00000 61.18642 41.37775 47.79381 -13.01677 21.31178 -2.45938 0.00000 0.00000 13.22200
0.00000 0.09567 0.00000 7.63691 -1.13797 -91.18572 0.00000 -0.00000 0.00000 11.54809 13.25162 -36.25512 17.01061 19.78438 81.22937 0.84375 1.03152 17.04028 0.14910 2.48828 6.85714 0.00000 -0.00000 0.00000 21.56263 -22.69473 -26.29045 -7.44306 -15.69392 50.53080 1.44657 -20.70426 -7.97179 -0.18203 -2.74805 7.57808 5.32897 -2.83734 34.67850 3.86137 0.01642 16.80680 1.25839 1.18400 0.88666 3.39882 -1.09384 -0.54847 -5.71687 2.70490 41.82010 -2.40300 2.22934 14.74340 0.00000 -0.00000 0.00000 -52.03776 -35.87358 49.61873 13.29563 -21.71884 -2.56165 -0.00000 0.00000 -12.28120 0.00000 -0.00000 0.00000 61.77006 42.26203 49.23527 -14.08353 22.85400 -2.86047 0.00000 0.00000 11.53990
0.00000 0.09661 0.00000 6.74477 -1.96571 -90.44075 0.00000 -0.00000 0.00000 12.56127 12.32375 -37.85965 17.42315 19.84005 82.44647 0.83300 0.87236 16.97480 0.26224 3.29447 9.09967 0.00000 -0.00000 0.00000 22.60580 -22.55981 -27.50572 -7.65786 -15.86175 51.32076 1.37147 -20.19169 -7.93846 -0.21407 -2.97868 8.21941 6.04501 -3.17283 36.68080 3.63307 0.12451 16.85140 0.63327 1.34411 0.29064 2.80751 -1.13251 -2.02188 -3.98504 2.18014 43.29940 -1.63017 2.12431 15.80410 0.00000 0.00000 0.00000 -51.25997 -36.50154 51.64051 14.12866 -22.91833 -2.87802 -0.00000 0.00000 -13.96110 0.00000 0.00000 0.00000 61.84488 42.50001 48.73885 -15.36754 24.65562 -3.37778 0.00000 0.00000 10.38220
0.00000 0.09845 0.00000 5.46866 -2.59378 -88.64315 0.00000 -0.00000 0.00000 12.86842 10.67600 -40.50230 17.67613 19.87003 83.19130 0.82241 0.40108 17.00938 0.29505 3.49283 9.65401 0.00000 -0.00000 0.00000 23.92881 -22.01402 -30.05463 -7.90865 -16.05165 52.23298 1.41451 -20.52133 -6.53429 -0.25915 -3.27515 9.04574 6.62516 -3.52997 37.10000 3.57980 -0.03261 16.95670 0.33774 1.33072 0.28457 3.08531 -1.27109 -2.11972 -3.86319 1.83977 43.16510 -1.67704 2.00735 15.73240 -0.00000 0.00000 0.00000 -50.37579 -36.85774 52.56167 14.73637 -23.77758 -3.11888 -0.00000 0.00000 -15.04550 -0.00000 0.00000 0.00000 60.63366 42.53768 48.79583 -16.95286 26.79559 -4.06607 0.00000 0.00000 8.80290
0.00000 0.09146 0.00000 4.24096 -2.53314 -93.75264 0.00000 -0.00000 0.00000 13.43917 8.25369 -36.08650 17.78696 19.88217 83.51728 0.83514 -0.95419 17.63647 0.16804 2.64089 7.28049 0.00000 -0.00000 0.00000 21.70335 -24.50167 -25.62829 -8.17471 -16.24626 53.18955 1.30243 -19.81774 -5.22314 -0.32665 -3.67339 10.15956 5.87049 -4.45074 47.87820 3.25154 0.27178 16.08650 0.56508 1.66100 -2.24281 2.80979 -1.48495 -2.37452 -3.36115 1.37857 43.35030 -1.47122 1.81407 15.86240 -0.00000 -0.00000 0.00000 -49.24341 -37.04051 54.07709 15.40557 -24.70806 -3.39366 -0.00000 0.00000 -16.88520 -0.00000 -0.00000 0.00000 58.56122 42.07611 48.22794 -18.34245 28.59343 -4.71199 0.00000 0.00000 7.60165
0.00000 0.09486 0.00000 2.35966 -2.40805 -89.13777 0.00000 -0.00000 0.00000 12.45440 6.06278 -42.00802 18.02398 19.90612 84.21381 0.84378 -0.75634 17.64626 0.06339 1.62450 4.46901 0.00000 -0.00000 0.00000 23.58869 -23.31982 -31.76983 -8.53641 -16.49996 54.47261 1.21880 -19.38950 -3.68186 -0.09958 -2.03498 5.60234 6.52056 -4.72189 44.09370 3.28457 -0.38590 16.67200 0.30369 1.29881 -1.88922 3.00726 -1.59447 -2.25141 -3.53048 1.31346 43.59140 -1.59346 1.80407 15.96460 -0.00000 0.00000 0.00000 -48.19961 -36.31841 54.65126 15.79481 -25.24164 -3.55801 -0.00000 0.00000 -17.95130 -0.00000 0.00000 0.00000 57.00251 41.54302 48.00340 -19.24638 29.72368 -5.15244 0.00000 0.00000 6.67025
0.00000 0.09468 0.00000 2.19547 -3.25153 -89.75061 0.00000 -0.00000 0.00000 13.59449 5.78689 -41.75333 18.16727 19.91928 84.63455 0.86815 -1.20443 18.07769 0.06986 1.70526 4.69180 0.00000 -0.00000 0.00000 24.25129 -23.13230 -31.53599 -8.69378 -16.60658 55.02498 1.13043 -18.74825 -3.30564 -0.10402 -2.07974 5.72606 6.09568 -4.83933 48.44130 3.43631 0.04931 15.99440 0.75193 1.55013 -2.41695 2.61437 -1.54767 -2.34718 -3.80965 1.58850 43.61770 -1.61404 1.80734 16.01840 -0.00000 0.00000 0.00000 -47.74844 -35.58517 53.92229 15.69001 -25.09853 -3.51344 -0.00000 0.00000 -18.48170 -0.00000 0.00000 0.00000 55.20885 41.64754 47.17479 -19.57683 30.12914 -5.31730 0.00000 0.00000 6.49336
0.00000 0.09680 0.00000 0.97042 -3.63755 -86.61020 0.00000 -0.00000 0.00000 13.87851 4.96747 -45.89695 18.30409 19.93090 85.03600 0.88465 -1.83686 18.52133 0.17436 2.68981 7.41631 0.00000 -0.00000 0.00000 26.04089 -22.22812 -35.92071 -8.95163 -16.77649 55.92268 1.05863 -18.26854 -2.69197 -0.03187 -1.15230 3.16797 7.96626 -5.19067 45.85720 2.84412 0.02803 16.98170 -0.99928 1.71399 -1.91548 4.11856 -2.04805 -2.40557 -3.52590 0.43477 43.63720 -1.91894 1.57913 15.97320 -0.00000 0.00000 0.00000 -45.79259 -35.82502 55.35799 15.83480 -25.29614 -3.57508 -0.00000 0.00000 -19.77520 -0.00000 0.00000 0.00000 55.01855 40.84760 43.91010 -19.01289 29.43469 -5.03718 0.00000 0.00000 7.72173
0.00000 0.09556 0.00000 2.55695 -5.77990 -89.41406 0.00000 -0.00000 0.00000 16.83269 6.94515 -42.65380 18.27049 19.92813 84.93744 0.80381 -3.71054 18.67533 0.17731 2.71235 7.47890 0.00000 -0.00000 0.00000 27.24614 -22.42506 -32.46580 -8.67335 -16.59286 54.95346 1.00878 -17.93090 -2.26472 -0.08359 -1.86490 5.13243 8.46857 -5.41336 53.54940 2.19701 1.42800 15.59100 -2.05710 2.56869 -3.24176 4.36040 -2.10219 -3.01007 -3.06894 0.21422 44.52530 -1.80103 1.61641 16.61410 0.00000 0.00000 0.00000 -44.68720 -34.75165 56.63862 16.13308 -25.70076 -3.70349 -0.00000 0.00000 -21.19110 0.00000 0.00000 0.00000 55.06569 40.29814 41.60186 -18.38872 28.65204 -4.73415 0.00000 0.00000 8.85370
0.00000 0.09905 0.00000 0.63788 -5.46875 -84.21266 0.00000 -0.00000 0.00000 16.26451 5.15853 -48.92751 18.56532 19.95058 85.80195 0.93596 -1.56183 18.90374 0.61951 5.03708 14.01434 0.00000 -0.00000 0.00000 29.11495 -21.43185 -39.57806 -9.17943 -16.92181 56.70861 1.01806 -18.18649 -1.57427 -0.00004 -0.04292 0.11793 9.40767 -5.56367 49.39660 2.23063 0.88544 15.50810 -2.32168 2.19331 -2.87007 4.26748 -2.19065 -3.38722 -2.71779 -0.01034 44.97920 -1.66284 1.56223 16.96430 -0.00000 -0.00000 0.00000 -44.58098 -33.52457 57.83063 16.25246 -25.86177 -3.75541 -0.00000 0.00000 -21.45880 -0.00000 -0.00000 0.00000 54.79642 39.08461 40.24703 -18.18502 28.39343 -4.63689 0.00000 0.00000 8.47985
0.00000 0.09973 0.00000 -0.12431 -6.25459 -82.03388 0.00000 -0.00000 0.00000 17.43506 4.80806 -51.85582 18.88914 19.97039 86.75051 0.96288 -3.86780 20.31756 0.07015 1.70871 4.70131 0.00000 -0.00000 0.00000 30.39080 -20.45572 -41.86315 -9.39726 -17.05667 57.45410 1.02991 -17.92768 -3.17164 -0.13885 -2.40157 6.61683 10.52460 -5.95416 48.44660 2.01652 0.78343 15.89250 -3.01288 2.25584 -2.24875 4.21157 -2.21273 -3.21956 -2.37429 -0.27655 44.17840 -1.53819 1.41020 16.44340 0.00000 0.00000 0.00000 -43.42002 -32.36989 60.06513 17.16467 -27.07435 -4.16201 -0.00000 0.00000 -22.84720 0.00000 0.00000 0.00000 55.42216 38.79442 37.58498 -17.84956 27.96411 -4.47847 0.00000 0.00000 10.02920
0.00000 0.11258 0.00000 3.35960 0.87266 -73.24361 0.00000 -0.00000 0.00000 7.99393 6.91813 -58.11574 18.28984 19.92973 84.99421 0.70804 0.63803 15.69510 1.94030 8.74061 24.98722 0.00000 -0.00000 0.00000 23.83425 -13.87243 -50.96645 -10.29054 -17.57002 60.45508 0.98408 -17.69955 -2.31950 -0.00747 -0.55797 1.53325 2.62117 -1.43217 38.18310 1.18857 1.35457 16.84960 -0.55726 1.87797 -0.21181 4.31954 -2.34759 -3.68662 -2.46577 -0.40658 44.84630 -1.62427 1.39209 16.93900 0.00000 0.00000 0.00000 -42.90748 -30.48649 64.24373 18.84533 -29.22604 -4.95511 -0.00000 0.00000 -25.42840 0.00000 0.00000 0.00000 54.94654 36.06159 37.92793 -18.95479 29.36246 -5.00866 0.00000 0.00000 7.75125
0.00000 0.11273 0.00000 2.37453 0.66352 -71.38041 0.00000 -0.00000 0.00000 8.68756 6.56823 -60.47863 18.31996 19.93219 85.08257 1.19582 -1.77717 21.37051 0.09546 1.99260 5.48520 0.00000 -0.00000 0.00000 24.19030 -13.42390 -53.14143 -10.67062 -17.77010 61.70720 0.94783 -17.49533 -1.80876 -0.00140 0.24128 -0.66292 2.70077 -1.51219 38.18100 1.45394 1.29784 16.78230 -0.30488 1.82978 -0.29073 4.32250 -2.51352 -3.62691 -2.81369 -0.54827 44.58910 -1.80604 1.25856 16.75770 -0.00000 0.00000 0.00000 -41.88804 -28.14889 68.95647 21.66894 -32.60086 -6.40656 -0.00000 0.00000 -29.27730 -0.00000 0.00000 0.00000 54.89842 33.24789 37.94156 -20.68200 31.45527 -5.88311 0.00000 0.00000 5.53340
0.00000 0.11472 0.00000 2.16399 0.95242 -70.12479 0.00000 -0.00000 0.00000 8.39193 6.95865 -61.83318 18.36966 19.93615 85.22835 1.30170 0.02992 21.57390 0.21079 2.95589 8.15596 0.00000 -0.00000 0.00000 23.49691 -12.95547 -54.15406 -10.91831 -17.89488 62.51601 0.98726 -17.72474 -2.33323 -0.00723 -0.54896 1.50849 2.25554 -1.32579 39.25140 1.38518 1.49110 16.72420 -0.20706 1.92649 -0.53500 4.37471 -2.59141 -3.65986 -2.65491 -0.74286 44.47310 -1.77316 1.18655 16.68850 -0.00000 0.00000 0.00000 -40.75013 -25.61776 73.29465 25.32252 -36.53182 -8.48115 -0.00000 0.00000 -34.09290 -0.00000 0.00000 0.00000 55.17789 29.45954 37.45261 -23.32616 34.44354 -7.32194 0.00000 0.00000 3.41213
0.00000 0.11729 0.00000 1.26158 0.75518 -67.19080 0.00000 -0.00000 0.00000 8.65459 7.03884 -65.91123 18.73132 19.96137 86.28833 1.51927 0.23880 23.24760 0.16123 2.58710 7.13122 0.00000 -0.00000 0.00000 24.18163 -12.58895 -57.60866 -11.28445 -18.07149 63.70191 1.22373 -19.44330 -3.59383 -0.20829 -2.93846 8.10748 3.41754 -1.67923 38.46520 1.03842 1.39795 16.73930 -1.12608 1.96113 -0.24403 4.49389 -2.61539 -3.95558 -2.05529 -1.09633 44.22650 -1.58058 1.09471 16.60980 0.00000 0.00000 0.00000 -38.35864 -22.80339 78.80450 30.49402 -41.31309 -11.73440 -0.00000 0.00000 -38.55930 0.00000 0.00000 0.00000 56.35335 24.38355 36.31144 -27.65534 38.79700 -9.90699 0.00000 0.00000 0.64202
0.00000 0.12242 0.00000 1.90259 3.95400 -65.40609 0.00000 -0.00000 0.00000 4.50161 6.35120 -67.24081 18.58125 19.95167 85.84864 1.52471 -0.30943 23.47362 0.04078 1.30344 3.58412 0.00000 -0.00000 0.00000 20.88153 -13.05192 -60.30092 -11.66999 -18.24764 64.93890 1.07023 -18.28343 -3.11041 -0.15756 -2.55761 7.04941 0.19168 -0.68682 40.75610 0.60523 1.64598 16.47000 -0.05470 1.94869 -1.27406 4.84282 -3.04903 -4.01194 -2.15540 -1.84942 43.71990 -1.79447 0.77285 16.28620 0.00000 -0.00000 0.00000 -36.80714 -19.85499 82.85980 36.34993 -45.75235 -15.77264 -0.00000 0.00000 -42.72960 0.00000 -0.00000 0.00000 56.92097 17.92073 35.25038 -33.67103 43.83951 -13.88470 0.00000 -0.00000 -1.99143
0.00000 0.12695 0.00000 1.78135 5.29646 -62.67030 0.00000 -0.00000 0.00000 2.76340 6.04282 -70.51703 18.81579 19.96634 86.53574 1.36433 -0.23715 22.18067 0.07047 1.71262 4.71208 0.00000 -0.00000 0.00000 19.92790 -12.97205 -64.10521 -12.12092 -18.44130 66.37159 0.95047 -17.42039 -2.21685 -0.06201 -1.60680 4.42020 -0.44006 -0.54591 41.07820 0.20418 1.66432 16.69920 -0.15742 1.98222 -1.10562 4.86574 -3.16235 -4.18467 -1.60390 -2.32565 43.00490 -1.62326 0.57553 15.92200 -0.00000 -0.00000 0.00000 -35.72503 -16.23076 83.94794 42.48256 -49.47385 -20.30662 -0.00000 0.00000 -47.13340 -0.00000 -0.00000 0.00000 58.01864 11.06871 34.32471 -41.38607 48.86998 -19.47691 0.00000 -0.00000 -5.05593
0.00000 0.13056 0.00000 2.01447 5.61713 -61.07236 0.00000 -0.00000 0.00000 2.09441 6.58847 -72.53470 19.21602 19.98526 87.70727 1.28941 -0.46571 21.64456 0.09463 1.98391 5.46118 0.00000 -0.00000 0.00000 19.51340 -12.61436 -66.03962 -12.45356 -18.57587 67.41942 0.90451 -17.24570 -1.24745 -0.06811 -1.68382 4.63264 -0.80255 -0.53502 42.67270 -0.28747 1.74638 17.36030 -0.52654 2.13819 -0.79317 5.26386 -2.90060 -4.59989 -1.59014 -2.17716 41.92740 -1.68101 0.59546 15.44360 -0.00000 0.00000 0.00000 -35.14810 -11.49072 82.51764 48.76238 -52.48399 -25.18912 -0.00000 0.00000 -51.22010 -0.00000 0.00000 0.00000 59.60379 4.60147 33.86919 -50.65709 53.25710 -26.69980 0.00000 -0.00000 -8.96498
0.00000 0.13323 0.00000 -0.04224 4.44729 -56.70762 0.00000 -0.00000 0.00000 4.33809 6.39271 -79.12453 19.91592 19.99983 89.75418 1.43228 2.13731 22.03371 0.73564 5.47952 15.28145 0.00000 -0.00000 0.00000 22.29168 -11.80516 -71.64329 -12.97775 -18.77411 69.05639 0.92082 -17.54454 -0.76348 -0.14081 -2.41842 6.66350 1.13870 -0.92159 41.82620 0.53808 1.90703 16.70340 -0.71103 2.18843 -1.29656 5.11977 -3.00740 -4.78745 -1.78336 -2.27004 41.58960 -1.75379 0.47657 15.29970 -0.00000 -0.00000 0.00000 -36.28072 -5.64328 81.14088 54.30294 -54.59010 -29.64704 -0.00000 0.00000 -53.84560 -0.00000 -0.00000 0.00000 60.96370 -4.50240 33.65239 -61.63291 56.72958 -35.70310 0.00000 -0.00000 -15.36710
0.00000 0.13808 0.00000 -0.48490 6.50400 -53.13925 0.00000 -0.00000 0.00000 2.09831 4.96689 -83.44288 20.01995 19.99999 90.05832 1.52941 2.50977 22.70698 0.25903 3.27440 9.04364 0.00000 -0.00000 0.00000 21.15709 -12.23424 -77.17563 -13.64657 -19.00332 71.12215 0.80092 -16.98591 0.87502 -0.01774 -0.85994 2.36352 0.08464 -0.81059 41.72410 0.70011 1.63153 16.38950 0.08423 1.95279 -1.64184 4.98825 -3.13100 -4.89397 -2.10930 -2.41560 40.64120 -1.88489 0.27665 14.82060 -0.00000 -0.00000 0.00000 -37.54804 -0.47451 79.00022 59.02734 -56.04513 -33.53303 -0.00000 0.00000 -57.45500 -0.00000 -0.00000 0.00000 62.39513 -13.33899 34.08114 -73.77904 58.98207 -46.00025 0.00000 -0.00000 -25.90190
0.00000 0.14169 0.00000 -0.83592 7.66450 -50.44602 0.00000 -0.00000 0.00000 0.94362 4.56997 -86.94252 20.45645 19.99500 91.33466 1.65274 3.47497 23.44002 0.38439 3.98151 11.02465 0.00000 -0.00000 0.00000 20.76262 -12.69549 -80.84364 -14.17179 -19.16531 72.72842 0.83294 -17.10158 0.37268 -0.29720 -3.50541 9.68919 0.64199 -1.46600 39.72210 -0.10312 1.19074 18.08190 -0.80207 1.93551 0.84242 5.16228 -2.85215 -5.09731 -1.42769 -2.55592 38.29100 -1.64432 0.14900 13.74140 -0.00000 -0.00000 0.00000 -37.48661 2.09100 75.72074 61.74164 -56.75645 -35.79402 -0.00000 0.00000 -62.73760 -0.00000 -0.00000 0.00000 65.57535 -18.68568 34.32841 -82.63653 59.79412 -53.62746 0.00000 -0.00000 -37.78140
0.00000 0.14558 0.00000 -0.26529 9.14342 -48.16214 0.00000 -0.00000 0.00000 -1.30995 4.43998 -89.45339 20.62373 19.99067 91.82393 1.72125 4.02565 23.84451 0.43067 4.21148 11.67239 0.00000 -0.00000 0.00000 19.31636 -12.93713 -83.86038 -14.62221 -19.29200 74.09602 0.88634 -17.94036 1.15281 -0.40375 -4.07935 11.30002 -0.74823 -1.15072 40.94920 -0.32706 1.17591 18.00880 -0.34310 1.87429 0.40607 5.17757 -2.77898 -5.39541 -1.40128 -2.61069 37.11120 -1.64332 0.04242 13.26390 -0.00000 -0.00000 0.00000 -38.52799 4.93302 74.20800 63.73836 -57.22650 -37.46851 -0.00000 0.00000 -65.85700 -0.00000 -0.00000 0.00000 67.13996 -24.12747 35.68045 -88.57882 59.99237 -58.76925 0.00000 -0.00000 -48.16310
0.00000 0.14994 0.00000 -0.70503 9.44861 -42.96355 0.00000 -0.00000 0.00000 -1.62142 4.09837 -96.04898 21.07413 19.97231 93.14194 1.82468 4.51275 24.50420 0.35035 3.80300 10.52308 0.00000 -0.00000 0.00000 20.06294 -11.63222 -90.25531 -15.11319 -19.41754 75.57742 0.86249 -18.11455 2.02007 -0.52179 -4.62944 12.85460 -0.46562 -1.26655 38.39950 -0.54271 0.92160 17.80580 -0.60190 1.66768 0.77082 5.58915 -2.51389 -5.54218 -1.46413 -2.40716 35.97040 -1.71426 0.09548 12.79310 -0.00000 0.00000 0.00000 -39.35341 6.85010 71.74002 65.67285 -57.64126 -39.09891 -0.00000 0.00000 -68.54860 -0.00000 0.00000 0.00000 67.76026 -27.25528 38.76224 -90.35320 59.99953 -60.30588 0.00000 -0.00000 -56.33260
0.00000 0.15365 0.00000 -0.45378 9.94278 -40.43326 0.00000 -0.00000 0.00000 -2.56364 3.68836 -98.75633 21.19263 19.96586 93.48893 1.94064 5.57974 25.16411 0.44837 4.29605 11.91107 0.00000 -0.00000 0.00000 19.86630 -11.52941 -93.67114 -15.51602 -19.51096 76.78629 0.71496 -17.52619 3.63311 -0.19298 -2.82903 7.80311 -0.88418 -1.25709 39.52580 -0.89738 0.80699 17.50380 -0.74645 1.61165 0.26311 6.00872 -2.43720 -5.82586 -1.75123 -2.43235 34.77320 -1.89861 0.01743 12.32600 0.00000 -0.00000 0.00000 -39.74980 6.92651 70.51300 66.83085 -57.87117 -40.07834 -0.00000 0.00000 -70.87650 0.00000 -0.00000 0.00000 67.84305 -28.18538 42.33278 -88.48207 59.99129 -58.68547 0.00000 -0.00000 -62.82600
0.00000 0.15606 0.00000 2.70174 10.13182 -35.44847 0.00000 -0.00000 0.00000 -5.66000 5.21737 -103.92353 21.70838 19.92988 95.00058 1.88770 5.91950 24.76852 0.79681 5.69763 15.90958 0.00000 -0.00000 0.00000 17.85564 -8.81576 -99.02006 -15.93887 -19.59989 78.04954 0.67996 -17.73412 4.52703 -0.27275 -3.35937 9.28093 -4.66529 0.52664 38.87930 -0.96182 1.49999 16.71000 0.89253 1.62951 -0.39663 5.71517 -2.17955 -6.28246 -2.16273 -2.03169 33.74350 -1.95685 0.03654 12.00220 0.00000 0.00000 0.00000 -40.82039 6.00448 70.85036 66.93663 -57.89150 -40.16792 -0.00000 0.00000 -71.92110 0.00000 0.00000 0.00000 66.49590 -27.67594 46.16805 -84.77051 59.89641 -55.47271 0.00000 -0.00000 -68.71010
0.00000 0.15799 0.00000 3.15613 10.53448 -31.89900 0.00000 -0.00000 0.00000 -6.74075 4.75094 -108.18943 22.08427 19.89552 96.10419 1.90149 5.67830 24.88730 0.60904 4.99512 13.89465 0.00000 -0.00000 0.00000 17.72046 -8.39219 -103.74790 -16.44899 -19.69495 79.56661 0.62792 -17.56906 5.08472 -0.29314 -3.48161 9.62260 -5.25622 0.74206 38.44910 -0.96654 1.43959 16.09200 1.20355 1.51778 -0.94134 6.06355 -1.85187 -5.88579 -2.62380 -1.56029 32.28630 -2.11540 0.16361 11.34340 0.00000 -0.00000 0.00000 -40.78148 4.73940 72.52684 66.09906 -57.72745 -39.45910 -0.00000 0.00000 -73.78610 0.00000 -0.00000 0.00000 66.63276 -26.63169 48.27297 -80.12117 59.62801 -51.45537 0.00000 -0.00000 -71.21560
0.00000 0.15795 0.00000 3.48649 10.27406 -27.01461 0.00000 -0.00000 0.00000 -7.41033 4.97329 -114.79660 22.68797 19.82588 97.88103 2.03094 6.34176 25.69071 0.77987 5.63814 15.73801 0.00000 -0.00000 0.00000 17.97598 -6.66068 -110.02539 -17.08151 -19.79455 81.43878 0.53787 -17.19033 5.89797 -0.24201 -3.16579 8.74067 -5.67921 1.06720 34.72330 -0.76593 1.78178 16.25820 1.65186 1.53361 0.27370 5.31518 -2.15869 -6.61163 -2.24954 -2.13676 31.45860 -1.90989 -0.19820 11.14890 -0.00000 -0.00000 0.00000 -41.02848 3.33889 73.80415 64.67941 -57.43314 -38.26069 -0.00000 0.00000 -73.79410 -0.00000 -0.00000 0.00000 67.90893 -23.97434 46.80200 -74.96513 59.12840 -47.01753 0.00000 -0.00000 -70.78180
0.00000 0.15962 0.00000 3.24617 10.20986 -24.06837 0.00000 -0.00000 0.00000 -7.90056 5.11424 -118.87274 23.05841 19.77424 98.97459 2.12066 6.82931 26.23535 0.98183 6.30732 17.67875 0.00000 -0.00000 0.00000 18.51488 -5.99038 -113.76584 -17.45729 -19.84428 82.54704 0.47424 -16.92340 6.46375 -0.27458 -3.37048 9.31195 -5.32980 0.89741 34.65510 -0.84518 1.52809 15.57710 1.44564 1.39738 -0.43791 5.31513 -1.96992 -6.94370 -2.39108 -1.90825 30.94490 -1.93681 -0.14520 11.02340 -0.00000 0.00000 0.00000 -41.30186 3.93362 75.28605 62.63711 -56.97266 -36.54388 -0.00000 0.00000 -71.70300 -0.00000 0.00000 0.00000 69.57641 -21.59780 44.60263 -70.06882 58.44445 -42.82924 0.00000 -0.00000 -75.45720
0.00000 0.16137 0.00000 2.89951 10.22351 -20.91201 0.00000 -0.00000 0.00000 -8.03063 4.90346 -122.89402 23.31171 19.73499 99.72401 2.15961 6.02453 26.55894 0.66955 5.23269 14.57343 0.00000 -0.00000 0.00000 18.89281 -5.10231 -117.53026 -17.78620 -19.88209 83.51505 0.48787 -16.93316 6.28672 -0.35275 -3.81587 10.55923 -4.52654 0.37501 30.39240 -1.37391 1.43257 16.93840 0.71656 1.36094 2.62684 5.81823 -1.67303 -6.93339 -2.13825 -1.80002 29.04310 -1.89942 -0.10696 10.30770 -0.00000 0.00000 0.00000 -41.40626 2.21655 75.91477 58.73067 -55.96210 -33.28707 -0.00000 0.00000 -69.35710 -0.00000 0.00000 0.00000 70.74709 -17.15451 46.05385 -61.30450 56.64764 -35.42865 0.00000 -0.00000 -73.01210
0.00000 0.16485 0.00000 2.73889 11.01637 -18.58404 0.00000 -0.00000 0.00000 -8.68203 3.91279 -125.33963 23.38889 19.72239 99.95266 2.15956 5.90544 26.57142 0.81244 5.75192 16.06628 0.00000 -0.00000 0.00000 18.63309 -5.25192 -120.31156 -18.06046 -19.90957 84.32095 0.48787 -16.60555 5.88991 -0.24830 -3.20639 8.85388 -4.37631 0.19973 30.17200 -1.31376 1.14823 16.39070 0.76514 1.19574 2.07611 5.18235 -2.14895 -7.51303 -1.73142 -2.52986 29.08980 -1.72966 -0.46914 10.42110 -0.00000 -0.00000 0.00000 -42.84460 1.80144 77.49011 54.20250 -54.55595 -29.56520 -0.00000 0.00000 -67.39160 -0.00000 -0.00000 0.00000 70.97402 -14.93596 49.56968 -53.79325 54.41534 -29.23208 0.00000 -0.00000 -70.24680
0.00000 0.16919 0.00000 2.38413 11.66421 -16.82855 0.00000 -0.00000 0.00000 -8.68836 3.13947 -127.07918 23.50327 19.70317 100.29175 2.08393 5.42112 26.13686 0.63271 5.08946 14.16388 0.00000 -0.00000 0.00000 18.79313 -5.52820 -122.36838 -18.28129 -19.92903 84.96912 0.49074 -16.31252 5.48122 -0.28258 -3.41887 9.44718 -3.67739 0.13404 30.37730 -1.28135 1.11210 15.70600 0.39282 1.20108 1.17034 6.45921 -1.75206 -7.00519 -2.45581 -2.00993 27.99180 -2.13037 -0.21723 9.91300 -0.00000 0.00000 0.00000 -44.06807 2.13811 76.27977 51.07672 -53.42063 -27.03643 -0.00000 0.00000 -64.17520 -0.00000 0.00000 0.00000 72.27564 -14.47355 48.69406 -48.69677 52.45617 -25.13708 0.00000 -0.00000 -69.84620
0.00000 0.17467 0.00000 1.93550 12.12869 -17.11074 0.00000 -0.00000 0.00000 -8.01276 2.79908 -126.60810 23.75664 19.65823 101.04408 1.90116 4.33975 25.06144 0.50895 4.57300 12.69458 0.00000 -0.00000 0.00000 19.26245 -6.51897 -122.24267 -18.51296 -19.94690 85.64849 0.45790 -15.59756 5.07862 -0.30449 -3.54778 9.80776 -2.82683 0.00547 31.53030 -1.28923 1.15572 15.56580 -0.14260 1.30197 0.50374 4.83743 -3.06966 -8.21316 -1.10207 -4.03605 28.52640 -1.61055 -1.15169 10.31540 -0.00000 0.00000 0.00000 -45.03678 0.95833 76.46970 47.61433 -51.98681 -24.28153 -0.00000 0.00000 -63.01200 -0.00000 0.00000 0.00000 72.87791 -13.92602 48.01495 -44.84095 50.69033 -22.11563 0.00000 -0.00000 -69.49750
0.00000 0.18188 0.00000 3.00656 12.53145 -18.51495 0.00000 -0.00000 0.00000 -8.83938 3.23388 -124.25911 24.15034 19.58190 102.21652 1.53415 3.24099 22.59289 0.45667 4.33509 12.02136 0.00000 -0.00000 0.00000 18.15059 -7.76698 -120.74487 -18.90269 -19.97111 86.79019 0.44118 -14.56547 3.96865 -0.25320 -3.23767 8.94115 -3.82972 0.33261 33.27270 -1.56030 1.29292 15.42420 0.01941 1.37909 -0.10809 5.09095 -3.12192 -8.11164 -1.26806 -4.09061 28.64020 -1.71697 -1.15946 10.32520 0.00000 0.00000 0.00000 -46.94145 0.84640 75.95959 43.60485 -50.06640 -21.16346 -0.00000 0.00000 -60.94040 0.00000 0.00000 0.00000 73.85126 -13.13904 47.90100 -40.30309 48.24844 -18.66504 0.00000 -0.00000 -68.22510
0.00000 0.19011 0.00000 3.86311 12.33648 -19.28293 0.00000 -0.00000 0.00000 -8.92940 4.56352 -123.18698 24.88329 19.41839 104.41201 1.25394 2.13132 20.57347 0.90558 6.06431 16.97112 0.00000 -0.00000 0.00000 17.17233 -8.08598 -119.72611 -19.49142 -19.99380 88.51285 0.38694 -13.07952 2.85252 -0.16334 -2.60386 7.17774 -4.65616 0.65749 31.97150 -1.89203 1.58372 15.98260 0.10619 1.48618 0.83116 4.67800 -3.34048 -8.39169 -0.95115 -4.41063 29.14660 -1.58139 -1.28956 10.57780 -0.00000 0.00000 0.00000 -49.01921 0.80424 72.92395 40.10475 -48.13183 -18.51720 -0.00000 0.00000 -59.36070 -0.00000 0.00000 0.00000 75.64381 -11.93406 47.70461 -36.66021 45.96188 -15.99531 0.00000 -0.00000 -67.64070
0.00000 0.20025 0.00000 3.90275 11.86212 -20.49680 0.00000 -0.00000 0.00000 -7.83009 6.01904 -121.54176 25.54543 19.24615 106.41195 0.98392 0.90314 18.46842 1.29845 7.21929 20.36669 0.00000 -0.00000 0.00000 16.95126 -8.38333 -118.44773 -20.33130 -19.99737 90.96871 0.33242 -10.95123 0.35070 -0.00621 -0.50871 1.39785 -4.47340 0.91611 31.11320 -2.08957 1.97964 16.02150 -0.30388 1.69360 1.23860 3.89021 -3.84573 -8.21765 0.20462 -5.24029 29.85710 -1.12748 -1.57558 10.85390 0.00000 0.00000 0.00000 -50.61387 0.39655 71.76924 36.16385 -45.62553 -15.63950 -0.00000 0.00000 -58.12210 0.00000 0.00000 0.00000 78.19147 -11.16495 46.17816 -32.14781 42.66470 -12.84089 0.00000 -0.00000 -65.47570
0.00000 0.21078 0.00000 4.12169 11.28827 -22.08418 0.00000 -0.00000 0.00000 -6.15616 7.39765 -118.91832 26.12585 19.07543 108.18021 0.85944 -1.21454 17.99350 1.17997 6.89420 19.40229 0.00000 -0.00000 0.00000 16.12126 -8.59304 -116.63578 -21.43886 -19.95029 94.21028 0.26655 -9.30938 -5.47374 -0.13090 -2.33213 6.42447 -5.07585 1.22803 31.50150 -2.40648 2.09173 15.56070 -0.37412 1.71765 0.54016 3.92608 -3.94177 -8.19295 0.64013 -5.44901 31.25760 -1.01037 -1.53483 11.40630 0.00000 0.00000 0.00000 -52.67883 2.22403 69.94116 32.74056 -43.12967 -13.24437 -0.00000 0.00000 -56.02700 0.00000 0.00000 0.00000 80.33284 -10.43351 45.77035 -27.93483 39.05618 -10.08260 0.00000 -0.00000 -63.41570
0.00000 0.22255 0.00000 4.45821 10.38079 -24.42590 0.00000 -0.00000 0.00000 -4.28959 8.98010 -114.90453 26.61001 18.91848 109.66749 0.74785 -3.76068 18.12401 0.96299 6.24825 17.50642 0.00000 -0.00000 0.00000 15.47582 -8.76846 -113.92616 -22.63938 -19.83215 97.73779 0.00080 -7.67332 -10.92435 -0.13162 -2.33844 6.44193 -5.87323 1.59182 33.01130 -2.73717 2.19902 15.17870 -0.39788 1.77362 -0.24515 3.31365 -4.04736 -8.33456 1.64961 -5.73900 32.81090 -0.57668 -1.52398 12.12040 0.00000 -0.00000 0.00000 -54.55040 4.15650 67.21018 29.58945 -40.53889 -11.14181 -0.00000 0.00000 -53.24340 0.00000 -0.00000 0.00000 82.48880 -9.51803 45.95146 -24.21156 35.38718 -7.82873 0.00000 -0.00000 -61.42900
0.00000 0.23447 0.00000 5.35636 8.77300 -26.88675 0.00000 -0.00000 0.00000 -2.32250 11.38908 -110.03600 26.99110 18.78537 110.84685 0.65546 -4.65953 17.69354 1.13688 6.77147 19.04008 0.00000 -0.00000 0.00000 14.80151 -8.36881 -111.34254 -24.25210 -19.56088 102.52030 -0.22684 -7.15185 -14.31584 -0.26264 -3.29700 9.10674 -6.89140 2.35500 33.46810 -2.90964 2.91491 15.57220 -0.26475 2.11141 0.01886 3.21065 -3.96135 -7.91947 1.84806 -5.57243 33.73610 -0.45311 -1.38199 12.43160 0.00000 -0.00000 0.00000 -56.76733 4.30673 64.71194 25.63393 -36.84493 -8.66721 -0.00000 0.00000 -51.08300 0.00000 -0.00000 0.00000 84.38939 -7.94154 45.19861 -20.61006 31.37033 -5.84562 0.00000 -0.00000 -58.78200
0.00000 0.24546 0.00000 6.82062 7.08711 -28.35857 0.00000 -0.00000 0.00000 -1.01721 14.39585 -106.52693 27.52988 18.58239 112.52861 0.42506 -6.98759 16.82322 0.88971 6.01234 16.82023 0.00000 -0.00000 0.00000 14.36934 -8.06563 -110.88053 -26.43606 -18.97641 109.13177 -0.36623 -6.06079 -15.25396 -0.43328 -4.22407 11.70792 -8.10590 3.05222 33.73460 -2.97701 3.32059 15.28190 0.14313 2.24195 -0.40111 2.99173 -3.83934 -7.26284 1.54737 -5.12220 35.11860 -0.45657 -1.16628 12.87730 -0.00000 -0.00000 0.00000 -59.93821 5.34446 61.53111 21.02026 -31.85199 -6.06063 -0.00000 0.00000 -47.27570 -0.00000 -0.00000 0.00000 85.58071 -7.23756 44.92970 -17.39948 27.38139 -4.26944 0.00000 -0.00000 -56.41760
0.00000 0.25781 0.00000 8.56942 4.98937 -29.47043 0.00000 -0.00000 0.00000 0.43504 17.88728 -102.57387 27.87994 18.44094 113.63113 0.18152 -8.35902 14.95884 0.62313 5.05151 14.05554 0.00000 -0.00000 0.00000 14.56717 -7.78998 -110.65780 -28.68150 -18.08745 116.18839 -0.52895 -4.33741 -16.00992 -0.22631 -3.06214 8.45179 -8.81180 3.45034 33.66110 -3.39394 3.59152 15.37280 -0.00453 2.35206 -0.25923 3.39043 -3.47511 -7.16774 1.44394 -4.58613 36.13140 -0.49463 -0.83592 13.29310 0.00000 0.00000 0.00000 -63.67813 4.98277 54.79185 15.66020 -25.05775 -3.50080 -0.00000 0.00000 -41.15150 0.00000 0.00000 0.00000 87.54069 -5.84845 42.64687 -14.41602 23.32632 -2.99087 0.00000 -0.00000 -51.78550
0.00000 0.27053 0.00000 11.06484 2.78932 -30.93371 0.00000 -0.00000 0.00000 1.39326 22.20164 -97.47026 28.07628 18.35822 114.25316 -0.06720 -9.19929 11.82642 0.44754 4.29213 11.90002 0.00000 -0.00000 0.00000 14.24941 -7.61610 -109.23857 -30.66343 -17.01949 122.75303 -0.60718 -1.47227 -15.32482 -0.20421 -2.90969 8.02742 -10.06600 4.31008 34.03800 -4.02623 4.28711 15.58120 -0.25442 2.68427 -0.13990 6.03707 -2.86638 -6.73565 0.29368 -3.78208 36.45780 -1.30209 -0.25334 13.26900 -0.00000 0.00000 0.00000 -66.97049 2.35204 42.50864 9.54105 -16.01849 -1.34553 -0.00000 0.00000 -28.93340 -0.00000 0.00000 0.00000 90.17195 -4.05503 37.64075 -11.37723 18.86415 -1.89609 0.00000 -0.00000 -45.78480
0.00000 0.28212 0.00000 12.88188 1.74374 -32.07846 0.00000 -0.00000 0.00000 2.30504 24.39625 -92.97480 28.17242 18.31681 114.55873 -0.30255 -10.57281 8.38835 0.05966 1.57612 4.33559 0.00000 -0.00000 0.00000 14.09873 -8.75208 -108.05927 -32.09841 -16.04639 127.79255 -0.60863 1.78425 -14.23385 -0.17732 -2.71246 7.47923 -11.86730 4.45523 35.62450 -3.93299 3.62032 15.25420 0.80213 2.28239 -0.83922 5.75915 -3.11949 -7.81234 -0.58393 -3.92419 37.90430 -1.65875 -0.40100 14.13160 -0.00000 -0.00000 0.00000 -70.39587 -0.89083 19.75219 4.94905 -8.49848 -0.36794 -0.00000 0.00000 -6.64622 -0.00000 -0.00000 0.00000 90.48370 -2.30148 32.57344 -8.57478 14.48021 -1.09135 0.00000 -0.00000 -38.15310
0.00000 0.29109 0.00000 13.53910 1.08275 -33.28332 0.00000 -0.00000 0.00000 3.82187 26.11668 -89.32154 28.28953 18.26556 114.93190 -0.46952 -12.22666 6.82053 0.04247 1.33008 3.65752 0.00000 -0.00000 0.00000 14.09356 -9.96100 -106.02604 -32.86118 -15.44769 130.60257 -0.56614 3.78563 -13.42869 -0.08906 -1.92481 5.29791 -13.28540 4.15309 37.48540 -3.27482 2.38328 14.82160 2.48577 1.59199 -1.82435 5.75635 -1.88790 -7.12432 -1.84320 -1.63064 37.89480 -1.86245 0.41419 14.03760 0.00000 0.00000 0.00000 -72.13224 -2.10572 19.33785 3.86574 -6.66042 -0.22503 -0.00000 0.00000 -1.73057 0.00000 0.00000 0.00000 89.38402 -1.32556 28.98065 -6.63553 11.31787 -0.65824 0.00000 -0.00000 -31.44750
0.00000 0.29507 0.00000 14.39708 0.90315 -33.03403 0.00000 -0.00000 0.00000 4.39845 28.10761 -88.38271 28.62754 18.11258 116.01470 -0.60136 -13.59504 5.62133 0.08203 1.84747 5.08431 0.00000 -0.00000 0.00000 12.82346 -9.88972 -105.94910 -33.26612 -15.10364 132.13949 -0.50175 5.41156 -12.62968 -0.24068 -3.15713 8.71652 -15.39860 3.69611 36.77250 -2.28022 1.06043 14.38940 5.04564 0.73194 -1.86915 4.26319 -1.32270 -6.33981 -3.24269 0.10397 38.39020 -1.94118 0.79819 14.16840 0.00000 -0.00000 0.00000 -71.66114 -2.79956 18.85905 4.67582 -8.03665 -0.32865 -0.00000 0.00000 -2.61727 0.00000 -0.00000 0.00000 87.42545 -1.09570 21.94227 -4.94284 8.48800 -0.36702 0.00000 -0.00000 -20.73690
0.00000 0.30009 0.00000 15.47502 0.97502 -33.82507 0.00000 -0.00000 0.00000 4.98445 30.40042 -85.74248 28.92308 17.97252 116.96887 -0.80347 -15.72235 4.10504 0.02490 1.01864 2.80011 0.00000 -0.00000 0.00000 11.34401 -10.04891 -104.19796 -33.51727 -14.88037 133.11032 -0.50729 6.26228 -12.76873 -0.23630 -3.12851 8.63674 -15.70050 3.35604 37.16700 -2.00023 0.47754 14.44130 5.67517 0.41324 -1.83606 4.99648 -0.53874 -5.76766 -5.02873 1.79675 38.22940 -2.58106 1.42573 14.07400 0.00000 -0.00000 0.00000 -66.84065 -6.24290 27.71158 6.02153 -10.29806 -0.54310 -0.00000 0.00000 -11.02320 0.00000 -0.00000 0.00000 86.62140 -1.03427 9.57537 -3.89163 6.70455 -0.22804 0.00000 -0.00000 -6.69660
0.00000 0.30524 0.00000 16.54312 1.28465 -34.04486 0.00000 -0.00000 0.00000 5.22314 31.89493 -84.01675 29.33248 17.76851 118.30295 -0.88713 -16.69455 2.89448 0.12167 2.24872 6.19352 0.00000 -0.00000 0.00000 9.79097 -10.59323 -102.97342 -33.91852 -14.50684 134.69212 -0.57634 7.30064 -13.69509 -0.15922 -2.57093 7.08637 -14.21600 2.81543 37.12680 -2.22824 0.33280 14.53450 4.75979 0.42544 -1.78331 6.10931 -0.71940 -6.05269 -6.15855 1.75190 38.60090 -3.26693 1.45188 14.32450 -0.00000 -0.00000 0.00000 -59.51713 -10.49989 37.83699 8.49749 -14.35602 -1.07210 -0.00000 0.00000 -22.77880 -0.00000 -0.00000 0.00000 86.80166 -1.18106 -5.05807 -3.11091 5.36982 -0.14592 0.00000 0.00000 6.74721
0.00000 0.31172 0.00000 18.11495 1.11577 -34.58892 0.00000 -0.00000 0.00000 5.59717 34.12525 -80.95044 29.67951 17.58617 119.44576 -0.97878 -18.17725 0.45440 0.12976 2.32200 6.39641 0.00000 -0.00000 0.00000 7.42004 -9.96490 -100.66635 -34.27022 -14.16127 136.11263 -0.67275 8.54111 -14.90912 -0.08115 -1.83760 5.05705 -12.96450 2.15894 36.50990 -2.66905 0.15805 15.29000 3.76006 0.37755 -0.78386 6.30704 -0.75544 -7.23343 -7.26528 2.07638 39.40120 -3.77043 1.49940 15.02950 0.00000 0.00000 0.00000 -51.71541 -15.52765 39.61569 10.09964 -16.89529 -1.50378 -0.00000 0.00000 -27.31810 0.00000 0.00000 0.00000 86.80801 -1.01349 -18.98961 -2.49969 4.32001 -0.09430 0.00000 0.00000 20.61940
0.00000 0.31930 0.00000 20.16008 1.45419 -35.04222 0.00000 -0.00000 0.00000 4.82192 35.59909 -77.70236 30.08795 17.36010 120.80598 -0.85577 -18.67025 -3.19525 0.04682 1.39639 3.84018 0.00000 -0.00000 0.00000 3.48213 -9.85921 -99.31615 -34.69799 -13.71604 137.88834 -0.76673 9.27905 -15.95418 -0.13457 -2.36446 6.51402 -12.36380 1.54797 37.16850 -2.56555 -0.51103 15.18180 3.76965 0.09658 -1.07728 7.17924 -0.17848 -7.17643 -9.78464 3.83800 39.77960 -4.80615 2.12882 15.47500 -0.00000 -0.00000 0.00000 -44.34615 -18.14874 44.19226 12.24447 -20.17027 -2.18586 -0.00000 0.00000 -33.55570 -0.00000 -0.00000 0.00000 85.15679 -2.00825 -32.49419 -2.45268 4.23912 -0.09079 0.00000 0.00000 32.89580
0.00000 0.32809 0.00000 22.00409 0.91826 -36.16298 0.00000 -0.00000 0.00000 5.82786 37.77742 -73.03905 30.49075 17.12449 122.16483 -0.70939 -18.98258 -5.86154 0.16408 2.60972 7.19401 0.00000 -0.00000 0.00000 0.34744 -8.89287 -95.66835 -34.94808 -13.44203 138.95347 -1.05886 9.58753 -18.57405 -0.10455 -2.08504 5.74073 -11.97350 1.25807 38.72470 -1.98299 -0.91882 15.10810 4.29730 -0.07083 -1.62866 6.61428 -0.16431 -7.84344 -11.39470 4.76683 40.64030 -5.35999 2.29512 16.27570 -0.00000 -0.00000 0.00000 -39.44215 -20.27024 41.71562 12.72284 -20.87977 -2.35358 -0.00000 0.00000 -31.26330 -0.00000 -0.00000 0.00000 82.12525 -3.06578 -45.54184 -2.44168 4.22019 -0.08998 0.00000 0.00000 45.92250
0.00000 0.33690 0.00000 22.61510 -0.41062 -36.82638 0.00000 -0.00000 0.00000 8.39187 40.79698 -68.77544 31.15458 16.70721 124.44602 -0.33112 -18.27628 -9.59025 0.24466 3.18296 8.78854 0.00000 -0.00000 0.00000 -1.55425 -6.62921 -92.46277 -35.20614 -13.14783 140.07561 -1.35619 9.21608 -20.88960 -0.18118 -2.74161 7.56019 -10.08550 0.32035 39.96850 -1.19439 -1.50036 15.15480 4.37451 -0.28832 -2.01389 6.28748 -0.05895 -8.02656 -13.19840 5.77313 40.73630 -6.00454 2.49660 16.62170 -0.00000 0.00000 0.00000 -34.44143 -21.41886 42.68172 13.38736 -21.85214 -2.59570 -0.00000 0.00000 -33.20750 -0.00000 0.00000 0.00000 78.57276 -3.12627 -58.23254 -2.36369 4.08593 -0.08433 0.00000 0.00000 58.86690
0.00000 0.34640 0.00000 23.87784 -1.51509 -35.76904 0.00000 -0.00000 0.00000 9.19580 43.82727 -66.12352 31.73705 16.30929 126.49564 -0.27331 -19.34859 -11.13352 0.30156 3.53083 9.76031 0.00000 -0.00000 0.00000 -4.45909 -6.30163 -92.20800 -35.58222 -12.69651 141.75721 -1.56532 9.06028 -22.42113 -0.23828 -3.14146 8.67284 -8.59309 -1.01410 37.65710 -0.75470 -2.40642 15.69720 4.38988 -0.79464 -0.69445 5.81768 0.13191 -8.23994 -15.00480 6.92191 40.66070 -6.60941 2.73717 16.95420 -0.00000 0.00000 0.00000 -31.99543 -22.11021 39.19369 13.11255 -21.45190 -2.49430 -0.00000 0.00000 -29.30420 -0.00000 0.00000 0.00000 74.59874 -3.13442 -70.54702 -2.44038 4.21794 -0.08988 0.00000 0.00000 71.78020
0.00000 0.35604 0.00000 25.00410 -2.63227 -35.53096 0.00000 -0.00000 0.00000 11.57740 46.97105 -61.25173 32.15570 16.00354 128.00006 -0.52639 -22.14391 -11.32646 0.37979 3.95787 10.95817 0.00000 -0.00000 0.00000 -8.22808 -7.62976 -91.12997 -35.98386 -12.18185 143.62164 -1.54349 11.47840 -22.47783 -0.29867 -3.51401 9.71324 -7.79368 -1.75148 37.77850 0.26105 -3.06990 15.48050 5.27254 -1.14752 -0.92393 5.37165 0.15233 -8.17904 -16.61440 7.74480 40.65570 -7.19263 2.89577 17.22310 -0.00000 0.00000 0.00000 -31.23038 -21.80643 38.30198 13.42098 -21.90092 -2.60822 -0.00000 0.00000 -28.68150 -0.00000 0.00000 0.00000 69.45528 -4.57385 -82.92464 -2.16506 3.74376 -0.07077 0.00000 0.00000 84.82930
0.00000 0.36376 0.00000 25.92272 -3.63430 -34.82407 0.00000 -0.00000 0.00000 15.43314 50.76311 -56.25349 32.74927 15.53944 130.18365 -0.68109 -25.44566 -13.20059 0.09925 2.03163 5.59309 0.00000 -0.00000 0.00000 -12.38560 -11.55395 -91.23703 -36.44480 -11.54373 145.86363 -1.40290 15.01619 -22.20316 -0.15176 -2.51031 6.91824 -7.99097 -2.93402 36.94840 1.46732 -4.56351 15.32840 7.13705 -2.01799 -0.68878 3.38092 0.63344 -7.72642 -18.04380 9.41847 39.97880 -7.16889 3.19861 17.14860 0.00000 0.00000 0.00000 -32.83902 -19.56350 36.79600 13.51499 -22.03711 -2.64339 -0.00000 0.00000 -27.41270 0.00000 0.00000 0.00000 62.52340 -3.73475 -93.17941 -2.16115 3.73703 -0.07051 0.00000 0.00000 96.59050
0.00000 0.36800 0.00000 26.20162 -4.84080 -34.75197 0.00000 -0.00000 0.00000 23.63368 53.74346 -49.06592 33.44215 14.94797 132.81848 -1.41092 -29.88458 -12.49048 0.00283 0.34381 0.94467 0.00000 -0.00000 0.00000 -16.02683 -15.76064 -90.59089 -36.84166 -10.94707 147.89843 -1.12306 18.66352 -21.53414 -0.11794 -2.21406 6.09762 -7.32441 -3.69519 37.40860 2.04308 -5.27068 15.33480 7.63456 -2.36042 -0.74938 3.43256 0.79454 -8.38790 -18.77850 9.83796 39.82910 -7.48868 3.27574 17.42340 0.00000 0.00000 0.00000 -32.67129 -19.02727 37.01082 13.66938 -22.26009 -2.70160 -0.00000 0.00000 -25.63410 0.00000 0.00000 0.00000 58.12046 -1.61234 -105.18368 -3.19170 5.50829 -0.15358 0.00000 0.00000 108.09500
0.00000 0.36768 0.00000 25.90646 -5.55166 -32.95961 0.00000 -0.00000 0.00000 33.36472 56.88633 -43.86906 34.35503 14.07524 136.46033 -3.25490 -36.52824 -8.84781 0.01263 -0.72563 -1.99415 0.00000 -0.00000 0.00000 -19.61318 -24.65351 -92.58190 -37.31046 -10.17466 150.45579 -0.54824 23.81200 -20.38199 -0.00007 0.05471 -0.15032 -6.86158 -4.83216 36.01790 2.73773 -6.51501 14.98410 8.46386 -3.04191 -0.46180 2.77145 1.20646 -7.90009 -19.63350 10.54000 38.50660 -7.50378 3.40083 16.75580 -0.00000 -0.00000 0.00000 -33.26907 -18.01639 36.55946 13.65981 -22.24629 -2.69797 -0.00000 0.00000 -23.33980 -0.00000 -0.00000 0.00000 53.21798 1.20482 -116.52544 -4.90121 8.41771 -0.36090 0.00000 0.00000 119.76200
0.00000 0.36405 0.00000 24.91628 -6.56096 -32.58100 0.00000 -0.00000 0.00000 48.36421 58.59103 -34.81517 35.15847 13.20309 139.86647 -5.78782 -43.30461 -5.17719 0.10925 -2.13119 -5.86836 0.00000 -0.00000 0.00000 -23.14409 -32.85981 -92.53682 -37.70436 -9.45648 152.76603 0.21979 28.95612 -19.23274 -0.00017 -0.08461 0.23247 -5.16037 -5.34256 36.98120 2.91794 -6.55165 15.08240 7.82566 -2.93696 -0.84533 3.49549 1.10474 -8.59607 -19.89570 9.87925 37.28460 -7.73533 3.11632 16.16500 -0.00000 0.00000 0.00000 -31.86887 -20.02133 35.82039 13.62988 -22.20312 -2.68665 -0.00000 0.00000 -23.77180 -0.00000 0.00000 0.00000 50.69284 2.70449 -130.88540 -6.69094 11.40948 -0.66916 0.00000 0.00000 132.62800
0.00000 0.35848 0.00000 24.22035 -7.42631 -32.58822 0.00000 -0.00000 0.00000 63.36774 58.98509 -24.42925 35.80458 12.41601 142.78001 -7.68129 -47.89900 -4.50798 0.24576 -3.19010 -8.80844 0.00000 -0.00000 0.00000 -28.55262 -39.29788 -91.38557 -37.98220 -8.90306 154.50746 1.60543 35.10624 -16.94943 -0.00065 -0.16528 0.45410 -6.79600 -5.59905 39.33860 4.10608 -7.37927 14.62720 10.35910 -3.43980 -1.64251 1.56942 2.08131 -7.41183 -21.53420 11.63910 34.46800 -7.53179 3.57893 14.89160 0.00000 -0.00000 0.00000 -34.09568 -19.18918 30.72569 12.86703 -21.09208 -2.40522 -0.00000 0.00000 -20.21140 0.00000 -0.00000 0.00000 45.80310 5.35250 -136.86640 -7.69842 13.06283 -0.88271 0.00000 0.00000 144.46600
0.00000 0.35234 0.00000 22.54157 -7.75115 -31.96087 0.00000 -0.00000 0.00000 74.63798 58.12385 -18.36321 36.42067 11.57852 145.74321 -8.43421 -50.84776 -7.22053 0.59696 -4.94620 -13.75519 0.00000 -0.00000 0.00000 -33.19071 -45.14472 -89.74881 -38.18722 -8.46472 155.86527 2.24909 38.78297 -17.55248 -0.08086 1.83431 -5.04799 -5.00584 -5.72033 40.95880 3.90799 -6.83909 14.56380 9.11069 -3.00202 -2.38442 3.19966 1.95862 -7.50412 -21.76440 10.82170 33.32220 -7.95001 3.39915 14.26770 0.00000 -0.00000 0.00000 -32.09191 -22.57134 29.43481 12.92537 -21.17776 -2.42626 -0.00000 0.00000 -20.51540 0.00000 -0.00000 0.00000 46.27516 6.05361 -143.63107 -8.85761 14.93321 -1.16315 0.00000 0.00000 154.39200
0.00000 0.35282 0.00000 21.23752 -8.96702 -30.27894 0.00000 -0.00000 0.00000 87.10400 56.64558 -10.49764 36.77599 11.04915 147.55419 -12.48200 -56.43199 -3.36536 0.29070 -3.46724 -9.58242 0.00000 -0.00000 0.00000 -36.37021 -48.14909 -89.15791 -38.26375 -8.29364 156.39043 3.33886 42.35052 -16.51693 -0.22226 3.03477 -8.37556 -4.53991 -5.43356 40.51940 4.19369 -6.27969 14.88190 8.95688 -2.75073 -2.01677 3.19092 2.31568 -7.41347 -22.52720 11.17450 31.61750 -8.06195 3.53060 13.60450 0.00000 0.00000 0.00000 -31.70426 -24.78474 27.28282 12.97888 -21.25625 -2.44562 -0.00000 0.00000 -19.99620 0.00000 0.00000 0.00000 46.98264 7.36552 -141.31602 -8.72327 14.71831 -1.12878 0.00000 0.00000 160.02500
0.00000 0.35519 0.00000 19.00098 -8.69135 -28.69935 0.00000 -0.00000 0.00000 85.01475 56.51493 -15.84378 37.01301 10.67395 148.81200 -12.74935 -56.20795 -1.78364 0.42367 -4.17757 -11.57679 0.00000 -0.00000 0.00000 -38.46099 -49.67921 -87.30636 -38.24236 -8.34187 156.24262 4.19108 43.89501 -14.57738 -0.31254 3.59394 -9.93699 -3.37826 -5.40961 41.87850 4.54280 -5.70086 14.75930 8.60509 -2.36998 -2.72153 3.26142 2.47916 -7.37513 -22.47430 11.00110 30.18450 -7.92063 3.49754 12.91700 0.00000 -0.00000 0.00000 -30.23032 -27.20961 28.23001 13.84009 -22.50564 -2.76660 -0.00000 0.00000 -21.37910 0.00000 -0.00000 0.00000 49.30945 8.47599 -133.35846 -7.47717 12.70185 -0.83338 0.00000 0.00000 156.08300
0.00000 0.36417 0.00000 18.30214 -8.98931 -26.80381 0.00000 -0.00000 0.00000 83.00719 57.20435 -17.04346 37.00869 10.68098 148.78865 -13.18975 -55.85701 0.93434 0.15159 -2.50884 -6.91417 0.00000 -0.00000 0.00000 -39.07845 -48.45182 -87.24650 -38.07718 -8.70342 155.12810 4.38720 44.30211 -14.23704 -0.65607 5.18080 -14.42495 -4.21171 -4.31658 42.76430 5.06479 -4.69123 14.13430 9.31148 -1.90708 -3.73479 3.34124 2.75514 -7.13113 -23.05000 11.19260 28.67870 -8.01720 3.61499 12.31540 0.00000 -0.00000 0.00000 -29.53609 -27.89992 30.68638 15.21838 -24.44945 -3.31580 -0.00000 0.00000 -22.68970 0.00000 -0.00000 0.00000 50.34559 7.48878 -107.92777 -4.58098 7.87605 -0.31552 0.00000 0.00000 136.06600
0.00000 0.37648 0.00000 18.30741 -8.65601 -23.57491 0.00000 -0.00000 0.00000 72.14634 58.30737 -25.10269 36.85996 10.91837 147.99493 -13.33763 -55.96286 1.24659 0.64022 -5.11903 -14.24837 0.00000 -0.00000 0.00000 -38.71319 -47.06792 -89.27809 -37.81645 -9.23838 153.45612 5.02015 44.28633 -11.16381 -0.91223 6.08593 -17.03394 -3.75319 -3.74914 40.07400 3.88955 -3.99238 14.43220 7.44475 -1.56151 -2.81834 4.49591 2.80433 -7.88471 -22.09690 10.12270 26.53330 -7.77623 3.30270 11.36460 0.00000 0.00000 0.00000 -24.32616 -28.86153 34.70485 18.32202 -28.56754 -4.70222 -0.00000 0.00000 -27.13840 0.00000 0.00000 0.00000 52.31194 7.17376 -80.92421 -3.44269 5.93798 -0.17861 0.00000 0.00000 116.31500
0.00000 0.39108 0.00000 15.49357 -9.92578 -22.23077 0.00000 -0.00000 0.00000 72.17058 57.49724 -26.52064 36.57182 11.35789 146.50341 -15.86933 -59.10759 1.89547 1.59789 -7.97283 -22.63160 0.00000 -0.00000 0.00000 -35.08634 -43.38719 -86.93332 -37.46952 -9.89312 151.36870 4.43620 42.99345 -12.06758 -1.16218 6.84385 -19.25357 -2.78210 -3.12434 40.58090 4.21434 -2.85164 14.41090 6.90144 -0.97641 -3.18912 4.74280 3.12394 -8.18951 -22.18040 9.85434 23.77450 -7.68016 3.25737 10.34930 0.00000 0.00000 0.00000 -21.48693 -27.54560 36.10862 22.22086 -33.22573 -6.70646 -0.00000 0.00000 -29.54030 0.00000 0.00000 0.00000 50.97643 8.81073 -52.39415 -3.59525 6.19876 -0.19474 0.00000 0.00000 90.24290
0.00000 0.40945 0.00000 12.77184 -10.89773 -20.73475 0.00000 -0.00000 0.00000 68.94375 56.85244 -29.22832 36.20140 11.88747 144.66496 -16.03557 -59.55396 1.19179 2.16729 -9.20618 -26.44242 0.00000 -0.00000 0.00000 -29.86423 -37.02043 -84.78186 -36.90815 -10.84227 148.25022 3.02162 39.48308 -14.43722 -1.65127 8.09843 -23.01343 -1.60713 -2.29407 41.31800 4.44892 -1.40169 14.00550 6.03064 -0.23011 -4.06246 4.75368 3.09986 -8.49024 -21.82250 9.09859 21.23920 -7.46448 3.00469 9.34848 -0.00000 0.00000 0.00000 -19.04638 -26.30698 36.87492 27.27953 -38.44446 -9.67242 -0.00000 0.00000 -32.16260 -0.00000 0.00000 0.00000 49.96463 11.38557 -24.66271 -4.46282 7.67577 -0.29954 0.00000 0.00000 60.62870
0.00000 0.43095 0.00000 12.66887 -10.51081 -17.67338 0.00000 -0.00000 0.00000 55.87344 57.04630 -36.81082 35.70232 12.54633 142.30686 -15.12859 -56.97338 5.68863 1.52440 -7.79590 -22.09585 0.00000 -0.00000 0.00000 -28.34583 -33.77631 -84.74010 -36.36564 -11.65726 145.46996 2.96763 38.48578 -13.42371 -1.68778 8.18299 -23.27129 -3.17067 -1.20750 39.67710 4.27019 -0.82228 13.29520 6.43570 -0.03606 -4.39122 4.12089 3.33734 -8.30213 -21.52890 8.83423 18.46920 -7.12022 2.98797 8.28689 0.00000 -0.00000 0.00000 -18.19978 -24.17733 36.87948 33.03095 -43.35381 -13.44331 -0.00000 0.00000 -34.29630 0.00000 -0.00000 0.00000 48.53243 14.46890 -7.94034 -5.15082 8.83868 -0.39835 0.00000 0.00000 41.23780
0.00000 0.45643 0.00000 11.63564 -10.88220 -15.10182 0.00000 -0.00000 0.00000 45.29838 56.23929 -42.91506 35.04601 13.33179 139.37646 -12.60414 -54.01354 3.86563 1.41627 -7.52647 -21.28476 0.00000 -0.00000 0.00000 -25.33590 -28.21758 -83.02790 -35.65184 -12.60983 142.07504 2.54137 36.30834 -13.01577 -1.39696 7.47714 -21.13687 -3.15646 -0.25444 38.18450 3.53651 0.20793 13.01670 5.26622 0.45496 -4.33114 4.76161 3.40030 -8.46448 -20.96820 8.17646 16.21910 -7.00687 2.83715 7.47092 -0.00000 0.00000 0.00000 -16.81084 -23.03463 36.75501 39.69619 -47.88887 -18.21354 -0.00000 0.00000 -34.63460 -0.00000 0.00000 0.00000 48.60707 17.01261 0.70608 -6.27164 10.71446 -0.58870 0.00000 0.00000 29.91940
0.00000 0.48467 0.00000 9.95479 -9.40147 -12.58725 0.00000 -0.00000 0.00000 31.29115 50.85104 -52.53239 34.24941 14.18221 136.02766 -9.10957 -48.90823 0.76376 1.47930 -7.68488 -21.76098 0.00000 -0.00000 0.00000 -21.02364 -23.69385 -80.56573 -34.75263 -13.65707 138.11928 0.96697 31.41977 -16.93301 -1.57653 7.92189 -22.47707 -2.98019 0.23420 38.02650 3.10849 0.80252 12.48830 4.50026 0.76327 -4.90787 5.56621 3.35208 -9.44710 -20.19590 7.45541 14.59930 -6.88708 2.58709 7.02022 0.00000 -0.00000 0.00000 -16.29619 -22.40869 36.93711 46.89351 -51.66309 -23.71486 -0.00000 0.00000 -34.75680 0.00000 -0.00000 0.00000 48.94132 19.32112 6.05946 -7.25838 12.34370 -0.78594 0.00000 0.00000 22.41890
0.00000 0.51524 0.00000 8.73429 -8.22536 -9.38832 0.00000 -0.00000 0.00000 20.14563 44.66474 -59.06017 33.22061 15.14327 131.96504 -6.41080 -43.80475 -2.39404 1.40422 -7.49574 -21.19260 0.00000 -0.00000 0.00000 -17.85920 -18.94437 -78.66806 -33.67657 -14.73461 133.73364 0.47086 28.63184 -17.46336 -1.30270 7.23064 -20.40049 -3.51893 0.60505 36.78340 2.76900 0.97345 11.83600 4.37066 0.81977 -5.21771 5.11651 3.52890 -9.49387 -19.16210 7.22666 12.80820 -6.41760 2.58579 6.37494 -0.00000 -0.00000 0.00000 -17.68289 -20.51534 38.29584 53.82678 -54.42695 -29.25935 -0.00000 0.00000 -34.77970 -0.00000 -0.00000 0.00000 48.72513 21.25271 14.30316 -8.99947 15.15959 -1.19998 0.00000 0.00000 11.75170
0.00000 0.54690 0.00000 7.37272 -6.81220 -6.35923 0.00000 -0.00000 0.00000 12.40563 38.16286 -62.83029 31.99492 16.12299 127.41901 -4.16837 -38.86132 -6.73879 1.44527 -7.59984 -21.50509 0.00000 -0.00000 0.00000 -14.80921 -14.85308 -76.70662 -32.39222 -15.82305 128.86272 -0.00463 25.80211 -18.25281 -1.34492 7.34224 -20.73333 -3.07066 0.98229 35.90800 2.08353 1.51139 11.48210 3.22626 1.09512 -5.32164 5.79656 3.51333 -11.24060 -18.48820 6.72811 11.65660 -6.31744 2.36327 6.25977 0.00000 0.00000 0.00000 -18.74746 -20.69162 40.68970 58.10936 -55.78472 -32.77275 -0.00000 0.00000 -34.51450 0.00000 0.00000 0.00000 49.84037 22.16534 15.73071 -11.24221 18.65856 -1.85267 0.00000 0.00000 4.84733
0.00000 0.57813 0.00000 6.08961 -5.17974 -3.92069 0.00000 -0.00000 0.00000 7.51508 31.81928 -63.84402 30.45012 17.14884 122.02694 -3.06885 -34.98540 -7.63537 1.09575 -6.65192 -18.68815 0.00000 -0.00000 0.00000 -11.67076 -12.11613 -74.12063 -30.95997 -16.83341 123.77155 -0.50008 23.05450 -19.63878 -1.21939 7.00428 -19.72806 -3.61476 1.18671 34.69150 1.84568 1.53741 11.11750 3.26994 1.08645 -5.42417 5.58392 3.49879 -10.81030 -17.38570 6.28739 10.01060 -5.92374 2.28692 5.56722 0.00000 -0.00000 0.00000 -22.26684 -19.35316 44.14930 59.47110 -56.16734 -33.90139 -0.00000 0.00000 -34.80420 0.00000 -0.00000 0.00000 50.87632 23.61415 17.71777 -13.04800 21.35751 -2.47074 0.00000 -0.00000 -1.85706
0.00000 0.60893 0.00000 5.24807 -3.75920 -1.63089 0.00000 -0.00000 0.00000 4.07113 26.39638 -64.04828 28.85892 18.00343 116.76112 -2.19356 -31.75821 -9.16311 0.99219 -6.33954 -17.77283 0.00000 -0.00000 0.00000 -8.36195 -10.10676 -71.76713 -29.41175 -17.72763 118.56298 -1.21869 19.44833 -22.44612 -1.03237 6.46276 -18.13317 -4.36490 1.33774 33.45530 1.31721 1.40502 10.56650 3.17756 1.00446 -5.54926 5.98989 3.56251 -10.43570 -16.80260 6.06154 8.99413 -5.81078 2.27283 5.15173 -0.00000 -0.00000 0.00000 -24.97840 -17.76968 49.04940 58.91588 -56.01406 -33.44059 -0.00000 0.00000 -36.39810 -0.00000 -0.00000 0.00000 52.75657 23.91890 19.97910 -15.30553 24.57001 -3.35196 0.00000 -0.00000 -6.70446
0.00000 0.63860 0.00000 4.90845 -2.69975 0.73033 0.00000 -0.00000 0.00000 0.87166 22.04875 -63.59574 27.11617 18.73981 111.23571 -1.65177 -29.52352 -10.27713 0.80907 -5.74025 -16.03259 0.00000 -0.00000 0.00000 -6.39751 -8.10090 -70.00832 -27.79727 -18.47504 113.37003 -1.54336 16.82747 -23.59583 -0.82506 5.79532 -16.19169 -4.73914 1.69364 31.48960 0.63237 1.72239 10.50930 2.80988 1.14645 -5.39941 5.16330 3.31779 -10.48270 -15.59130 5.54672 7.98828 -5.30724 2.09107 4.73006 0.00000 -0.00000 0.00000 -29.94065 -16.95613 51.77580 58.20051 -55.81104 -32.84814 -0.00000 0.00000 -37.93160 0.00000 -0.00000 0.00000 54.11666 24.11053 20.94811 -17.12118 27.01725 -4.14224 0.00000 -0.00000 -10.10720
0.00000 0.66735 0.00000 4.03007 -1.22827 2.01934 0.00000 -0.00000 0.00000 -0.95605 18.52346 -61.64368 25.30132 19.31241 105.67263 -1.06936 -27.35649 -12.18564 0.65579 -5.17971 -14.42183 0.00000 -0.00000 0.00000 -4.02396 -6.81484 -66.81191 -25.97883 -19.12045 107.73086 -1.84281 14.35264 -24.88705 -0.72848 5.45335 -15.20625 -5.03056 1.77049 30.26880 0.40007 1.74579 10.30340 2.72841 1.14162 -5.07793 5.29845 3.30127 -10.79860 -14.81040 5.34397 7.65926 -5.09107 2.02754 4.63895 -0.00000 0.00000 0.00000 -35.46474 -14.57389 53.39481 59.11282 -56.06885 -33.60394 -0.00000 0.00000 -40.14520 -0.00000 0.00000 0.00000 55.74506 24.28960 23.14348 -18.47789 28.76476 -4.77699 0.00000 -0.00000 -13.32960
0.00000 0.69383 0.00000 2.96067 -0.02810 3.31845 0.00000 -0.00000 0.00000 -3.02956 16.08220 -60.12185 23.50978 19.70206 100.31105 0.01839 -23.26779 -16.53715 0.91634 -6.09927 -17.07271 0.00000 -0.00000 0.00000 -1.31944 -5.91910 -64.08047 -24.16701 -19.57849 102.26627 -2.07956 12.01522 -26.02921 -0.38428 3.98090 -11.02295 -4.81190 1.92196 29.43640 -0.01042 1.93022 9.70011 2.09098 1.22835 -5.37831 5.71973 3.28266 -9.95205 -14.10260 5.05571 6.64233 -4.96007 1.99212 4.14411 0.00000 -0.00000 0.00000 -41.48997 -11.57598 54.03660 61.40630 -56.67317 -35.51370 -0.00000 0.00000 -40.77580 0.00000 -0.00000 0.00000 57.97814 23.07388 25.67789 -20.24072 30.93127 -5.65456 0.00000 -0.00000 -15.35500
0.00000 0.71892 0.00000 1.82759 1.08638 4.50091 0.00000 -0.00000 0.00000 -4.68898 13.93674 -58.51107 21.71509 19.92933 95.02025 0.61252 -19.90439 -18.65929 0.56164 -4.80013 -13.33938 0.00000 -0.00000 0.00000 0.92805 -4.92838 -61.46742 -22.30379 -19.87227 96.74963 -2.21922 9.60219 -26.76659 -0.32360 3.65639 -10.11191 -4.78218 2.15264 28.48320 -0.10695 2.21325 9.27559 1.88959 1.35216 -5.42767 5.55021 3.07641 -10.54800 -12.77960 4.60935 6.48128 -4.54152 1.80606 4.10753 -0.00000 0.00000 0.00000 -47.76174 -8.45066 54.52207 63.52739 -57.17888 -37.29117 -0.00000 0.00000 -39.30360 -0.00000 0.00000 0.00000 59.74280 21.81094 28.07518 -21.66352 32.59466 -6.40364 0.00000 -0.00000 -15.88930
0.00000 0.74392 0.00000 1.45700 1.95505 5.59301 0.00000 -0.00000 0.00000 -6.43591 11.57520 -56.08234 19.73227 19.99828 89.21720 0.90680 -17.66673 -19.68393 0.39967 -4.05893 -11.24250 0.00000 -0.00000 0.00000 2.32019 -4.39883 -58.59761 -20.18289 -19.99920 90.53475 -2.33209 7.14021 -27.54372 -0.37380 3.92687 -10.87103 -5.78679 2.70055 27.82600 -0.09677 2.60253 8.66045 2.35442 1.52690 -5.86017 5.11323 2.60589 -10.36720 -11.71500 3.85089 5.68518 -4.18738 1.49607 3.73109 0.00000 0.00000 0.00000 -53.93159 -5.35273 55.33964 64.66475 -57.42999 -38.24833 -0.00000 0.00000 -37.82430 0.00000 0.00000 0.00000 61.10094 20.25220 30.45740 -22.80905 33.87934 -7.03156 0.00000 -0.00000 -15.88010
0.00000 0.76755 0.00000 0.23942 3.14903 6.27664 0.00000 -0.00000 0.00000 -6.80380 9.65884 -53.62304 17.78020 19.88145 83.49741 1.12639 -15.51505 -20.44945 0.50044 -4.53519 -12.58743 0.00000 -0.00000 0.00000 4.62387 -4.18362 -55.26431 -18.04895 -19.90849 84.28715 -2.41314 5.52268 -28.20839 -0.30550 3.55361 -9.82407 -5.78968 2.82317 26.95190 -0.03242 2.78447 8.41354 2.39121 1.60332 -5.73670 4.88561 2.37158 -10.58040 -10.75010 3.44945 5.53141 -3.87476 1.32991 3.65966 0.00000 -0.00000 0.00000 -58.68154 -2.88858 54.73384 63.93858 -57.27125 -37.63691 -0.00000 0.00000 -34.57190 0.00000 -0.00000 0.00000 63.01759 18.92779 32.58720 -24.03742 35.20381 -7.72812 0.00000 -0.00000 -15.19440
0.00000 0.79029 0.00000 -0.12107 3.75333 7.24998 0.00000 -0.00000 0.00000 -8.00958 8.07215 -51.21637 15.84746 19.58145 77.77692 1.18574 -15.31494 -20.80402 0.16020 -2.57885 -7.10835 0.00000 -0.00000 0.00000 5.56027 -3.49360 -52.37957 -15.94182 -19.60048 78.05833 -2.41469 4.17763 -28.42365 -0.17958 2.72954 -7.52666 -6.28569 3.07508 25.70790 -0.20874 3.03356 8.32781 2.44568 1.70578 -5.25670 4.50904 1.94972 -10.91290 -9.95191 2.82817 5.21459 -3.60393 1.04805 3.54866 -0.00000 0.00000 0.00000 -63.34388 -1.49558 52.42747 61.95523 -56.80883 -35.97272 -0.00000 0.00000 -31.37670 -0.00000 0.00000 0.00000 64.77908 17.90571 33.93037 -25.35010 36.55968 -8.49757 0.00000 -0.00000 -14.76340
0.00000 0.81121 0.00000 -0.64531 4.35345 8.35240 0.00000 -0.00000 0.00000 -8.97935 6.59821 -49.25585 13.97234 19.10563 72.11999 1.21312 -14.36160 -20.72789 0.08888 -1.92284 -5.29246 0.00000 -0.00000 0.00000 6.79742 -2.75713 -50.10907 -13.89953 -19.08328 71.89743 -2.30217 1.35860 -28.34996 -0.24569 3.18961 -8.80709 -6.95069 3.26534 24.82140 -0.07099 3.15038 8.05226 2.96579 1.74678 -5.16966 4.07644 1.70394 -11.00750 -9.34838 2.47134 4.72261 -3.36725 0.89810 3.37415 0.00000 0.00000 0.00000 -67.45880 -0.49539 50.07600 59.37246 -56.14038 -33.81946 -0.00000 0.00000 -32.49000 0.00000 0.00000 0.00000 66.05501 16.75236 35.50134 -26.81603 38.00319 -9.38563 0.00000 -0.00000 -14.53230
0.00000 0.83137 0.00000 -0.92219 5.05008 9.64414 0.00000 -0.00000 0.00000 -10.20945 5.31695 -47.43771 12.15754 18.45645 66.48729 1.19045 -13.43603 -20.32934 0.03689 -1.23968 -3.40852 0.00000 -0.00000 0.00000 7.41797 -2.09945 -48.15022 -12.09068 -18.42872 66.27595 -2.13246 -0.49349 -27.82671 -0.08610 1.89260 -5.20894 -7.00349 3.28749 24.46910 -0.24802 3.10239 7.40990 2.81192 1.73057 -5.69667 3.87624 1.34046 -11.52100 -8.74972 1.97595 5.12987 -3.18241 0.65429 3.53591 0.00000 0.00000 0.00000 -70.08307 0.42374 48.53989 57.82642 -55.70236 -32.53890 -0.00000 0.00000 -35.39460 0.00000 0.00000 0.00000 67.65969 14.86384 36.77002 -28.35613 39.44203 -10.34916 0.00000 -0.00000 -14.73090
0.00000 0.84751 0.00000 -2.11787 4.95182 11.28985 0.00000 -0.00000 0.00000 -10.37828 4.69507 -47.05781 10.63806 17.75337 61.60048 1.25947 -11.76071 -20.48427 0.06533 -1.64914 -4.53697 0.00000 -0.00000 0.00000 8.61880 0.08682 -47.36495 -10.64012 -17.75443 61.60721 -1.83221 -3.17316 -26.87173 -0.04172 1.31838 -3.62529 -6.55539 3.40082 23.99150 -0.17309 3.31346 6.82347 2.57917 1.82860 -6.11798 3.80278 1.11981 -12.10080 -8.48498 1.64978 4.98560 -3.10979 0.49445 3.56132 -0.00000 0.00000 0.00000 -71.64448 0.43822 47.42526 56.06923 -55.16812 -31.09182 -0.00000 0.00000 -36.63290 -0.00000 0.00000 0.00000 69.12247 13.67447 37.54126 -29.95164 40.85191 -11.37798 0.00000 -0.00000 -14.88310
0.00000 0.86323 0.00000 -1.51826 4.80077 12.41119 0.00000 -0.00000 0.00000 -12.37490 3.63182 -44.53436 8.85193 16.71148 55.57662 1.30423 -11.04589 -20.70094 0.02566 -1.03406 -2.84253 0.00000 -0.00000 0.00000 7.37574 0.88140 -46.48265 -9.56925 -17.16040 58.03872 -1.38438 -4.86164 -24.45083 -0.11287 2.16611 -5.96493 -7.35202 3.37522 23.64970 -0.55577 3.05721 6.50357 2.69335 1.71217 -6.28371 3.83882 1.26455 -12.79330 -8.60797 1.85945 5.33031 -3.14173 0.57160 3.79377 -0.00000 0.00000 0.00000 -71.97562 -0.03603 47.62675 53.95413 -54.47089 -29.36296 -0.00000 0.00000 -35.80530 -0.00000 0.00000 0.00000 70.64473 12.63159 38.02656 -31.46009 42.11248 -12.37725 0.00000 -0.00000 -14.90730
0.00000 0.87598 0.00000 -0.90905 4.26066 13.72758 0.00000 -0.00000 0.00000 -14.19057 3.20077 -42.96807 7.41865 15.67453 50.44047 1.24242 -10.06349 -20.10109 0.05471 -1.50941 -4.15165 0.00000 -0.00000 0.00000 5.57811 2.21776 -46.47596 -8.82481 -16.69365 55.48228 -0.96212 -5.02001 -20.99534 -0.14792 2.47847 -6.82994 -8.23264 3.48354 23.08150 -0.94061 2.97420 6.16126 2.80782 1.67902 -6.37677 3.47455 0.93713 -12.59610 -8.09098 1.40618 4.80337 -2.95041 0.38008 3.56430 0.00000 -0.00000 0.00000 -70.60602 -1.34303 49.90435 52.48612 -53.95027 -28.17212 -0.00000 0.00000 -35.29310 0.00000 -0.00000 0.00000 71.86372 11.43208 38.58433 -33.20050 43.48358 -13.55984 0.00000 -0.00000 -15.02940
0.00000 0.88684 0.00000 -0.58184 3.60619 14.68515 0.00000 -0.00000 0.00000 -15.36858 3.16867 -41.70087 6.36704 14.77484 46.43759 1.22259 -9.10202 -19.84638 0.10006 -2.03990 -5.61593 0.00000 -0.00000 0.00000 3.81022 4.13418 -45.50895 -7.91062 -16.05312 52.24011 -0.88136 -2.85532 -18.98557 -0.08952 1.92979 -5.31168 -8.99075 3.65578 22.75450 -1.29375 3.01040 5.98399 2.84611 1.70411 -6.41810 3.42679 0.91875 -13.54930 -7.93061 1.39406 5.39089 -2.89901 0.35083 3.89409 -0.00000 0.00000 0.00000 -67.72788 -3.69323 53.65922 51.95256 -53.75327 -27.74127 -0.00000 0.00000 -35.49320 -0.00000 0.00000 0.00000 73.31475 10.58736 38.74337 -34.58945 44.51674 -14.52475 0.00000 -0.00000 -14.78030
0.00000 0.89417 0.00000 -1.38615 3.87217 15.79677 0.00000 -0.00000 0.00000 -14.64657 2.58232 -41.76883 5.71820 14.14958 43.84000 1.09979 -8.57382 -18.80453 0.09877 -2.02676 -5.57961 0.00000 -0.00000 0.00000 3.53349 6.01697 -44.75112 -6.92037 -15.26447 48.57250 -0.97940 -1.67226 -19.36981 -0.32975 3.69063 -10.20787 -8.24750 3.53948 23.28790 -1.29908 2.90378 5.42216 2.41287 1.66889 -7.27939 3.07115 0.48226 -14.00360 -7.34098 0.82847 5.76440 -2.70329 0.07970 4.04186 0.00000 -0.00000 0.00000 -63.81795 -6.70799 58.28507 51.66895 -53.64683 -27.51270 -0.00000 0.00000 -34.52970 0.00000 -0.00000 0.00000 74.84398 9.17879 38.83228 -36.25761 45.68954 -15.70654 0.00000 -0.00000 -13.61220
0.00000 0.90007 0.00000 -1.45625 4.08576 16.54405 0.00000 -0.00000 0.00000 -14.62907 2.24347 -41.51187 5.17478 13.57796 41.57242 1.03143 -7.67851 -18.15950 0.11086 -2.14683 -5.91162 0.00000 -0.00000 0.00000 2.61358 7.38863 -43.72848 -6.17943 -14.60000 45.69765 -1.14936 -2.21884 -21.16369 -0.36328 3.87184 -10.71639 -8.34106 3.43198 23.33540 -1.50019 2.70964 5.28906 2.29730 1.58250 -7.42513 2.88857 0.36118 -14.18720 -6.91100 0.64690 5.60552 -2.55319 0.00886 4.00915 0.00000 -0.00000 0.00000 -59.02136 -10.34099 62.62843 51.66454 -53.64516 -27.50915 -0.00000 0.00000 -33.03630 0.00000 -0.00000 0.00000 76.15459 8.01536 39.09643 -38.29064 47.02392 -17.17793 0.00000 -0.00000 -12.63710
0.00000 0.90436 0.00000 -1.63570 4.68655 17.01647 0.00000 -0.00000 0.00000 -14.10339 1.53682 -41.00294 4.74706 13.09316 39.71821 0.97441 -7.09426 -17.62700 0.08737 -1.90653 -5.24741 0.00000 -0.00000 0.00000 2.27154 7.86161 -42.81822 -5.63009 -14.06004 43.47845 -1.04736 -3.54302 -20.91451 -0.40252 4.07322 -11.28274 -8.49350 3.15465 23.17490 -1.34305 2.37000 5.48940 2.67043 1.41367 -7.09432 2.36234 0.26198 -14.43000 -6.37825 0.54772 5.33065 -2.30899 -0.02105 3.95420 0.00000 -0.00000 0.00000 -54.74033 -13.98337 65.22913 51.92782 -53.74404 -27.72132 -0.00000 0.00000 -31.39390 0.00000 -0.00000 0.00000 76.91885 7.59502 39.53318 -39.79694 47.94913 -18.28831 0.00000 -0.00000 -11.45320
0.00000 0.90615 0.00000 -1.62620 4.80902 17.67700 0.00000 -0.00000 0.00000 -13.55662 1.13730 -41.15492 4.46515 12.75491 38.45780 0.94901 -6.36638 -17.37822 0.10228 -2.06227 -5.67778 0.00000 -0.00000 0.00000 1.86461 8.84844 -42.81513 -5.35817 -13.77613 42.34799 -0.60195 -3.49277 -16.34154 -0.34786 3.78961 -10.48551 -8.95632 3.14898 23.32860 -1.43369 2.21421 5.32550 2.86901 1.35625 -7.34665 2.59209 0.20418 -14.46960 -6.48538 0.43091 5.17007 -2.38747 -0.07745 3.90674 0.00000 -0.00000 0.00000 -50.35581 -17.47808 66.71062 52.76428 -54.05131 -28.39716 -0.00000 0.00000 -31.53400 0.00000 -0.00000 0.00000 77.91416 6.64361 39.81007 -42.19654 49.31874 -20.08946 0.00000 -0.00000 -10.01980
0.00000 0.90595 0.00000 -1.37727 4.79591 18.21790 0.00000 -0.00000 0.00000 -13.18647 1.23013 -41.50825 4.31717 12.57092 37.78280 0.88514 -6.17793 -16.77742 0.12972 -2.32160 -6.39530 0.00000 -0.00000 0.00000 1.67168 9.66384 -42.88638 -5.27171 -13.68340 41.98373 -0.50499 -2.34111 -14.47980 -0.49708 4.52014 -12.54479 -9.29096 3.05584 23.45150 -1.68342 1.97784 5.24842 2.84787 1.25555 -7.46626 2.25281 0.12692 -14.94510 -6.19899 0.36938 5.31425 -2.25158 -0.10808 4.02195 -0.00000 0.00000 0.00000 -46.47881 -20.53919 66.59692 53.41586 -54.28359 -28.92542 -0.00000 0.00000 -32.01500 -0.00000 0.00000 0.00000 78.62701 6.05858 40.45505 -44.10236 50.32107 -21.54566 0.00000 -0.00000 -9.18197
0.00000 0.90352 0.00000 -0.92999 5.12446 18.69279 0.00000 -0.00000 0.00000 -12.69946 1.00427 -42.14235 4.32306 12.57832 37.80982 0.84919 -6.17399 -16.43130 0.18348 -2.75888 -7.60816 0.00000 -0.00000 0.00000 2.07844 9.34971 -43.30568 -5.30694 -13.72134 42.13247 -0.59088 -2.89539 -15.86013 -0.60485 4.97819 -13.84636 -9.47876 2.88101 23.95350 -1.90791 1.61893 5.07342 2.79620 1.10789 -7.87477 2.26710 0.06756 -15.35620 -6.25513 0.29023 5.21528 -2.27913 -0.15305 4.05366 -0.00000 -0.00000 0.00000 -43.67773 -23.01963 65.09786 54.05860 -54.50678 -29.44800 -0.00000 0.00000 -32.75250 -0.00000 -0.00000 0.00000 79.19134 5.36324 41.13944 -46.20271 51.34426 -23.17421 0.00000 -0.00000 -8.96922
0.00000 0.90077 0.00000 -0.02759 5.47742 19.26012 0.00000 -0.00000 0.00000 -12.72753 0.92011 -42.86367 4.32660 12.58278 37.82610 0.80839 -6.26008 -16.03314 0.22984 -3.08572 -8.51749 0.00000 -0.00000 0.00000 2.45516 8.12603 -44.68540 -5.55853 -13.98645 43.18315 -0.80826 -1.67099 -17.66593 -0.49461 4.50905 -12.51340 -9.42641 2.57252 24.49110 -2.29264 1.13045 4.90231 2.47432 0.89564 -8.27843 1.79978 -0.12560 -15.54780 -5.93354 0.08864 4.99725 -2.11879 -0.24146 4.00667 0.00000 -0.00000 0.00000 -42.17311 -25.05943 62.47246 54.84825 -54.77307 -30.09199 -0.00000 0.00000 -34.45060 0.00000 -0.00000 0.00000 79.46531 4.71199 41.79298 -48.61429 52.42110 -25.07170 0.00000 -0.00000 -8.89912
0.00000 0.89639 0.00000 0.52610 5.75722 19.43513 0.00000 -0.00000 0.00000 -12.26456 1.30453 -43.66343 4.49612 12.79285 38.59789 0.77126 -6.49437 -15.67162 0.47599 -4.42460 -12.27439 0.00000 -0.00000 0.00000 3.37810 7.27084 -46.14939 -6.04820 -14.47489 45.17485 -1.09278 -0.53871 -19.96225 -0.27290 3.36028 -9.28347 -8.73363 2.31299 25.29680 -2.56717 0.86075 4.84930 1.84340 0.77085 -8.71668 1.27804 -0.28893 -16.40170 -5.88120 -0.01131 5.10574 -2.03260 -0.30870 4.17136 0.00000 0.00000 0.00000 -41.90816 -26.81171 59.26022 55.85503 -55.10025 -30.91607 -0.00000 0.00000 -35.94060 0.00000 0.00000 0.00000 79.62048 4.77656 42.10641 -50.95339 53.37285 -26.93742 0.00000 -0.00000 -8.71658
0.00000 0.89161 0.00000 1.98997 5.69168 19.62270 0.00000 -0.00000 0.00000 -12.79237 1.77061 -43.95415 4.53040 12.83461 38.75246 0.69872 -6.80948 -14.95093 0.60295 -4.97052 -13.82449 0.00000 -0.00000 0.00000 2.86828 6.79474 -48.06541 -6.79953 -15.16073 48.11201 -1.25492 0.37141 -21.06859 -0.20265 2.89866 -7.99673 -8.65669 2.03131 25.84360 -3.01692 0.43345 4.84543 1.42476 0.58132 -8.95755 0.41821 -0.42727 -17.09230 -5.76519 -0.00100 5.19450 -1.86246 -0.32190 4.30859 0.00000 -0.00000 0.00000 -42.75180 -27.84833 55.85883 56.81647 -55.40015 -31.70604 -0.00000 0.00000 -35.91120 0.00000 -0.00000 0.00000 79.28998 5.29700 43.06235 -52.83019 54.07508 -28.45052 0.00000 -0.00000 -8.01212
0.00000 0.88599 0.00000 3.02626 5.62549 20.01177 0.00000 -0.00000 0.00000 -12.81560 2.47996 -44.61427 4.61431 12.93583 39.12873 0.60644 -7.63687 -14.07254 0.59041 -4.91945 -13.67898 0.00000 -0.00000 0.00000 2.49684 6.84340 -50.02032 -7.60196 -15.81854 51.11596 -1.39849 1.51926 -21.91860 -0.27206 3.35514 -9.26910 -7.85347 1.66517 25.82700 -3.43046 0.12797 4.72559 0.60637 0.41768 -9.06514 0.28276 -0.18572 -17.80340 -6.36978 0.44415 5.28260 -1.99700 -0.15088 4.46724 0.00000 -0.00000 0.00000 -43.83660 -28.43139 52.94716 58.33762 -55.85044 -32.96158 -0.00000 0.00000 -34.42180 0.00000 -0.00000 0.00000 79.04998 6.26301 44.16539 -54.26126 54.57594 -29.61307 0.00000 -0.00000 -7.43782
