HIERARCHY
ROOT root
{
  OFFSET 0.000000 0.000000 0.000000
  CHANNELS 6 Xposition Yposition Zposition Zrotation Yrotation Xrotation
  JOINT lhipjoint
  {
    OFFSET 0.000000 0.000000 0.000000
    CHANNELS 3 Zrotation Yrotation Xrotation
    JOINT lfemur
    {
      OFFSET 0.102404 -0.080329 0.066655
      CHANNELS 3 Zrotation Yrotation Xrotation
      JOINT ltibia
      {
        OFFSET 0.121828 -0.334720 0.000000
        CHANNELS 3 Zrotation Yrotation Xrotation
        JOINT lfoot
        {
          OFFSET 0.142104 -0.390427 0.000000
          CHANNELS 3 Zrotation Yrotation Xrotation
          JOINT ltoes
          {
            OFFSET 0.010339 -0.028407 0.110130
            CHANNELS 3 Zrotation Yrotation Xrotation
            End Site
            {
              OFFSET 0.000000 -0.000000 0.057305
            }
          }
        }
      }
    }
  }
  JOINT rhipjoint
  {
    OFFSET 0.000000 0.000000 0.000000
    CHANNELS 3 Zrotation Yrotation Xrotation
    JOINT rfemur
    {
      OFFSET -0.081233 -0.080330 0.066655
      CHANNELS 3 Zrotation Yrotation Xrotation
      JOINT rtibia
      {
        OFFSET -0.127134 -0.349297 0.000000
        CHANNELS 3 Zrotation Yrotation Xrotation
        JOINT rfoot
        {
          OFFSET -0.139133 -0.382266 0.000000
          CHANNELS 3 Zrotation Yrotation Xrotation
          JOINT rtoes
          {
            OFFSET -0.014837 -0.040763 0.099426
            CHANNELS 3 Zrotation Yrotation Xrotation
            End Site
            {
              OFFSET -0.000000 -0.000000 0.053684
            }
          }
        }
      }
    }
  }
  JOINT lowerback
  {
    OFFSET 0.000000 0.000000 0.000000
    CHANNELS 3 Zrotation Yrotation Xrotation
    JOINT upperback
    {
      OFFSET -0.004925 0.109363 -0.016307
      CHANNELS 3 Zrotation Yrotation Xrotation
      JOINT thorax
      {
        OFFSET 0.000675 0.109981 0.003368
        CHANNELS 3 Zrotation Yrotation Xrotation
        JOINT lowerneck
        {
          OFFSET 0.002891 0.112938 0.011517
          CHANNELS 3 Zrotation Yrotation Xrotation
          JOINT upperneck
          {
            OFFSET 0.001559 0.090381 0.019281
            CHANNELS 3 Zrotation Yrotation Xrotation
            JOINT head
            {
              OFFSET -0.002701 0.094100 -0.013586
              CHANNELS 3 Zrotation Yrotation Xrotation
              End Site
              {
                OFFSET -0.001235 0.095160 -0.006750
              }
            }
          }
        }
        JOINT lclavicle
        {
          OFFSET 0.002891 0.112938 0.011517
          CHANNELS 3 Zrotation Yrotation Xrotation
          JOINT lhumerus
          {
            OFFSET 0.146536 0.100864 -0.016287
            CHANNELS 3 Zrotation Yrotation Xrotation
            JOINT lradius
            {
              OFFSET 0.292299 -0.000000 0.000000
              CHANNELS 3 Zrotation Yrotation Xrotation
              JOINT lwrist
              {
                OFFSET 0.192136 -0.000000 -0.000000
                CHANNELS 3 Zrotation Yrotation Xrotation
                End Site
                {
                  OFFSET 0.096068 -0.000000 -0.000000
                }
              }
            }
          }
        }
        JOINT rclavicle
        {
          OFFSET 0.002891 0.112938 0.011517
          CHANNELS 3 Zrotation Yrotation Xrotation
          JOINT rhumerus
          {
            OFFSET -0.162418 0.087763 -0.041252
            CHANNELS 3 Zrotation Yrotation Xrotation
            JOINT rradius
            {
              OFFSET -0.306127 -0.000000 -0.000000
              CHANNELS 3 Zrotation Yrotation Xrotation
              JOINT rwrist
              {
                OFFSET -0.193077 -0.000000 -0.000000
                CHANNELS 3 Zrotation Yrotation Xrotation
                End Site
                {
                  OFFSET -0.096539 -0.000000 -0.000000
                }
              }
            }
          }
        }
      }
    }
  }
}
MOTION
Frames: 76
Frame Time: 0.04166667
0.00000 0.13842 0.00000 10.09821 0.00006 83.91644 0.00000 -0.00000 0.00000 -3.15076 52.57058 -68.90652 20.92639 19.97941 92.70948 0.06055 1.77161 4.37092 0.32201 3.64750 10.08700 0.00000 -0.00000 0.00000 19.80119 -9.30878 6.28010 -0.41958 -4.15760 11.52048 -0.83446 -26.13883 -40.77711 -1.07670 -6.59571 18.52301 -2.71697 -1.77352 9.09475 0.33045 -2.69577 -3.33952 2.31520 -1.15386 -8.51322 0.71327 3.25777 -16.75160 -7.37958 4.73323 -12.84760 -2.31238 2.81489 -1.12828 0.00000 0.00000 0.00000 -67.30066 33.46924 26.96813 132.35824 -51.99895 -95.69686 -0.00000 -0.00000 6.11151 0.00000 0.00000 0.00000 78.40796 -34.30676 10.13577 -128.99630 53.39237 -93.02220 0.00000 -0.00000 -7.21599
0.00000 0.13825 0.00000 9.58060 0.18975 83.78914 0.00000 -0.00000 0.00000 -2.74610 53.41509 -69.31266 21.10734 19.97057 93.23917 0.04034 1.41477 3.56620 0.19939 2.87539 7.93203 0.00000 -0.00000 0.00000 19.82362 -9.62426 6.61557 -0.44990 -4.30328 11.93149 -0.69390 -24.44514 -38.12084 -0.35739 -3.84065 10.62879 -3.34738 -1.30329 8.30635 0.47863 -2.10740 -3.73035 2.71463 -0.82352 -8.48496 -0.18821 2.52259 -17.66110 -5.62740 4.03515 -12.80970 -1.59676 2.49510 -1.06935 -0.00000 -0.00000 0.00000 -63.11692 32.63035 31.98585 132.05129 -52.13392 -95.45476 -0.00000 -0.00000 3.91303 -0.00000 -0.00000 0.00000 75.46072 -36.21022 12.40283 -129.68233 53.12282 -93.57195 0.00000 -0.00000 -6.88083
0.00000 0.13998 0.00000 9.34402 0.55057 83.27549 0.00000 -0.00000 0.00000 -1.98285 53.78153 -69.37909 21.33447 19.95725 93.90440 0.01418 1.37230 2.18159 0.16080 2.58365 7.12167 0.00000 -0.00000 0.00000 19.91859 -10.75815 6.90435 -0.52252 -4.63264 12.86368 -0.48719 -22.47476 -34.64830 -0.28534 -3.43537 9.49330 -4.07923 -0.90974 7.71167 0.56319 -1.63045 -3.85900 3.12970 -0.54891 -8.29242 -0.07032 1.65562 -17.43870 -4.94426 2.89132 -13.86230 -1.46961 1.95843 -1.49342 -0.00000 -0.00000 0.00000 -58.91331 30.05830 36.44208 131.44389 -52.39629 -94.97440 -0.00000 -0.00000 2.40532 -0.00000 -0.00000 0.00000 72.43959 -36.77812 15.59731 -129.53913 53.17969 -93.45736 0.00000 -0.00000 -8.18115
0.00000 0.14154 0.00000 8.77227 0.68299 82.60666 0.00000 -0.00000 0.00000 -0.92273 54.72887 -69.13007 21.57605 19.94034 94.61247 0.00836 1.37158 1.76180 0.08605 1.89209 5.20753 0.00000 -0.00000 0.00000 19.90978 -11.04010 7.63953 -0.59976 -4.95760 13.78766 -1.12498 -18.39739 -33.76131 -0.00040 -0.12991 0.35693 -4.87558 -0.74704 6.88093 0.45691 -1.46285 -4.09954 3.42304 -0.42534 -8.07106 -0.62866 1.26660 -17.27200 -4.19916 2.50666 -14.10230 -1.15590 1.79688 -1.62513 -0.00000 -0.00000 0.00000 -56.50153 27.85482 39.26781 129.76834 -53.08850 -93.64073 -0.00000 -0.00000 0.95917 -0.00000 -0.00000 0.00000 69.30414 -35.90448 19.37324 -128.40543 53.61871 -92.54719 0.00000 -0.00000 -8.72126
0.00000 0.14477 0.00000 8.04394 1.33910 81.29955 0.00000 -0.00000 0.00000 1.50911 55.75832 -67.89421 21.81661 19.92069 95.31815 0.00112 1.58818 1.22667 0.13340 2.35416 6.48549 0.00000 -0.00000 0.00000 20.17977 -11.69887 8.83626 -0.64531 -5.13895 14.30530 -1.30868 -15.53421 -32.06436 -0.25395 3.24237 -8.95426 -4.92491 -0.73408 6.12899 0.59517 -1.39580 -4.02644 3.56835 -0.40243 -7.55582 -0.99139 0.89251 -17.41120 -3.40379 2.07928 -13.28130 -0.84217 1.54534 -1.35312 -0.00000 -0.00000 0.00000 -55.18308 25.45936 40.55126 127.03021 -54.12523 -91.43639 -0.00000 -0.00000 0.56085 -0.00000 -0.00000 0.00000 66.39484 -34.21209 23.06293 -126.59910 54.27832 -91.08673 0.00000 -0.00000 -9.49678
0.00000 0.15032 0.00000 7.61898 1.69176 79.55617 0.00000 -0.00000 0.00000 3.84289 56.13916 -66.12996 22.03971 19.89996 95.97326 -0.00755 1.70149 0.14830 0.12354 2.26583 6.24090 0.00000 -0.00000 0.00000 20.07799 -11.75908 9.36370 -0.85896 -5.91021 16.52413 -1.58965 -13.12932 -31.69146 -0.31460 3.60563 -9.96973 -4.93240 -0.66361 5.61629 0.62555 -1.26424 -3.63567 3.57116 -0.36651 -6.85112 -1.16669 0.75498 -17.37820 -3.34829 1.91506 -13.03350 -0.79873 1.45600 -1.28099 0.00000 0.00000 0.00000 -54.38935 22.25499 41.34768 124.23853 -55.07042 -89.16065 -0.00000 0.00000 -0.34012 0.00000 0.00000 0.00000 65.13561 -31.50008 24.85655 -124.61563 54.94900 -89.46959 0.00000 -0.00000 -9.83925
0.00000 0.15967 0.00000 7.44577 2.12264 77.17824 0.00000 -0.00000 0.00000 6.98289 55.74749 -63.38910 22.27681 19.87526 96.67026 -0.00940 1.79155 -0.12019 0.13654 2.38159 6.56146 0.00000 -0.00000 0.00000 19.72806 -12.84212 9.78601 -1.05744 -6.53835 18.35467 -1.53378 -12.32518 -30.68713 -0.21777 3.00416 -8.29033 -4.80224 -0.57077 6.12940 0.71532 -1.14232 -3.00886 3.58166 -0.33578 -6.49095 -1.53333 0.56546 -17.07050 -2.99690 1.72240 -13.10520 -0.63762 1.37293 -1.35893 0.00000 0.00000 0.00000 -53.50182 18.02393 41.76420 119.87132 -56.34412 -85.55182 -0.00000 0.00000 -1.69647 0.00000 0.00000 0.00000 64.31414 -28.24475 26.20356 -121.43940 55.91402 -86.85382 0.00000 -0.00000 -9.62105
0.00000 0.17475 0.00000 7.27566 2.16283 73.75124 0.00000 -0.00000 0.00000 10.64729 54.66619 -59.20801 22.40965 19.86021 97.06112 -0.01062 1.83660 -0.48232 0.24437 3.18107 8.78328 0.00000 -0.00000 0.00000 18.89701 -13.90959 10.89186 -1.27805 -7.16453 20.20373 -1.32074 -11.94418 -28.97156 -0.12622 2.29023 -6.30844 -4.85909 -0.26997 8.70986 0.66049 -0.87143 -2.22293 3.56291 -0.19834 -7.16540 -1.71098 0.32891 -16.82090 -2.77594 1.41569 -12.86080 -0.54872 1.20753 -1.32144 0.00000 0.00000 0.00000 -52.85854 13.06256 42.40623 114.11517 -57.68436 -80.72199 -0.00000 0.00000 -3.29405 0.00000 0.00000 0.00000 63.43633 -24.71471 27.08993 -118.85331 56.60783 -84.70314 0.00000 -0.00000 -9.78193
0.00000 0.19393 0.00000 7.32855 2.46680 70.46584 0.00000 -0.00000 0.00000 13.13328 52.82321 -56.63397 22.63289 19.83298 97.71867 -0.02486 2.81801 -0.65198 0.62931 5.07603 14.12552 0.00000 -0.00000 0.00000 18.62740 -14.73020 11.84867 -1.53434 -7.82010 22.16900 -1.54013 -11.02661 -29.70568 -0.20929 2.94543 -8.12687 -4.81269 0.10216 11.83990 0.73415 -0.50159 -1.35181 3.59621 -0.00576 -8.06280 -1.84155 0.09056 -16.53990 -2.72798 1.11598 -13.24400 -0.52863 1.07890 -1.49150 0.00000 0.00000 0.00000 -52.27230 7.14917 43.16312 106.91208 -58.89120 -74.59176 -0.00000 0.00000 -5.04086 0.00000 0.00000 0.00000 62.55515 -20.84415 27.40749 -115.35733 57.42525 -81.77027 0.00000 -0.00000 -10.05940
0.00000 0.21489 0.00000 7.18649 2.94910 67.73874 0.00000 -0.00000 0.00000 14.99065 50.66700 -54.98525 22.87434 19.80075 98.43087 -0.03119 3.13247 -1.22384 0.57976 4.87568 13.55431 0.00000 -0.00000 0.00000 18.93705 -14.79857 12.03926 -1.82779 -8.49776 24.23646 -1.52327 -11.33009 -29.82975 -0.21269 2.96913 -8.19281 -4.39944 0.29509 14.95650 0.86847 -0.28780 -0.63411 3.49722 0.10468 -9.08437 -1.86752 -0.09992 -17.89570 -2.49918 0.93542 -12.20170 -0.44404 0.95336 -0.95325 -0.00000 -0.00000 0.00000 -51.41034 1.40274 43.67766 99.40541 -59.66308 -68.13611 -0.00000 0.00000 -6.82172 -0.00000 -0.00000 0.00000 61.93907 -16.08831 27.61738 -110.76882 58.30573 -77.88401 0.00000 -0.00000 -9.85132
0.00000 0.23664 0.00000 7.07562 2.72005 66.25945 0.00000 -0.00000 0.00000 14.64639 48.44915 -54.96120 23.00465 19.78216 98.81573 -0.02525 2.84485 -1.45231 0.41856 4.15261 11.50641 0.00000 -0.00000 0.00000 18.93911 -13.97260 10.95376 -2.16331 -9.19828 26.41754 -1.71905 -10.88790 -30.75263 -0.11463 2.18291 -6.01143 -4.63963 0.60430 16.71380 0.76018 -0.00716 -0.48659 3.46724 0.27167 -9.95076 -2.21625 -0.08418 -16.00690 -2.24767 0.93792 -13.39180 -0.32573 1.00427 -1.62476 -0.00000 -0.00000 0.00000 -50.33274 -3.89112 44.75426 91.64566 -59.98976 -61.42513 -0.00000 0.00000 -8.84770 -0.00000 -0.00000 0.00000 61.12157 -12.04757 27.54816 -106.56303 58.93762 -74.29283 0.00000 -0.00000 -10.15610
0.00000 0.25806 0.00000 6.81408 2.64780 65.82631 0.00000 -0.00000 0.00000 13.39438 46.27654 -56.24179 23.08454 19.77034 99.05184 -0.01551 2.48825 -2.12442 0.26862 3.33399 9.21003 0.00000 -0.00000 0.00000 19.30545 -12.78186 8.17167 -2.71757 -10.22318 29.70253 -1.94612 -10.76778 -32.06241 -0.18622 2.77930 -7.66491 -4.95971 0.61849 17.75770 0.93323 -0.06056 0.03427 3.85904 0.26533 -9.95942 -2.04751 -0.16661 -18.56000 -2.08144 0.98649 -12.96940 -0.28531 1.03859 -1.10904 -0.00000 -0.00000 0.00000 -49.33884 -9.32009 44.14631 83.88308 -59.85814 -54.70512 -0.00000 0.00000 -10.44970 -0.00000 -0.00000 0.00000 59.86941 -5.90442 27.50527 -101.17277 59.52302 -69.66040 0.00000 -0.00000 -10.58740
0.00000 0.27964 0.00000 6.19386 2.75737 65.28744 0.00000 -0.00000 0.00000 12.70339 44.36024 -57.30330 23.22600 19.74863 99.47028 0.01136 1.72957 -3.35614 0.19147 2.81798 7.77241 0.00000 -0.00000 0.00000 19.81627 -11.23994 5.04537 -3.53680 -11.51710 34.04436 -2.12280 -10.12678 -32.67113 -0.03878 1.27114 -3.49518 -4.73713 0.78927 18.88230 0.89782 0.14053 -0.26444 3.65208 0.38010 -10.95150 -1.67601 -0.06258 -16.41420 -2.40414 0.90328 -13.57910 -0.46484 0.97463 -1.62221 -0.00000 -0.00000 0.00000 -48.33133 -13.13695 44.79148 77.26042 -59.37778 -48.99025 -0.00000 0.00000 -11.92260 -0.00000 -0.00000 0.00000 59.21188 -2.07801 27.71130 -95.77787 59.87348 -65.00166 0.00000 -0.00000 -10.97560
0.00000 0.30094 0.00000 5.03770 2.08189 65.05016 0.00000 -0.00000 0.00000 11.48920 43.61853 -58.18542 23.23392 19.74739 99.49373 0.08092 0.64681 -5.64999 0.03501 1.20779 3.32073 0.00000 -0.00000 0.00000 19.70414 -9.17485 1.50332 -4.53223 -12.83682 38.76067 -2.58713 -8.94689 -34.56002 -0.23404 3.11359 -8.59516 -5.72627 1.30624 20.05960 1.01606 0.55331 -0.12660 4.23892 0.65025 -11.52060 -2.05218 -0.16695 -16.71480 -2.07189 0.87908 -13.93820 -0.30142 1.00060 -1.69942 0.00000 -0.00000 0.00000 -47.37379 -17.56321 44.28919 70.94717 -58.58292 -43.57827 -0.00000 0.00000 -13.63340 0.00000 -0.00000 0.00000 58.14152 3.22560 27.30547 -89.67680 59.99961 -59.72010 0.00000 -0.00000 -11.43580
0.00000 0.32202 0.00000 4.16969 1.56351 64.58749 0.00000 -0.00000 0.00000 10.47999 42.82191 -58.73119 23.16731 19.75776 99.29662 0.17521 -0.60996 -7.71221 0.00177 0.27132 0.74547 0.00000 -0.00000 0.00000 19.52601 -7.29535 -1.69735 -5.58043 -14.00905 43.27368 -2.68535 -8.12585 -34.62618 -0.16836 2.64336 -7.28735 -6.55513 1.57036 21.50640 1.07785 0.62240 -0.03135 4.77046 0.76067 -12.25280 -2.08146 -0.11169 -16.35440 -1.95000 0.95548 -14.47540 -0.26225 1.05833 -1.93330 0.00000 0.00000 0.00000 -45.75444 -21.17066 43.45400 65.74305 -57.65558 -39.15821 -0.00000 0.00000 -15.82780 0.00000 0.00000 0.00000 57.33879 8.33387 27.15324 -83.47641 59.83858 -54.35347 0.00000 -0.00000 -11.86030
0.00000 0.34267 0.00000 3.67454 1.64680 64.25626 0.00000 -0.00000 0.00000 9.85881 41.53201 -60.03606 23.21783 19.74991 99.44609 0.27640 -1.91723 -9.44835 0.02496 -1.01997 -2.80375 0.00000 -0.00000 0.00000 19.64714 -5.97467 -5.25559 -6.75270 -15.12006 47.93270 -2.79365 -7.43275 -34.83635 -0.15006 2.49623 -6.87920 -7.09180 1.70555 23.00410 1.18698 0.58595 0.19730 5.22418 0.80465 -12.83560 -2.04498 -0.21277 -16.66930 -1.78223 0.84365 -14.53870 -0.21770 1.00450 -1.90772 0.00000 0.00000 0.00000 -44.50793 -25.06405 41.97948 60.79099 -56.51705 -35.00004 -0.00000 0.00000 -16.68950 0.00000 0.00000 0.00000 56.43802 13.48483 26.43590 -77.27468 59.37919 -49.00253 0.00000 -0.00000 -12.06330
0.00000 0.36262 0.00000 2.88010 1.46966 64.37256 0.00000 -0.00000 0.00000 9.06320 41.21980 -61.92941 23.28774 19.73884 99.65305 0.30873 -3.54942 -9.87613 0.02680 -1.05686 -2.90528 0.00000 -0.00000 0.00000 19.71611 -3.98758 -9.04885 -7.96430 -16.09293 52.43398 -2.69687 -7.00415 -34.08232 -0.02072 0.92940 -2.55457 -7.89057 2.11028 23.99150 1.30976 0.84699 0.33683 5.74378 0.99853 -13.28210 -1.82201 -0.22895 -17.50030 -1.92284 0.81609 -14.16350 -0.29326 0.97519 -1.65739 0.00000 0.00000 0.00000 -42.80111 -29.27182 40.55459 55.90958 -55.11760 -30.96081 -0.00000 0.00000 -18.28020 0.00000 0.00000 0.00000 55.38998 18.03559 25.31429 -71.69800 58.69572 -44.21941 0.00000 -0.00000 -12.54540
0.00000 0.38209 0.00000 3.21120 1.41587 62.96606 0.00000 -0.00000 0.00000 8.56094 39.72036 -62.24042 23.37447 19.72477 99.90992 0.45051 -4.26297 -11.93967 0.22872 -3.07825 -8.49668 0.00000 -0.00000 0.00000 18.88287 -3.48503 -11.13892 -9.19363 -16.93072 56.75738 -2.86076 -4.76780 -33.89423 -0.02338 -0.98716 2.71348 -8.31094 2.29109 26.77070 1.35439 0.74901 0.40593 5.74312 0.98268 -13.98670 -2.56115 -0.46674 -17.92940 -1.10345 0.69011 -13.78400 0.08659 0.93358 -1.47425 -0.00000 -0.00000 0.00000 -41.10414 -33.73992 38.90617 51.56275 -53.60666 -27.42719 -0.00000 0.00000 -19.42170 -0.00000 -0.00000 0.00000 54.12853 22.26643 24.04324 -66.09450 57.72654 -39.45525 0.00000 -0.00000 -13.19320
0.00000 0.39951 0.00000 2.31189 1.15386 63.21959 0.00000 -0.00000 0.00000 7.84417 40.15405 -64.92698 23.66891 19.67416 100.78339 0.31050 -4.99212 -9.98836 0.00273 0.33719 0.92647 0.00000 -0.00000 0.00000 18.79741 -0.83405 -14.78908 -10.50920 -17.68642 61.17711 -2.86395 -4.70763 -33.88471 -0.01045 -0.66000 1.81372 -9.08669 2.87078 26.95500 1.45886 1.26104 0.46956 6.08484 1.26682 -14.09560 -2.54059 -0.63167 -18.15130 -1.14615 0.47481 -13.73220 0.06236 0.82561 -1.42309 0.00000 0.00000 0.00000 -39.42992 -38.43589 37.30072 46.95658 -51.69178 -23.76434 -0.00000 0.00000 -20.01850 0.00000 0.00000 0.00000 52.16992 26.28255 22.47022 -60.12786 56.34391 -34.44750 0.00000 -0.00000 -13.54000
0.00000 0.41724 0.00000 2.22779 0.75973 62.19289 0.00000 -0.00000 0.00000 7.40059 39.79887 -65.66560 23.83396 19.64387 101.27399 0.41764 -6.47632 -11.68664 0.08402 -1.86970 -5.14569 0.00000 -0.00000 0.00000 17.62530 -0.47699 -17.36781 -11.68944 -18.25626 65.00099 -2.64056 -4.37322 -32.48095 -0.00649 -0.52028 1.42965 -10.09570 3.41478 28.51340 1.45111 1.51293 0.77726 6.48702 1.45618 -14.52390 -2.47177 -0.82425 -18.52970 -1.23892 0.22866 -13.75300 0.01253 0.70707 -1.37311 0.00000 0.00000 0.00000 -37.92040 -43.34755 35.54845 42.24540 -49.34536 -20.12652 -0.00000 0.00000 -20.41000 0.00000 0.00000 0.00000 49.86700 30.30401 20.29596 -54.30398 54.59045 -29.64789 0.00000 -0.00000 -14.74730
0.00000 0.43326 0.00000 2.10410 0.46782 60.71992 0.00000 -0.00000 0.00000 7.13073 39.66998 -66.46797 24.21807 19.56797 102.41869 0.50629 -7.57630 -12.95081 0.37452 -3.93064 -10.88160 0.00000 -0.00000 0.00000 16.47821 0.02355 -19.78007 -13.13376 -18.82992 69.54043 -2.58445 -3.57587 -31.80608 -0.00190 0.28181 -0.77430 -10.65020 3.68410 30.31720 1.24981 1.48436 1.16179 6.52204 1.48082 -14.87880 -2.41773 -0.89634 -18.70420 -1.01238 0.14858 -13.78110 0.07208 0.66820 -1.35645 0.00000 0.00000 0.00000 -34.92426 -47.82709 32.99381 37.97709 -46.82467 -16.94889 -0.00000 0.00000 -21.19960 0.00000 0.00000 0.00000 47.37739 35.27940 18.16778 -47.21161 51.80706 -23.96462 0.00000 -0.00000 -15.36630
0.00000 0.44895 0.00000 1.72849 0.66476 59.45200 0.00000 -0.00000 0.00000 7.51250 39.64626 -67.80072 24.73984 19.45262 103.98089 0.43505 -8.90385 -12.44004 0.23402 -3.11350 -8.59491 0.00000 -0.00000 0.00000 15.74281 0.44555 -22.30730 -14.48694 -19.25512 73.68621 -2.60158 -1.88667 -31.22825 -0.00259 -0.32877 0.90334 -10.76160 3.76131 31.83640 1.32544 1.40829 1.36638 6.65729 1.47524 -15.29410 -2.37261 -0.90835 -19.22240 -0.82078 0.16094 -13.56880 0.12761 0.67031 -1.21109 0.00000 -0.00000 0.00000 -32.30855 -51.78428 29.92468 33.99043 -44.07763 -14.10640 -0.00000 0.00000 -21.35500 0.00000 -0.00000 0.00000 44.97888 40.41685 15.76117 -39.99410 48.06640 -18.43485 0.00000 -0.00000 -14.91040
0.00000 0.46264 0.00000 1.44294 0.42158 58.33182 0.00000 -0.00000 0.00000 7.46322 39.99885 -69.19951 25.26257 19.32263 105.55550 0.41634 -10.65593 -12.79621 0.49301 -4.50187 -12.49307 0.00000 -0.00000 0.00000 14.70292 0.66525 -25.24982 -15.95898 -19.60389 78.10947 -2.48269 -2.17615 -30.63207 -0.00439 0.42764 -1.17502 -11.55360 3.83782 32.89640 1.30678 1.13215 1.69923 7.14428 1.40265 -15.29320 -2.38202 -1.25566 -21.05830 -0.38904 -0.21002 -12.52350 0.25546 0.46673 -0.59379 -0.00000 -0.00000 0.00000 -29.79889 -55.42470 25.05997 30.35733 -41.19772 -11.64427 -0.00000 0.00000 -20.01230 -0.00000 -0.00000 0.00000 43.23694 46.89402 11.18177 -33.32149 43.57569 -13.64317 0.00000 -0.00000 -12.98010
0.00000 0.47417 0.00000 1.72459 0.19535 56.89530 0.00000 -0.00000 0.00000 7.30925 40.27647 -70.08371 25.68495 19.20682 106.83565 0.37078 -12.69667 -13.14883 0.80065 -5.71102 -15.94821 0.00000 -0.00000 0.00000 13.18415 0.44645 -27.42918 -17.31855 -19.82673 82.13818 -2.58613 -0.54218 -30.66256 -0.02543 1.02949 -2.82994 -12.58070 3.77230 34.30180 1.05762 0.46359 1.73627 7.66599 1.20518 -15.66940 -2.02791 -1.22932 -20.54700 0.05221 -0.25851 -12.90180 0.33223 0.43130 -0.79319 -0.00000 -0.00000 0.00000 -28.44969 -58.08118 19.97455 27.78108 -38.91392 -9.98587 -0.00000 0.00000 -17.29890 -0.00000 -0.00000 0.00000 44.23657 51.65810 6.55394 -30.24718 41.10433 -11.57179 0.00000 -0.00000 -10.73730
0.00000 0.48288 0.00000 2.63122 0.84923 56.16254 0.00000 -0.00000 0.00000 6.60986 40.12585 -72.43952 26.11106 19.08001 108.13497 0.24723 -14.86558 -13.01313 0.76109 -5.57141 -15.54580 0.00000 -0.00000 0.00000 12.07752 -0.67977 -30.17806 -18.61540 -19.95397 85.94872 -2.64104 0.95154 -30.52980 -0.03289 1.17068 -3.21857 -13.44430 3.64240 35.20990 1.11743 -0.10233 1.94485 8.37635 1.01402 -15.52890 -1.58386 -1.38894 -20.73760 0.86883 -0.44177 -13.96550 0.50686 0.37191 -1.11545 -0.00000 -0.00000 0.00000 -26.05046 -61.98160 13.88312 25.18731 -36.39483 -8.40079 -0.00000 0.00000 -13.99500 -0.00000 -0.00000 0.00000 45.43952 50.37516 9.28428 -33.98132 44.07088 -14.10007 0.00000 -0.00000 -15.31760
0.00000 0.49081 0.00000 4.10938 2.87327 56.43553 0.00000 -0.00000 0.00000 5.54719 38.49449 -76.26091 26.39811 18.98882 109.01512 0.06145 -17.12092 -12.62194 0.79612 -5.69523 -15.90265 0.00000 -0.00000 0.00000 11.88503 -3.06445 -33.88670 -19.79072 -19.99895 89.38810 -2.59650 1.40370 -30.14143 -0.10677 2.10700 -5.80144 -13.00010 2.52458 35.65810 1.26646 -1.32960 2.09911 8.84676 0.45675 -15.26160 -1.22416 -1.35985 -22.18370 0.71198 -0.43212 -13.41230 0.39987 0.37404 -0.72464 -0.00000 -0.00000 0.00000 -20.22151 -64.69866 6.80289 23.06648 -34.16143 -7.17559 -0.00000 0.00000 -12.76790 -0.00000 -0.00000 0.00000 50.52994 45.57080 17.95115 -41.40641 48.88142 -19.49223 0.00000 -0.00000 -14.99210
0.00000 0.49761 0.00000 4.73176 4.27810 57.46269 0.00000 -0.00000 0.00000 4.43637 38.20790 -80.89222 26.68077 18.89440 109.88588 -0.10180 -19.26868 -12.66255 0.92767 -6.13581 -17.17898 0.00000 -0.00000 0.00000 11.67716 -3.68211 -38.62151 -21.29907 -19.95949 93.80070 -2.43282 2.89762 -28.78723 -0.06486 1.64320 -4.52057 -13.04680 1.44100 34.57840 1.32532 -2.49341 2.50130 9.44414 -0.12970 -14.18500 -1.58611 -1.55389 -24.13740 1.25824 -0.56311 -12.09270 0.63754 0.32704 0.01772 -0.00000 -0.00000 0.00000 -12.31473 -66.11291 -2.52255 21.14589 -31.99825 -6.12706 -0.00000 0.00000 -11.18530 -0.00000 -0.00000 0.00000 58.00482 40.24003 28.52078 -50.29116 53.11225 -26.40685 0.00000 -0.00000 -16.97140
0.00000 0.50451 0.00000 5.55636 5.17352 58.36396 0.00000 -0.00000 0.00000 3.12745 37.44897 -85.19984 26.88191 18.82438 110.50813 -0.33833 -21.94297 -12.77213 1.27270 -7.15009 -20.16078 0.00000 -0.00000 0.00000 10.79305 -4.22867 -43.11013 -22.71231 -19.82270 97.95281 -2.37888 4.26068 -28.18816 -0.14512 2.45496 -6.76479 -13.21420 0.45124 33.70630 0.96733 -3.76676 2.27465 9.63532 -0.70811 -13.79400 -0.30154 -1.02597 -22.60410 0.09616 -0.27316 -12.58730 0.06104 0.37792 -0.39250 -0.00000 -0.00000 0.00000 -6.38164 -67.42012 -10.71274 18.96552 -29.37581 -5.01392 -0.00000 0.00000 -8.46921 -0.00000 -0.00000 0.00000 66.45935 33.31665 39.41362 -59.20756 56.09505 -33.68256 0.00000 -0.00000 -30.50090
0.00000 0.51083 0.00000 6.21362 5.62474 58.80978 0.00000 -0.00000 0.00000 2.39723 36.47910 -88.40143 26.96915 18.79327 110.77870 -1.00292 -25.11165 -10.23788 0.80465 -5.72493 -15.98836 0.00000 -0.00000 0.00000 9.74894 -4.74985 -47.28335 -24.11307 -19.58947 102.10536 -2.29397 4.79355 -27.57183 -0.30284 3.53824 -9.78106 -13.28280 -0.27637 33.23800 -0.14297 -4.85724 1.86953 8.85537 -1.17792 -13.88030 2.27248 -0.86313 -20.35270 -0.39183 -0.67019 -13.51330 -0.54189 0.03250 -1.04272 0.00000 0.00000 0.00000 4.39014 -68.45116 -20.01711 16.33467 -25.97232 -3.79134 -0.00000 0.00000 -7.88064 0.00000 0.00000 0.00000 74.75924 27.66918 48.91871 -61.34818 56.65861 -35.46514 0.00000 -0.00000 -40.82700
0.00000 0.51716 0.00000 6.75377 5.85322 57.93315 0.00000 -0.00000 0.00000 2.56572 35.34170 -89.78221 27.03193 18.77060 110.97370 -1.02336 -26.66684 -11.79545 1.57416 -7.91623 -22.45993 0.00000 -0.00000 0.00000 8.69865 -5.76482 -50.53725 -25.59093 -19.23344 106.55004 -2.73888 4.95096 -30.22959 -1.65332 8.10321 -23.02801 -13.95760 -1.20844 33.78560 -0.56106 -6.36125 2.04083 9.30153 -1.82103 -13.52410 2.44091 -0.46343 -20.36720 0.03525 -0.16588 -13.30190 -0.40845 0.27464 -0.96494 0.00000 0.00000 0.00000 16.51081 -68.65143 -37.30262 11.97968 -19.77416 -2.09541 -0.00000 0.00000 -2.27106 0.00000 0.00000 0.00000 80.52477 29.27440 60.26920 -53.61824 54.35449 -29.08981 0.00000 -0.00000 -44.17670
0.00000 0.52060 0.00000 6.07641 5.79120 57.98156 0.00000 -0.00000 0.00000 2.57503 35.67246 -93.15106 27.34447 18.65423 111.94788 -0.99021 -27.97174 -13.41352 2.39541 -9.64521 -27.83529 0.00000 -0.00000 0.00000 9.08208 -5.60372 -55.65211 -27.22746 -18.69849 111.58246 -2.57036 4.47641 -29.31577 -0.36599 3.88609 -10.75642 -14.95080 -1.86340 32.05910 -0.26219 -7.18395 2.41257 10.29990 -2.31241 -12.00610 2.23539 -0.16368 -22.06640 -0.10104 0.22883 -12.48310 -0.39583 0.48966 -0.43848 0.00000 0.00000 0.00000 28.26274 -67.79266 -62.55667 7.79158 -13.21446 -0.90389 -0.00000 -0.00000 10.90700 0.00000 0.00000 0.00000 87.43970 35.96142 69.73476 -41.30744 48.82571 -19.41770 0.00000 -0.00000 -48.18810
0.00000 0.52179 0.00000 6.00245 6.32178 56.87453 0.00000 -0.00000 0.00000 2.42277 35.44228 -95.93311 27.73333 18.50111 113.16839 -0.87113 -27.91414 -14.19588 2.24501 -9.35879 -26.92424 0.00000 -0.00000 0.00000 9.82329 -7.44144 -59.12493 -28.62528 -18.11363 116.00741 -2.35335 3.56935 -28.15625 -0.00074 -0.17520 0.48138 -14.98980 -2.75386 32.37700 0.03273 -8.29357 2.62284 11.00890 -2.85610 -11.57330 2.53900 0.48930 -22.24500 -0.44729 1.06414 -13.29210 -0.51128 0.91660 -0.67241 -0.00000 0.00000 0.00000 33.14298 -65.19602 -81.02577 6.29464 -10.75268 -0.59299 -0.00000 -0.00000 23.20640 -0.00000 0.00000 0.00000 96.93186 42.11519 77.43807 -30.99433 41.73058 -12.06607 0.00000 -0.00000 -45.27520
0.00000 0.52188 0.00000 6.16817 6.40330 55.87049 0.00000 -0.00000 0.00000 1.45401 35.20158 -98.34066 28.05228 18.36846 114.17700 -0.41538 -27.17617 -16.60384 2.66443 -10.13092 -29.40174 0.00000 -0.00000 0.00000 9.34556 -9.07939 -62.45467 -29.93608 -17.44564 120.29823 -2.78031 4.76324 -30.49857 -0.07649 1.78412 -4.90942 -14.82030 -3.08469 32.65750 -0.01948 -8.71020 2.57125 11.02660 -3.03487 -11.67700 2.93373 0.42850 -20.84840 -0.67831 0.91127 -14.20040 -0.66898 0.80767 -1.17768 -0.00000 0.00000 0.00000 35.00555 -63.13350 -86.39859 6.30521 -10.77024 -0.59496 -0.00000 -0.00000 25.22710 -0.00000 0.00000 0.00000 101.82776 45.10609 83.01454 -24.36495 35.54781 -7.91774 0.00000 -0.00000 -37.50810
0.00000 0.52221 0.00000 7.03480 7.37454 53.54002 0.00000 -0.00000 0.00000 1.76888 34.32832 -98.84651 28.44498 18.19615 115.42877 0.08734 -26.53784 -19.28928 3.41422 -11.33717 -33.42562 0.00000 -0.00000 0.00000 8.69627 -13.17718 -63.48121 -30.84085 -16.90905 123.36110 -2.60798 5.14133 -29.43442 -0.00971 0.63621 -1.74831 -14.05920 -3.44050 34.10310 0.08674 -8.95226 3.12300 10.88960 -3.16944 -11.68260 2.81600 0.23056 -21.72940 -0.44870 0.57219 -12.51490 -0.58483 0.60974 -0.49162 -0.00000 0.00000 0.00000 37.20162 -61.67784 -90.12395 6.35688 -10.85606 -0.60465 -0.00000 -0.00000 29.88550 -0.00000 0.00000 0.00000 103.23374 47.61782 83.50342 -22.77845 33.84565 -7.01451 0.00000 -0.00000 -37.17880
0.00000 0.52278 0.00000 8.36600 8.35387 51.42119 0.00000 -0.00000 0.00000 2.52566 32.81445 -99.03451 28.76760 18.04695 116.46599 -0.67326 -28.87166 -16.40165 2.75510 -10.28764 -29.91331 0.00000 -0.00000 0.00000 6.98657 -17.84829 -64.16270 -31.54246 -16.44568 125.80554 -2.43150 6.29529 -28.22890 -0.00716 0.54654 -1.50183 -12.76290 -4.08871 34.51950 0.19061 -9.27470 3.39612 10.46790 -3.37351 -11.65720 2.03142 -0.05207 -20.62080 -0.45788 0.31148 -12.10280 -0.46978 0.47289 -0.52145 0.00000 -0.00000 0.00000 33.75530 -61.86262 -74.49208 6.83332 -11.64460 -0.69761 -0.00000 -0.00000 16.09490 0.00000 -0.00000 0.00000 105.08115 49.71203 83.33752 -20.58887 31.34529 -5.83459 0.00000 -0.00000 -36.02630
0.00000 0.52476 0.00000 9.69346 9.75911 48.54764 0.00000 -0.00000 0.00000 3.69975 30.92493 -97.75261 28.90352 17.98197 116.90551 -1.19677 -30.60056 -14.70756 2.53341 -9.89840 -28.64834 0.00000 -0.00000 0.00000 5.33393 -23.10099 -63.07055 -31.95274 -16.15390 127.26727 -2.10800 7.63230 -26.10415 -0.18525 -2.77214 7.64500 -11.38510 -4.18595 35.60220 0.45285 -8.83000 4.00519 9.92398 -3.22045 -11.66560 2.65802 -0.08801 -20.88070 -1.45588 0.07070 -11.46580 -0.90955 0.30134 -0.26732 0.00000 -0.00000 0.00000 30.34124 -64.75210 -66.21892 7.56828 -12.85065 -0.85353 -0.00000 -0.00000 9.95598 0.00000 -0.00000 0.00000 105.26305 51.36498 79.53631 -18.56844 28.87890 -4.82064 0.00000 -0.00000 -33.57100
0.00000 0.52770 0.00000 11.40257 11.92901 45.53118 0.00000 -0.00000 0.00000 4.70943 27.68764 -96.10411 28.99414 17.93795 117.19939 -1.46653 -31.44246 -13.85751 2.37684 -9.61045 -27.72422 0.00000 -0.00000 0.00000 3.39827 -29.30206 -61.30608 -32.21895 -15.95583 128.22985 -2.23457 8.84772 -26.86372 -0.00029 0.11057 -0.30379 -9.07802 -4.82195 37.28940 0.75175 -8.73659 4.32805 9.08929 -3.19593 -12.15810 2.41550 -0.38914 -20.69310 -1.74500 -0.27643 -11.51880 -0.98090 0.13366 -0.31902 -0.00000 0.00000 0.00000 25.18823 -67.40137 -55.70731 8.73011 -14.72927 -1.13052 -0.00000 -0.00000 4.54601 -0.00000 0.00000 0.00000 103.82796 52.71209 75.39116 -16.77107 26.55499 -3.98445 0.00000 -0.00000 -31.19500
0.00000 0.53119 0.00000 12.72738 13.51191 42.60878 0.00000 -0.00000 0.00000 5.05707 25.11324 -94.46454 28.95415 17.95745 117.06960 -1.79194 -32.18451 -12.57183 2.05487 -8.97945 -25.73107 0.00000 -0.00000 0.00000 1.02335 -35.02369 -59.42571 -32.44253 -15.78391 129.04744 -2.11868 9.77276 -26.14402 -0.01896 -0.88899 2.44343 -7.93992 -4.76827 39.07320 1.05833 -8.15451 4.70912 8.70287 -2.90436 -12.59050 2.44916 -0.64314 -20.65750 -2.20002 -0.63301 -11.28120 -1.15528 -0.05642 -0.25132 0.00000 0.00000 0.00000 19.99790 -68.40164 -38.85198 10.09107 -16.88190 -1.50129 -0.00000 0.00000 -2.42815 0.00000 0.00000 0.00000 101.87461 54.71706 70.73638 -15.08909 24.27007 -3.26247 0.00000 -0.00000 -29.27750
0.00000 0.53361 0.00000 13.54558 15.38889 40.43116 0.00000 -0.00000 0.00000 5.51523 22.67326 -94.12759 28.94742 17.96072 117.04780 -1.36856 -31.93069 -15.00484 3.37578 -11.27985 -33.22958 0.00000 -0.00000 0.00000 -0.77451 -40.54090 -58.28309 -32.65462 -15.61596 129.83122 -2.10050 10.76425 -26.06743 -0.02002 -0.91357 2.51103 -6.30573 -5.05080 40.37290 1.35808 -7.77779 4.75904 8.12281 -2.72368 -13.22690 2.55871 -1.09287 -19.95660 -2.21277 -1.25329 -11.47560 -1.20684 -0.37613 -0.43783 -0.00000 0.00000 0.00000 15.16775 -67.61508 -23.00016 12.64340 -20.76249 -2.32535 -0.00000 0.00000 -8.06265 -0.00000 0.00000 0.00000 99.72550 56.11276 65.72716 -14.04445 22.79822 -2.84531 0.00000 -0.00000 -27.21050
0.00000 0.53642 0.00000 14.33587 17.37751 38.18333 0.00000 -0.00000 0.00000 5.95493 19.66523 -93.55182 28.83772 18.01359 116.69255 -1.76748 -32.44312 -13.04077 2.66300 -10.12842 -29.39359 0.00000 -0.00000 0.00000 -3.94101 -45.96096 -55.87210 -32.85147 -15.45570 130.56616 -1.87316 12.77036 -24.82768 -0.08549 -1.88595 5.19059 -4.39820 -5.49990 42.11760 1.48859 -7.41286 4.96808 7.21453 -2.55324 -13.83270 2.75154 -1.45932 -20.33550 -2.65902 -1.80919 -10.73730 -1.42537 -0.68335 -0.15096 0.00000 -0.00000 0.00000 12.79553 -67.01276 -15.71941 15.47354 -24.80163 -3.42212 -0.00000 0.00000 -11.58740 0.00000 -0.00000 0.00000 97.78524 57.97985 59.64354 -12.85377 21.07258 -2.40045 0.00000 -0.00000 -23.84690
0.00000 0.54109 0.00000 14.64099 18.29252 36.39569 0.00000 -0.00000 0.00000 5.89744 17.43535 -93.23667 28.66600 18.09469 116.13847 -2.00468 -33.38391 -12.63871 2.44203 -9.73172 -28.11227 0.00000 -0.00000 0.00000 -7.13954 -49.23504 -54.97407 -33.13660 -15.21577 131.64423 -1.65476 14.71221 -23.77580 -0.05275 -1.48209 4.07636 -3.53076 -5.34290 43.76360 1.68720 -6.73107 5.01998 6.76388 -2.21760 -14.44980 2.34704 -1.74338 -20.06660 -2.70176 -2.09971 -10.67510 -1.38207 -0.81511 -0.17683 -0.00000 -0.00000 0.00000 11.60352 -65.79577 -11.22887 18.28542 -28.52108 -4.68473 -0.00000 0.00000 -16.90240 -0.00000 -0.00000 0.00000 94.86783 60.06525 54.29977 -12.04816 19.87682 -2.11864 0.00000 -0.00000 -22.01430
0.00000 0.54625 0.00000 14.59882 19.11913 34.87632 0.00000 -0.00000 0.00000 5.78603 15.01766 -93.71930 28.53849 18.15362 115.72857 -2.10222 -33.75351 -12.47076 2.46129 -9.76718 -28.22604 0.00000 -0.00000 0.00000 -10.39236 -52.79300 -54.01182 -33.37214 -15.01034 132.54760 -1.75689 18.28166 -25.29880 -0.23723 3.13458 -8.65366 -2.35297 -5.23482 45.12720 1.86408 -5.94127 5.07214 6.04505 -1.87214 -14.98090 1.75788 -2.25022 -19.99540 -2.66587 -2.65897 -10.31430 -1.30139 -1.08335 -0.07636 -0.00000 0.00000 0.00000 10.05558 -65.11100 -8.77589 20.49384 -31.23272 -5.78523 -0.00000 0.00000 -20.43060 -0.00000 0.00000 0.00000 91.66111 62.41388 47.30135 -11.18025 18.56401 -1.83289 0.00000 -0.00000 -18.76620
0.00000 0.55338 0.00000 13.79056 19.82285 33.05582 0.00000 -0.00000 0.00000 6.06243 12.97458 -94.19895 28.38445 18.22336 115.23507 -2.52850 -34.15762 -10.18621 1.47352 -7.67052 -21.71773 0.00000 -0.00000 0.00000 -11.10204 -55.55430 -54.40127 -33.45435 -14.93704 132.86579 -1.61691 19.30282 -24.79597 -0.10768 2.11589 -5.82604 -0.56092 -5.13999 47.11140 2.04668 -4.82459 4.91279 4.87635 -1.41408 -15.96370 1.56476 -2.49167 -19.32090 -3.03152 -2.95536 -10.41980 -1.39117 -1.22799 -0.22425 -0.00000 0.00000 0.00000 9.06949 -64.52957 -6.19925 22.39531 -33.42090 -6.80229 -0.00000 0.00000 -23.04830 -0.00000 0.00000 0.00000 87.16603 64.51030 38.97775 -10.44206 17.42805 -1.60481 0.00000 -0.00000 -15.83700
0.00000 0.56078 0.00000 13.40360 19.88767 32.06124 0.00000 -0.00000 0.00000 5.40031 10.44521 -95.18447 28.17733 18.31468 114.57437 -2.90623 -34.16723 -7.48639 0.42085 -4.16380 -11.53796 0.00000 -0.00000 0.00000 -10.46672 -58.35238 -57.01672 -33.49037 -14.90465 133.00568 -1.67298 20.83176 -25.63699 -0.05008 1.44414 -3.97177 0.81260 -4.95554 49.02870 2.15689 -3.78000 3.95738 3.72989 -1.04039 -16.09890 1.53314 -2.85638 -19.49640 -3.71204 -3.42743 -10.54300 -1.63627 -1.45879 -0.25946 0.00000 0.00000 0.00000 8.62649 -63.80843 -5.15591 24.06964 -35.23781 -7.74670 -0.00000 0.00000 -24.17270 0.00000 0.00000 0.00000 81.26048 67.37189 28.21636 -9.78344 16.40011 -1.41319 0.00000 -0.00000 -11.63880
0.00000 0.56852 0.00000 12.66816 19.75718 30.59711 0.00000 -0.00000 0.00000 4.99803 7.47495 -95.81789 27.98351 18.39761 113.95892 -1.63772 -31.22763 -12.47214 1.21505 -6.99227 -19.69248 0.00000 -0.00000 0.00000 -10.04685 -60.39919 -59.05310 -33.37397 -15.00872 132.55465 -1.73105 22.58188 -26.59399 -0.03649 1.23298 -3.39009 2.70211 -4.98481 50.48630 2.06903 -2.65867 4.02702 2.21974 -0.63952 -16.34600 1.20028 -3.03357 -19.70370 -4.28189 -3.59177 -10.14980 -1.78380 -1.54109 -0.10421 0.00000 0.00000 0.00000 7.54111 -63.22392 -3.82118 25.89842 -37.10823 -8.82630 -0.00000 0.00000 -25.38230 0.00000 0.00000 0.00000 71.48800 70.42610 14.67712 -8.90406 15.00740 -1.17515 0.00000 -0.00000 -8.03389
0.00000 0.57704 0.00000 11.51446 18.97441 29.28230 0.00000 -0.00000 0.00000 4.34130 5.03007 -96.68692 27.70713 18.51173 113.08584 -1.07439 -28.92737 -13.80226 0.88622 -6.00085 -16.78688 0.00000 -0.00000 0.00000 -7.70314 -60.58205 -63.16359 -33.22351 -15.14076 131.97614 -2.17157 23.00214 -29.03130 -0.28067 3.40736 -9.41502 4.60601 -4.47767 51.38580 1.95075 -0.92094 4.14178 0.35656 -0.01382 -16.35430 1.33760 -3.34221 -19.33760 -4.72373 -4.04979 -9.99508 -1.97343 -1.78590 -0.13391 0.00000 -0.00000 0.00000 5.36910 -63.76424 -1.48915 27.23033 -38.39796 -9.64184 -0.00000 0.00000 -25.71240 0.00000 -0.00000 0.00000 57.22996 72.49495 -7.20461 -7.94590 13.46513 -0.93949 0.00000 -0.00000 -1.16766
0.00000 0.58265 0.00000 10.15817 17.26067 28.79856 0.00000 -0.00000 0.00000 3.41676 3.77491 -98.29803 27.46483 18.60783 112.32462 -0.13268 -25.61196 -17.22211 0.96701 -6.26090 -17.54332 0.00000 -0.00000 0.00000 -4.55792 -59.64101 -68.91091 -33.15646 -15.19872 131.71991 -2.18854 25.06027 -29.84714 -0.62389 5.05453 -14.06415 5.28920 -2.78712 50.31880 2.37079 1.43599 4.68188 -0.66402 0.92259 -15.50150 0.74902 -3.66447 -19.79780 -5.10498 -4.35140 -8.46007 -2.04837 -1.98198 0.44681 0.00000 -0.00000 0.00000 2.92927 -64.73433 1.01051 28.10770 -39.21519 -10.19170 -0.00000 0.00000 -25.53680 0.00000 -0.00000 0.00000 37.59745 73.79174 -44.39613 -5.90384 10.10167 -0.52226 0.00000 0.00000 17.36210
0.00000 0.59035 0.00000 10.06475 15.26774 29.15413 0.00000 -0.00000 0.00000 2.00010 2.04547 -99.32726 26.83078 18.84241 110.34973 0.32881 -24.03122 -19.13246 1.21901 -7.00325 -19.72501 0.00000 -0.00000 0.00000 -1.48357 -57.52621 -75.62815 -32.99213 -15.33852 131.09590 -2.19152 26.03338 -30.23080 -0.92153 6.11604 -17.12147 4.56323 -0.86380 48.77560 2.50863 3.17868 5.12961 -1.01451 1.67671 -14.73140 0.02626 -4.03215 -20.30530 -5.27364 -4.66561 -6.26295 -2.05601 -2.21526 1.27626 0.00000 0.00000 0.00000 -0.60462 -64.99480 5.22257 29.02585 -40.04364 -10.77735 -0.00000 0.00000 -24.19280 0.00000 0.00000 0.00000 17.52605 72.85415 -78.83583 -3.98846 6.86953 -0.23948 0.00000 0.00000 31.08980
0.00000 0.60275 0.00000 9.21687 13.97700 29.22709 0.00000 -0.00000 0.00000 2.05800 0.54643 -99.19783 25.89567 19.14538 107.47714 0.41772 -23.94352 -19.64373 1.22783 -7.02762 -19.79722 0.00000 -0.00000 0.00000 2.47930 -51.11064 -79.73485 -32.38807 -15.82627 128.84749 -3.00295 23.13481 -33.08552 -1.34470 7.34166 -20.73161 4.25968 0.54366 47.19730 3.03544 4.62108 6.24077 -1.21989 2.28534 -14.59550 -0.50902 -4.20450 -22.21470 -6.26231 -4.59811 -1.81786 -2.24729 -2.39635 2.74584 0.00000 0.00000 0.00000 -6.23205 -63.77325 11.79668 30.61616 -41.41571 -11.81512 -0.00000 0.00000 -24.32900 0.00000 0.00000 0.00000 12.67841 69.77414 -86.29966 -4.14413 7.13448 -0.25846 0.00000 0.00000 31.53760
0.00000 0.62038 0.00000 8.21465 13.97125 28.96084 0.00000 -0.00000 0.00000 1.55802 -1.60355 -98.31657 24.67011 19.46886 103.77160 0.68441 -21.52601 -19.98538 0.72622 -5.44510 -15.18255 0.00000 -0.00000 0.00000 4.61285 -44.04642 -79.54497 -31.31917 -16.59789 125.02035 -3.74021 19.92320 -35.76215 -1.62680 8.04116 -22.83916 5.10251 0.73619 47.22850 3.31760 5.32640 6.37787 -1.67101 2.56105 -14.37870 -1.01608 -4.61563 -22.81180 -6.31889 -4.94070 0.01906 -2.26252 -2.64560 3.39897 0.00000 -0.00000 0.00000 -13.50403 -61.52392 17.98264 32.12979 -42.65040 -12.82867 -0.00000 0.00000 -22.39270 0.00000 -0.00000 0.00000 18.18747 66.95911 -75.95819 -6.11739 10.45780 -0.56037 0.00000 0.00000 23.14650
0.00000 0.63859 0.00000 7.40024 13.93058 28.84408 0.00000 -0.00000 0.00000 1.33581 -3.66587 -97.45806 23.47760 19.70754 100.21563 0.91135 -17.88503 -19.80496 0.72797 -5.45150 -15.20094 0.00000 -0.00000 0.00000 5.69485 -37.37257 -78.73241 -30.22118 -17.28358 121.25347 -4.12789 17.63258 -37.19704 -1.73141 8.28267 -23.57598 6.10150 1.46858 46.70830 2.78822 6.49535 6.18146 -3.30324 2.98864 -14.25340 1.60777 -5.05463 -22.54270 -6.99990 -6.21806 1.76837 -3.02435 -3.38385 3.76963 0.00000 -0.00000 0.00000 -19.84048 -60.54180 26.54805 32.28463 -42.77292 -12.93371 -0.00000 0.00000 -21.50360 0.00000 -0.00000 0.00000 24.11164 62.98379 -65.74331 -7.00571 11.92865 -0.73282 0.00000 0.00000 18.01580
0.00000 0.65868 0.00000 6.64904 13.13090 28.36018 0.00000 -0.00000 0.00000 1.32561 -5.03638 -95.33539 22.22526 19.88086 96.51864 0.90243 -15.51799 -18.82868 0.65739 -5.18590 -14.43954 0.00000 -0.00000 0.00000 6.98356 -30.69965 -78.00458 -29.04334 -17.91381 117.35925 -4.64962 12.80936 -39.28651 -1.57345 7.91452 -22.45475 5.35437 1.62529 46.61790 2.86884 6.32866 6.43125 -2.74791 2.97125 -14.02830 1.70414 -4.44854 -23.14120 -6.99808 -5.39203 4.12482 -3.04098 -3.04466 4.63638 0.00000 0.00000 0.00000 -25.90758 -56.67367 31.58682 30.49233 -41.31167 -11.73329 -0.00000 0.00000 -20.60490 0.00000 0.00000 0.00000 31.13310 62.48684 -53.30553 -7.39121 12.56128 -0.81459 0.00000 0.00000 14.91960
0.00000 0.68118 0.00000 5.93767 12.43563 27.47095 0.00000 -0.00000 0.00000 1.08053 -6.24845 -92.11414 20.79798 19.98473 92.33370 0.87539 -13.07270 -17.81847 0.51829 -4.61413 -12.81119 0.00000 -0.00000 0.00000 7.54296 -25.22416 -75.46133 -27.47184 -18.60510 112.34659 -4.93087 9.02755 -40.70086 -1.52760 7.80369 -22.11940 4.92471 1.54633 47.12480 2.82954 6.06485 6.48923 -2.46344 2.87523 -14.14750 1.03965 -4.21667 -22.06880 -6.37531 -4.99869 4.10997 -2.67100 -2.81301 4.52285 -0.00000 -0.00000 0.00000 -31.07903 -53.03086 36.01171 27.73164 -38.86801 -9.95483 -0.00000 0.00000 -20.49080 -0.00000 -0.00000 0.00000 39.17993 60.70458 -38.57218 -8.12443 13.75437 -0.98150 0.00000 0.00000 10.97620
0.00000 0.70529 0.00000 4.68862 11.34081 26.81846 0.00000 -0.00000 0.00000 0.90350 -5.73521 -88.74911 19.15057 19.98269 87.51575 0.78768 -11.59603 -16.66769 0.56926 -4.83207 -13.43023 0.00000 -0.00000 0.00000 8.01268 -19.17852 -71.58315 -25.62321 -19.22435 106.64807 -5.06106 8.12720 -41.35698 -1.22191 7.01127 -19.74876 3.78649 2.18249 47.01330 3.14297 6.30505 6.58197 -1.65916 3.01721 -14.14910 1.02477 -3.68283 -23.21070 -6.65581 -4.15565 6.91952 -2.76955 -2.49426 5.62108 -0.00000 -0.00000 0.00000 -36.93659 -49.22127 39.19515 25.27245 -36.48116 -8.45136 -0.00000 0.00000 -19.75670 -0.00000 -0.00000 0.00000 46.41685 58.04742 -27.85241 -8.56833 14.46984 -1.08974 0.00000 0.00000 9.69266
0.00000 0.73170 0.00000 3.78131 9.40582 25.38381 0.00000 -0.00000 0.00000 -0.50584 -3.47004 -83.84819 17.24769 19.81740 81.92923 0.62372 -10.73161 -14.93139 0.55865 -4.78755 -13.30361 0.00000 -0.00000 0.00000 8.43483 -13.33628 -66.99296 -23.59787 -19.68677 100.57247 -5.07247 5.66582 -41.72065 -0.92295 6.12061 -17.13478 0.95552 3.79754 48.84530 3.54890 6.98900 5.62643 0.03233 3.38496 -14.53860 1.15220 -2.97467 -22.99620 -7.03043 -3.16495 8.14775 -2.82667 -2.06337 6.02334 -0.00000 -0.00000 0.00000 -42.55050 -44.91027 41.43465 23.67392 -34.81753 -7.51956 -0.00000 0.00000 -20.06080 -0.00000 -0.00000 0.00000 51.84168 54.63048 -17.24210 -8.98176 15.13136 -1.19535 0.00000 0.00000 6.36012
0.00000 0.75703 0.00000 3.31898 8.73580 23.53916 0.00000 -0.00000 0.00000 -1.98494 -2.71690 -78.61277 15.22793 19.44502 75.92231 0.44530 -9.86640 -12.84334 0.41934 -4.15640 -11.51708 0.00000 -0.00000 0.00000 9.28888 -10.86440 -62.80270 -21.58135 -19.93994 94.62800 -4.85604 3.10923 -41.22154 -0.67326 5.24689 -14.61408 0.01308 3.84270 50.36150 3.88433 6.68903 5.54768 0.94945 3.29177 -14.99580 1.26095 -2.28606 -23.22430 -7.09950 -2.22132 9.45207 -2.79337 -1.64057 6.52549 -0.00000 -0.00000 0.00000 -46.99468 -40.08008 43.48017 22.54856 -33.59144 -6.88689 -0.00000 0.00000 -22.56900 -0.00000 -0.00000 0.00000 56.54759 50.77029 -8.92926 -9.48360 15.92778 -1.32972 0.00000 0.00000 5.46602
0.00000 0.78901 0.00000 2.55263 7.80888 21.93308 0.00000 -0.00000 0.00000 -3.44946 -1.14797 -72.71866 12.72087 18.67905 68.25627 0.25466 -8.83179 -10.18422 0.13749 -2.38982 -6.58426 0.00000 -0.00000 0.00000 11.25765 -10.68276 -58.78815 -19.04442 -19.97809 87.20509 -4.40225 1.95384 -39.41293 -0.66212 5.20415 -14.49175 -0.91538 4.02916 51.09730 4.31328 6.52825 5.57411 1.92110 3.26243 -15.19940 0.98377 -1.61076 -22.63890 -7.20500 -1.21716 9.65168 -2.65956 -1.17191 6.54979 -0.00000 -0.00000 0.00000 -50.73769 -35.01101 45.59818 22.15111 -33.14738 -6.66828 -0.00000 0.00000 -26.47270 -0.00000 -0.00000 0.00000 59.49776 47.29621 -1.68335 -9.58728 16.09142 -1.35831 0.00000 0.00000 2.95622
0.00000 0.80529 0.00000 2.21990 7.27572 19.79923 0.00000 -0.00000 0.00000 -4.11103 -0.16112 -67.70748 11.11421 17.99052 63.15193 0.18379 -8.03186 -8.85827 0.18657 -2.78187 -7.67205 0.00000 -0.00000 0.00000 11.47180 -7.05367 -52.76595 -17.23942 -19.81629 81.90481 -4.63369 1.68335 -40.53889 -0.39590 4.03997 -11.18915 -1.68092 3.94681 52.32200 4.62631 6.12621 5.57890 2.80458 3.13544 -15.43250 0.55289 -1.18762 -22.16830 -6.73181 -0.60613 9.82735 -2.35930 -0.85193 6.56207 -0.00000 -0.00000 0.00000 -54.02206 -29.86011 48.15747 22.11960 -33.11192 -6.65106 -0.00000 0.00000 -29.93420 -0.00000 -0.00000 0.00000 61.93368 43.87339 4.63525 -9.88953 16.56659 -1.44329 0.00000 0.00000 1.83572
0.00000 0.80410 0.00000 1.59246 4.96463 27.46869 0.00000 -0.00000 0.00000 -2.65241 -3.27589 -77.13893 11.07968 17.97386 63.04006 0.24201 -2.67223 -8.75322 0.20381 -2.90687 -8.01958 0.00000 -0.00000 0.00000 10.41327 -3.75724 -64.33887 -17.31448 -19.82620 82.12619 -4.08663 1.34386 -38.07164 -0.74067 5.49783 -15.33409 2.26158 1.86070 39.33840 2.61596 4.50075 6.61277 -0.36372 2.29171 -11.85990 1.12639 -0.71564 -22.49510 -7.47954 0.02171 10.56640 -2.64019 -0.61522 6.88557 0.00000 -0.00000 0.00000 -57.03805 -24.77535 50.17145 22.28729 -33.30019 -6.74290 -0.00000 0.00000 -32.24590 0.00000 -0.00000 0.00000 64.08491 40.64901 9.10634 -9.99569 16.73284 -1.47371 0.00000 0.00000 1.12531
0.00000 0.81851 0.00000 1.25611 4.81283 29.04767 0.00000 -0.00000 0.00000 -1.51207 -4.87979 -76.06401 9.57162 17.16181 58.04675 0.16506 0.59479 -7.91365 0.23469 -3.11791 -8.60720 0.00000 -0.00000 0.00000 11.96546 -3.12329 -64.38871 -15.67548 -19.54559 77.26330 -4.24656 2.49619 -38.55872 -0.33343 3.71099 -10.26496 3.78345 1.14166 35.69670 2.08962 3.84621 6.12489 -1.34703 1.93492 -10.97600 1.59869 -0.70665 -21.62290 -7.77025 -0.07474 10.55100 -2.81201 -0.65449 6.73554 0.00000 0.00000 0.00000 -59.61420 -19.35708 52.77217 22.71204 -33.77241 -6.97756 -0.00000 0.00000 -32.46190 0.00000 0.00000 0.00000 65.88624 37.02639 14.25231 -10.24191 17.11709 -1.54539 0.00000 -0.00000 -0.88519
0.00000 0.83720 0.00000 1.07703 4.42005 28.05303 0.00000 -0.00000 0.00000 -1.38141 -4.98567 -70.85793 7.70773 15.90002 51.50298 0.06222 2.84288 -6.62615 0.24255 -3.16933 -8.75053 0.00000 -0.00000 0.00000 13.94334 -2.80547 -60.63359 -13.62060 -18.99491 71.04237 -4.19674 0.65243 -38.77652 -0.37193 3.91713 -10.84365 3.47411 1.02482 34.58280 2.05587 3.50712 6.24653 -1.08008 1.79910 -10.56320 1.49734 -0.46217 -22.01260 -8.22354 0.44252 11.73030 -2.90937 -0.48336 7.21739 -0.00000 -0.00000 0.00000 -62.69932 -14.39419 53.18645 22.71826 -33.77928 -6.98102 -0.00000 0.00000 -31.17700 -0.00000 -0.00000 0.00000 67.66353 33.86998 19.07561 -10.59192 17.66008 -1.64999 0.00000 -0.00000 -2.85685
0.00000 0.85237 0.00000 1.10559 4.25432 26.77560 0.00000 -0.00000 0.00000 -1.60849 -4.52439 -66.33808 6.27195 14.68681 46.06366 -0.03669 4.47209 -4.72673 0.24744 -3.20088 -8.83852 0.00000 -0.00000 0.00000 15.53141 -2.79176 -57.34858 -12.07500 -18.42217 66.22636 -4.04740 -1.00407 -38.54439 -0.35619 3.83426 -10.61086 3.53553 0.93648 33.56080 1.66029 3.28873 6.10543 -1.42437 1.69293 -10.30430 1.52929 -0.31739 -21.18540 -7.95969 0.57950 11.94420 -2.80317 -0.38314 7.15641 0.00000 -0.00000 0.00000 -64.57827 -9.57659 53.40830 23.20167 -34.30861 -7.25165 -0.00000 0.00000 -30.49080 0.00000 -0.00000 0.00000 69.28306 30.31198 23.76746 -11.11719 18.46765 -1.81287 0.00000 -0.00000 -5.40407
0.00000 0.86216 0.00000 1.36973 4.09128 24.89807 0.00000 -0.00000 0.00000 -2.36043 -3.26954 -63.17776 5.61331 14.04285 43.40935 -0.11511 6.01742 -2.60807 0.40052 -4.06322 -11.25459 0.00000 -0.00000 0.00000 15.96712 -1.92041 -52.72600 -10.78697 -17.82925 62.08782 -4.30603 -0.63375 -39.65162 -0.08361 1.86516 -5.13317 3.05870 0.81363 32.53450 1.42826 2.88709 6.20457 -1.23837 1.53337 -9.81506 1.57878 -0.34539 -20.76470 -7.82191 0.50721 12.13400 -2.77216 -0.40019 7.14386 -0.00000 0.00000 0.00000 -66.96249 -4.98091 52.72881 23.30727 -34.42310 -7.31125 -0.00000 0.00000 -30.03770 -0.00000 0.00000 0.00000 70.14022 27.27493 29.31211 -11.94739 19.72570 -2.08450 0.00000 -0.00000 -8.16995
0.00000 0.86823 0.00000 1.54921 4.67833 22.79684 0.00000 -0.00000 0.00000 -1.85386 -3.48114 -60.39982 5.38700 13.80679 42.46894 -0.09523 5.54049 -1.04709 0.37197 -3.91733 -10.84422 0.00000 -0.00000 0.00000 16.35616 -0.35066 -48.09071 -9.78926 -17.28963 58.78167 -4.39739 -4.20266 -41.26350 -0.15319 2.52203 -6.95073 2.81883 0.51207 31.41900 1.61140 2.39023 6.54222 -0.76402 1.31544 -9.77484 0.95868 0.04883 -19.88050 -7.77834 1.23069 12.53950 -2.56717 -0.06938 7.16629 -0.00000 0.00000 0.00000 -70.13574 -0.47852 50.73387 23.24332 -34.35381 -7.27514 -0.00000 0.00000 -29.67100 -0.00000 0.00000 0.00000 69.98527 24.28129 34.46800 -12.90795 21.15219 -2.41997 0.00000 -0.00000 -11.15260
0.00000 0.87097 0.00000 1.73990 6.10627 20.63979 0.00000 -0.00000 0.00000 -1.00447 -4.89516 -58.04209 5.30957 13.72415 42.14352 -0.01059 1.87947 -0.20946 0.21984 -3.01830 -8.32970 0.00000 -0.00000 0.00000 16.78786 0.37660 -44.16495 -9.30185 -16.99809 57.12828 -4.70271 -5.82744 -43.23256 -0.11505 2.18686 -6.02236 3.55245 0.03476 30.72730 1.50201 1.97159 6.38171 -1.14017 1.10480 -9.60742 0.88463 0.06600 -19.29890 -7.41508 1.20785 12.69740 -2.43482 -0.04454 7.11443 0.00000 -0.00000 0.00000 -72.83368 3.18123 48.08734 23.40093 -34.52432 -7.36427 -0.00000 0.00000 -29.31180 0.00000 -0.00000 0.00000 69.79266 21.21769 37.70054 -14.02586 22.77167 -2.83811 0.00000 -0.00000 -13.08160
0.00000 0.87313 0.00000 2.21344 6.86922 19.14292 0.00000 -0.00000 0.00000 -0.94469 -6.55071 -55.52768 4.81110 13.16785 40.00010 0.00911 -0.80644 -1.70289 0.10779 -2.11701 -5.82914 0.00000 -0.00000 0.00000 16.71421 0.42666 -41.28688 -8.89430 -16.73921 55.72385 -4.84462 -6.89198 -44.26554 -0.11926 2.22641 -6.13179 3.62007 -0.18416 29.51000 1.33434 1.61252 6.21970 -1.21386 0.93297 -9.20503 0.58096 -0.13411 -18.92240 -7.10095 0.94452 12.49150 -2.30605 -0.14593 6.96830 -0.00000 -0.00000 0.00000 -75.85483 6.44884 45.24562 23.25616 -34.36774 -7.28238 -0.00000 0.00000 -29.37740 -0.00000 -0.00000 0.00000 69.36709 19.12012 39.48026 -14.60104 23.58740 -3.06452 0.00000 -0.00000 -14.15560
0.00000 0.87611 0.00000 2.28889 6.37727 18.02477 0.00000 -0.00000 0.00000 -1.20003 -7.27868 -52.62071 3.97195 12.12298 36.16843 0.07306 -0.89474 -4.86784 0.06946 -1.70032 -4.67816 0.00000 -0.00000 0.00000 16.82703 0.13209 -38.72035 -8.37000 -16.38476 53.88472 -4.85375 -7.19099 -44.42742 -0.17515 2.69588 -7.43318 3.42384 0.42000 28.38250 1.09613 2.19569 5.87133 -1.55134 1.18516 -9.01528 0.60489 -0.05912 -18.73430 -7.50054 1.12566 12.64570 -2.42071 -0.09019 6.99960 -0.00000 -0.00000 0.00000 -77.89324 8.88497 44.50318 22.82044 -33.89187 -7.03791 -0.00000 0.00000 -29.59120 -0.00000 -0.00000 0.00000 69.41831 16.86785 38.44275 -14.75005 23.79676 -3.12439 0.00000 -0.00000 -13.74710
0.00000 0.87957 0.00000 1.72581 4.84334 16.56395 0.00000 -0.00000 0.00000 -1.07551 -8.07449 -49.01845 3.28913 11.14900 32.78404 0.18053 0.48436 -8.21580 0.06399 -1.63216 -4.49012 0.00000 -0.00000 0.00000 17.00870 -0.70392 -35.73152 -7.72012 -15.90949 51.54820 -4.65028 -6.51271 -43.28312 -0.20405 2.90854 -8.02423 3.77347 1.00959 27.45320 0.83782 2.94381 5.77494 -2.26320 1.52182 -8.59161 0.65744 -0.06178 -19.30500 -7.99013 1.23462 12.93330 -2.58704 -0.09456 7.20125 0.00000 -0.00000 0.00000 -79.59405 11.22575 43.57990 22.51442 -33.55352 -6.86801 -0.00000 0.00000 -27.72730 0.00000 -0.00000 0.00000 69.62219 16.13274 36.38797 -13.78774 22.43045 -2.74660 0.00000 -0.00000 -12.81200
0.00000 0.88237 0.00000 1.54726 3.83914 15.78441 0.00000 -0.00000 0.00000 -1.80418 -8.25165 -46.44103 2.72855 10.24210 29.76434 0.21350 0.29040 -8.83733 0.09144 -1.95033 -5.36840 0.00000 -0.00000 0.00000 16.85142 -1.66428 -33.80788 -7.27348 -15.55792 49.90120 -4.45115 -5.77863 -42.11555 -0.16815 2.64176 -7.28292 3.41226 1.47712 26.48480 0.63578 3.33859 5.40487 -2.37654 1.69170 -8.50322 0.59873 -0.33970 -17.99880 -8.05160 0.73301 11.08560 -2.61443 -0.27020 6.36013 0.00000 -0.00000 0.00000 -80.35245 13.29138 43.00456 22.34273 -33.36220 -6.77336 -0.00000 0.00000 -25.08290 0.00000 -0.00000 0.00000 70.15513 16.03995 33.60926 -12.68728 20.82730 -2.34093 0.00000 -0.00000 -11.14240
0.00000 0.88426 0.00000 0.50516 2.97614 14.72428 0.00000 -0.00000 0.00000 -1.84758 -7.71535 -44.35008 2.54991 9.92810 28.74421 0.24000 -0.47070 -9.09773 0.06422 -1.63510 -4.49824 0.00000 -0.00000 0.00000 17.51019 -2.34632 -31.22329 -6.77123 -15.13618 48.00369 -4.33147 -5.32636 -41.40044 -0.18976 2.80545 -7.73757 3.59449 1.74083 26.04130 0.69154 3.69578 5.23218 -2.51577 1.84761 -8.44283 0.56793 -0.39779 -18.04170 -8.13511 0.62448 10.29500 -2.63761 -0.31041 6.10997 0.00000 0.00000 0.00000 -80.48550 14.41540 42.85289 21.95382 -32.92480 -6.56073 -0.00000 0.00000 -22.78490 0.00000 0.00000 0.00000 70.71925 16.96730 30.24683 -11.68424 19.32941 -1.99654 0.00000 -0.00000 -8.14195
0.00000 0.88434 0.00000 -0.97676 2.42593 14.29808 0.00000 -0.00000 0.00000 -1.13311 -7.37445 -44.04381 2.83097 10.41627 30.33552 0.27836 -0.80761 -9.71312 0.04219 -1.32573 -3.64551 0.00000 -0.00000 0.00000 18.54398 -2.41726 -29.38616 -6.36906 -14.77670 46.44553 -4.17965 -5.48653 -40.77759 -0.22322 3.04130 -8.39374 4.10180 1.80756 25.63610 0.72518 3.87820 4.81165 -2.81672 1.89437 -8.66365 0.86427 -0.55481 -17.63340 -8.06378 0.22633 8.88807 -2.68024 -0.44374 5.57566 -0.00000 -0.00000 0.00000 -79.94695 14.97473 42.51758 21.86755 -32.82702 -6.51390 -0.00000 0.00000 -21.09170 -0.00000 -0.00000 0.00000 71.49339 16.75978 28.51724 -12.11627 19.97878 -2.14185 0.00000 -0.00000 -7.41182
0.00000 0.88474 0.00000 -2.05031 2.23990 14.01621 0.00000 -0.00000 0.00000 -0.51464 -7.56192 -43.65749 3.13995 10.91822 32.00458 0.28565 -0.70134 -9.87167 0.03096 -1.13586 -3.12270 0.00000 -0.00000 0.00000 19.05739 -2.22142 -27.31379 -5.97818 -14.40716 44.89409 -4.12969 -5.68362 -40.63037 -0.20467 2.91298 -8.03657 3.73883 1.83207 25.47640 0.75751 3.79602 4.48873 -2.55049 1.84138 -8.97531 0.59850 -0.59217 -17.87730 -6.90061 0.00397 7.60865 -2.27595 -0.45327 5.19415 -0.00000 -0.00000 0.00000 -78.57678 14.71661 43.31650 22.09872 -33.08841 -6.63966 -0.00000 0.00000 -21.80500 -0.00000 -0.00000 0.00000 71.63840 16.67972 30.49481 -13.33353 21.77395 -2.57569 0.00000 -0.00000 -11.86050
0.00000 0.88504 0.00000 -3.31919 2.17859 13.91325 0.00000 -0.00000 0.00000 0.26204 -7.37378 -43.80565 3.44269 11.37935 33.57021 0.21311 -0.56221 -8.53741 0.04077 -1.30319 -3.58343 0.00000 -0.00000 0.00000 19.68772 -2.35595 -25.25042 -5.56167 -13.98969 43.19612 -3.97884 -6.14872 -40.13194 -0.23221 3.10149 -8.56144 3.40225 1.81456 24.95390 0.75741 3.64545 4.17482 -2.29425 1.76281 -9.08677 0.80935 -0.83863 -17.93900 -6.17306 -0.52041 6.50400 -2.11767 -0.63163 4.83212 0.00000 0.00000 0.00000 -76.82455 13.82750 43.72200 22.57140 -33.61679 -6.89954 -0.00000 0.00000 -21.91520 0.00000 0.00000 0.00000 71.84078 15.87083 33.23683 -15.33692 24.61336 -3.36502 0.00000 -0.00000 -16.33090
0.00000 0.88434 0.00000 -4.18542 2.39430 14.23389 0.00000 -0.00000 0.00000 0.14059 -6.46651 -44.94780 3.87354 11.99019 35.69729 0.16271 -1.22485 -7.28636 0.19683 -2.85698 -7.88082 0.00000 -0.00000 0.00000 19.69230 -3.16573 -24.51943 -5.41624 -13.83774 42.59132 -3.72000 -6.36511 -39.00851 -0.31728 3.62086 -10.01237 2.65714 1.72845 24.19500 0.64643 3.28008 3.81959 -1.85220 1.59483 -9.14229 0.77257 -0.80456 -18.51270 -4.89533 -0.63187 5.96964 -1.71988 -0.59936 4.74789 0.00000 0.00000 0.00000 -74.52694 12.28014 44.67820 23.28633 -34.40043 -7.29942 -0.00000 0.00000 -22.92850 0.00000 0.00000 0.00000 71.93302 14.50825 35.73343 -17.96708 28.11499 -4.53372 0.00000 -0.00000 -19.23300
0.00000 0.88462 0.00000 -4.46830 2.66583 14.52772 0.00000 -0.00000 0.00000 -0.95318 -5.73132 -46.04036 4.36938 12.63636 38.02206 0.18881 -2.46819 -7.72436 0.31074 -3.58370 -9.90832 0.00000 -0.00000 0.00000 18.93127 -4.66702 -24.50193 -5.51481 -13.94109 43.00195 -3.25428 -6.76517 -36.90489 -0.47391 4.41504 -12.24736 1.61737 1.68416 23.66480 0.27661 2.88495 3.45637 -1.53110 1.41852 -9.31531 0.85668 -1.00352 -18.37430 -3.34839 -1.11080 4.89987 -1.28052 -0.71401 4.37882 0.00000 -0.00000 0.00000 -71.61766 10.19902 46.42993 24.18787 -35.36229 -7.81502 -0.00000 0.00000 -24.72510 0.00000 -0.00000 0.00000 72.01353 12.81494 37.93632 -20.70894 31.48702 -5.89718 0.00000 -0.00000 -21.65100
0.00000 0.88503 0.00000 -5.65557 2.05582 15.01346 0.00000 -0.00000 0.00000 -0.76230 -5.13006 -47.22754 4.98911 13.37152 40.77561 0.25017 -3.10855 -8.88787 0.25599 -3.25529 -8.99032 0.00000 -0.00000 0.00000 18.42213 -5.14187 -26.30772 -6.27835 -14.69276 46.08886 -2.52961 -5.78624 -32.51464 -0.66891 5.23024 -14.56641 0.71306 1.89521 23.51070 0.32190 2.91702 3.17518 -0.97544 1.45162 -9.59355 0.79493 -1.18021 -18.91750 -2.06184 -1.45290 4.07043 -0.89643 -0.79050 4.20150 -0.00000 0.00000 0.00000 -69.51243 7.19205 46.33446 24.93297 -36.13539 -8.25034 -0.00000 0.00000 -26.58470 -0.00000 0.00000 0.00000 72.01929 11.63527 39.46619 -23.38156 34.50341 -7.35329 0.00000 -0.00000 -22.47060
