HIERARCHY
ROOT root
{
  OFFSET 0.000000 0.000000 0.000000
  CHANNELS 6 Xposition Yposition Zposition Zrotation Yrotation Xrotation
  JOINT lhipjoint
  {
    OFFSET 0.000000 0.000000 0.000000
    CHANNELS 3 Zrotation Yrotation Xrotation
    JOINT lfemur
    {
      OFFSET 0.101782 -0.086417 0.056216
      CHANNELS 3 Zrotation Yrotation Xrotation
      JOINT ltibia
      {
        OFFSET 0.127100 -0.349205 0.000000
        CHANNELS 3 Zrotation Yrotation Xrotation
        JOINT lfoot
        {
          OFFSET 0.127904 -0.351413 0.000000
          CHANNELS 3 Zrotation Yrotation Xrotation
          JOINT ltoes
          {
            OFFSET 0.013378 -0.036756 0.121834
            CHANNELS 3 Zrotation Yrotation Xrotation
            End Site
            {
              OFFSET 0.000000 -0.000000 0.063753
            }
          }
        }
      }
    }
  }
  JOINT rhipjoint
  {
    OFFSET 0.000000 0.000000 0.000000
    CHANNELS 3 Zrotation Yrotation Xrotation
    JOINT rfemur
    {
      OFFSET -0.109489 -0.086417 0.056216
      CHANNELS 3 Zrotation Yrotation Xrotation
      JOINT rtibia
      {
        OFFSET -0.128713 -0.353638 0.000000
        CHANNELS 3 Zrotation Yrotation Xrotation
        JOINT rfoot
        {
          OFFSET -0.127276 -0.349689 0.000000
          CHANNELS 3 Zrotation Yrotation Xrotation
          JOINT rtoes
          {
            OFFSET -0.016016 -0.044004 0.125948
            CHANNELS 3 Zrotation Yrotation Xrotation
            End Site
            {
              OFFSET -0.000000 -0.000000 0.066547
            }
          }
        }
      }
    }
  }
  JOINT lowerback
  {
    OFFSET 0.000000 0.000000 0.000000
    CHANNELS 3 Zrotation Yrotation Xrotation
    JOINT upperback
    {
      OFFSET -0.000050 0.119713 -0.001584
      CHANNELS 3 Zrotation Yrotation Xrotation
      JOINT thorax
      {
        OFFSET -0.000162 0.118345 0.007323
        CHANNELS 3 Zrotation Yrotation Xrotation
        JOINT lowerneck
        {
          OFFSET -0.000004 0.118618 0.007924
          CHANNELS 3 Zrotation Yrotation Xrotation
          JOINT upperneck
          {
            OFFSET 0.004136 0.103590 0.004115
            CHANNELS 3 Zrotation Yrotation Xrotation
            JOINT head
            {
              OFFSET -0.003772 0.098763 -0.027963
              CHANNELS 3 Zrotation Yrotation Xrotation
              End Site
              {
                OFFSET -0.001918 0.104514 -0.009919
              }
            }
          }
        }
        JOINT lclavicle
        {
          OFFSET -0.000004 0.118618 0.007924
          CHANNELS 3 Zrotation Yrotation Xrotation
          JOINT lhumerus
          {
            OFFSET 0.170526 0.066614 0.022918
            CHANNELS 3 Zrotation Yrotation Xrotation
            JOINT lradius
            {
              OFFSET 0.258819 -0.000000 -0.000000
              CHANNELS 3 Zrotation Yrotation Xrotation
              JOINT lwrist
              {
                OFFSET 0.151799 -0.000000 -0.000000
                CHANNELS 3 Zrotation Yrotation Xrotation
                End Site
                {
                  OFFSET 0.075900 -0.000000 -0.000000
                }
              }
            }
          }
        }
        JOINT rclavicle
        {
          OFFSET -0.000004 0.118618 0.007924
          CHANNELS 3 Zrotation Yrotation Xrotation
          JOINT rhumerus
          {
            OFFSET -0.166553 0.067080 0.017740
            CHANNELS 3 Zrotation Yrotation Xrotation
            JOINT rradius
            {
              OFFSET -0.252561 -0.000000 -0.000000
              CHANNELS 3 Zrotation Yrotation Xrotation
              JOINT rwrist
              {
                OFFSET -0.165888 -0.000000 -0.000000
                CHANNELS 3 Zrotation Yrotation Xrotation
                End Site
                {
                  OFFSET -0.082944 -0.000000 -0.000000
                }
              }
            }
          }
        }
      }
    }
  }
}
MOTION
Frames: 26
Frame Time: 0.04166667
0.00000 0.88998 0.00000 -0.76137 -10.15870 13.65080 0.00000 -0.00000 0.00000 -19.51126 -10.93263 -9.32696 1.04025 6.48661 18.20303 0.57644 12.84438 -24.14671 0.01933 0.89757 2.46702 0.00000 -0.00000 0.00000 12.03966 4.67929 -32.52495 -6.77154 -15.13646 48.00490 -0.64047 4.59678 -14.25957 -0.43274 4.22149 -11.70064 -1.63178 0.82152 -1.87564 -0.65098 1.04183 -5.88750 0.21308 0.57343 -5.04671 10.62440 3.23024 -10.52850 -6.84657 4.31329 32.31860 -3.92907 2.32351 12.90530 0.00000 -0.00000 0.00000 -73.57240 8.57875 60.78569 131.71978 -52.27789 -95.19280 -0.00000 0.00000 -11.02340 0.00000 -0.00000 0.00000 83.53434 16.28849 49.75474 -76.68886 59.31979 -48.49855 0.00000 -0.00000 -44.24230
0.00000 0.89173 0.00000 -0.30502 -9.95073 13.70830 0.00000 -0.00000 0.00000 -19.55974 -10.66597 -6.95156 0.67129 5.23937 14.59257 0.35496 13.41855 -22.79486 0.01093 0.67492 1.85474 0.00000 -0.00000 0.00000 9.21098 5.32117 -35.11277 -6.42534 -14.82823 46.66579 -0.51044 1.77462 -13.00041 -0.23298 3.10660 -8.57566 -1.68307 0.82454 -1.74217 -0.96424 1.02708 -6.01154 -0.08583 0.56141 -5.24878 10.18770 2.71671 -10.48070 -6.16898 3.46232 33.02250 -3.72761 1.98759 13.07520 -0.00000 0.00000 0.00000 -73.42201 2.54858 63.37441 136.02992 -50.25383 -98.55610 -0.00000 0.00000 -8.35810 -0.00000 0.00000 0.00000 85.65059 24.54009 55.59784 -85.85682 59.93504 -56.41269 0.00000 -0.00000 -41.84800
0.00000 0.89335 0.00000 -0.40133 -9.21946 14.16320 0.00000 -0.00000 0.00000 -18.71857 -10.95050 -4.79991 0.39578 4.03937 11.18745 0.12688 14.32244 -21.68927 0.00417 0.41706 1.14597 0.00000 -0.00000 0.00000 6.33509 7.48511 -35.12281 -4.62741 -12.95150 39.18720 -0.26825 -4.32795 -12.35040 -0.06280 1.61693 -4.44813 -1.13958 0.86425 -1.68066 -0.99934 1.08641 -6.04285 -0.42911 0.56466 -5.30500 9.63339 2.14418 -10.59010 -5.71199 2.58934 32.89150 -3.56597 1.58701 12.93050 -0.00000 0.00000 0.00000 -73.78890 -1.83094 66.10462 139.24354 -48.51174 -100.99603 -0.00000 0.00000 -7.03639 -0.00000 0.00000 0.00000 86.74822 31.62647 63.24785 -94.69411 59.91657 -64.06408 0.00000 -0.00000 -39.94170
0.00000 0.89481 0.00000 -0.45404 -8.10030 14.86150 0.00000 -0.00000 0.00000 -17.57467 -10.79590 -1.69564 0.09017 1.93672 5.33081 -0.24520 15.43764 -19.17271 0.00000 0.01334 0.03664 0.00000 -0.00000 0.00000 2.81914 10.81961 -34.09635 -2.85164 -10.45093 30.44968 0.28894 -10.77611 -9.43220 -0.01461 0.78036 -2.14464 -0.90806 1.04352 -1.36552 -0.91744 1.33024 -6.16465 -0.48998 0.67855 -5.61038 8.73669 1.29673 -10.89070 -5.16167 1.35478 32.31760 -3.34218 0.98838 12.61340 -0.00000 0.00000 0.00000 -74.50523 -4.16734 69.40753 141.98925 -46.84617 -103.02656 -0.00000 0.00000 -6.44277 -0.00000 0.00000 0.00000 85.99917 37.13213 71.04058 -102.33462 59.41724 -70.66119 0.00000 -0.00000 -35.90540
0.00000 0.89607 0.00000 -0.24526 -6.33524 15.64400 0.00000 -0.00000 0.00000 -16.17763 -11.18530 1.08155 0.00000 -0.00000 -0.00000 -0.53841 16.35779 -16.84339 0.00825 -0.58652 -1.61172 0.00000 -0.00000 0.00000 -1.64305 15.44941 -32.63848 -1.73481 -8.29038 23.59959 0.85770 -16.36497 -3.19061 -0.00163 0.26109 -0.71736 -0.91114 1.20414 -1.20559 -0.99778 1.54392 -6.11210 -0.58229 0.78435 -5.64401 7.63213 0.21924 -11.25400 -4.17259 -0.28914 31.34670 -2.95686 0.23010 12.14940 -0.00000 0.00000 0.00000 -74.92937 -4.66658 72.18304 144.37664 -45.25215 -104.74561 -0.00000 0.00000 -4.27328 -0.00000 0.00000 0.00000 84.07063 40.83602 77.84625 -107.18021 58.85482 -74.82128 0.00000 -0.00000 -29.76420
0.00000 0.89459 0.00000 0.14361 -4.03162 16.41170 0.00000 -0.00000 0.00000 -14.53099 -13.01651 1.33904 0.00000 -0.00000 0.00000 -0.51295 16.40985 -17.33431 0.04385 -1.35145 -3.71638 0.00000 -0.00000 0.00000 -4.89218 18.45187 -32.02960 -1.36184 -7.38643 20.86536 1.05570 -19.20035 0.48733 -0.00267 0.33397 -0.91761 -0.94585 1.36239 -1.14117 -1.31300 1.74890 -5.78951 -0.89199 0.88123 -5.33077 6.51507 -0.99210 -11.68180 -2.79861 -2.20423 29.98290 -2.45828 -0.61328 11.59300 0.00000 0.00000 0.00000 -74.64450 -3.94881 73.78771 146.21183 -43.92716 -106.03410 -0.00000 0.00000 -2.25712 0.00000 0.00000 0.00000 81.57281 41.73111 82.74189 -108.01644 58.73728 -75.53654 0.00000 -0.00000 -22.47060
0.00000 0.88969 0.00000 0.70011 -1.32800 17.25740 0.00000 -0.00000 0.00000 -12.51348 -15.22669 1.52883 0.00000 0.00000 0.00000 -0.49875 16.54560 -17.81018 0.12745 -2.30130 -6.33910 0.00000 -0.00000 0.00000 -4.28168 15.66846 -33.40310 -1.56105 -7.88474 22.36453 0.60727 -15.42757 2.00797 -0.19587 2.84998 -7.86135 -1.32999 1.57123 -0.63361 -1.59440 2.00525 -5.61402 -0.99054 1.02109 -5.43802 5.00747 -2.33552 -11.97770 -1.13137 -4.23277 28.54230 -1.81186 -1.51992 11.06890 0.00000 0.00000 0.00000 -74.31106 -1.75293 73.95790 146.49135 -43.71737 -106.22765 -0.00000 0.00000 -2.35648 0.00000 0.00000 0.00000 78.87747 39.05977 85.36490 -103.56214 59.29347 -71.71729 0.00000 -0.00000 -16.69490
0.00000 0.88168 0.00000 1.36790 1.51459 18.08130 0.00000 -0.00000 0.00000 -10.18899 -17.50084 1.75320 0.00000 0.00000 0.00000 -0.48459 16.75773 -18.41782 0.25903 -3.27444 -9.04376 0.00000 -0.00000 0.00000 -1.12483 10.41013 -36.16036 -2.37379 -9.60472 27.70595 0.24282 -8.74398 -4.16455 -0.52390 4.63864 -12.88071 -2.01827 1.74368 -0.19504 -1.69796 2.21375 -5.20504 -0.72754 1.15392 -5.28059 3.14134 -3.61448 -12.22590 0.60400 -6.03138 26.71400 -1.06671 -2.36495 10.49870 0.00000 -0.00000 0.00000 -73.93795 1.19572 72.39309 144.97551 -44.82961 -105.16938 -0.00000 0.00000 -4.00795 0.00000 -0.00000 0.00000 76.55947 34.03998 86.03010 -94.05372 59.93781 -63.50989 0.00000 -0.00000 -14.44940
0.00000 0.87417 0.00000 1.65111 4.32436 19.18940 0.00000 -0.00000 0.00000 -7.15609 -19.64252 1.37838 0.00000 0.00000 0.00000 -0.50496 17.31068 -19.20061 0.33983 -3.74608 -10.36339 0.00000 -0.00000 0.00000 1.45116 8.96437 -38.95714 -3.41631 -11.34028 33.43628 -0.02447 -7.45980 -11.16209 -0.21121 2.95884 -8.16419 -1.87321 1.86073 0.47327 -1.78258 2.36452 -4.67886 -0.91297 1.21867 -5.09933 1.59278 -4.72097 -12.94310 2.18243 -7.56787 24.58350 -0.43223 -3.08197 9.97841 0.00000 -0.00000 0.00000 -73.49258 4.85347 69.65434 141.76420 -46.98924 -102.86219 -0.00000 0.00000 -3.82887 0.00000 -0.00000 0.00000 75.37730 27.45421 83.97570 -78.72541 59.51419 -50.25185 0.00000 -0.00000 -10.85190
0.00000 0.86728 0.00000 1.99631 7.14280 20.77630 0.00000 -0.00000 0.00000 -4.12780 -21.86489 0.12323 0.00000 0.00000 0.00000 -0.68616 18.93577 -20.07971 0.34112 -3.75308 -10.38302 0.00000 -0.00000 0.00000 3.57551 7.58281 -42.68438 -4.61715 -12.93923 39.14139 -0.33873 -6.98567 -15.72324 -0.12140 2.24618 -6.18649 -1.02024 1.76501 1.30550 -1.96966 2.24804 -4.19523 -1.59359 1.12044 -5.02469 0.82039 -5.57972 -13.75190 3.49114 -8.77118 21.78340 0.00801 -3.63131 9.25203 0.00000 0.00000 0.00000 -73.20077 8.87305 67.30156 138.55808 -48.90135 -100.48101 -0.00000 0.00000 -3.09964 0.00000 0.00000 0.00000 74.77957 21.03152 78.87572 -59.33059 56.12890 -33.78470 0.00000 -0.00000 -5.27854
0.00000 0.86076 0.00000 2.67743 9.69184 22.48800 0.00000 -0.00000 0.00000 -1.50236 -23.90022 -1.52587 0.00000 -0.00000 0.00000 -0.79125 20.08871 -21.14294 0.31393 -3.60186 -9.95916 0.00000 -0.00000 0.00000 5.00812 5.35992 -47.48643 -6.11911 -14.54278 45.45789 -0.71483 -4.97110 -18.54084 -0.09559 1.99387 -5.48873 -0.17183 1.48426 2.29243 -1.95509 1.89951 -3.75991 -2.05504 0.91313 -5.11075 0.34181 -6.14660 -14.07930 4.46900 -9.44727 18.36230 0.36650 -3.98926 8.23124 -0.00000 0.00000 0.00000 -74.19745 12.30388 66.11375 136.48995 -50.01732 -98.90920 -0.00000 0.00000 -4.54459 -0.00000 0.00000 0.00000 74.22708 16.77035 70.65766 -39.93492 48.03129 -18.39083 0.00000 0.00000 0.99675
0.00000 0.85393 0.00000 3.72667 11.32910 23.94520 0.00000 -0.00000 0.00000 0.27900 -25.17738 -3.02653 0.00000 0.00000 0.00000 -0.69451 20.06087 -22.18133 0.25614 -3.25625 -8.99299 0.00000 -0.00000 0.00000 5.78009 3.95923 -51.05121 -7.26547 -15.55142 49.87133 -1.02792 -4.18168 -21.09279 -0.06299 1.61936 -4.45483 -0.35635 1.16556 3.44859 -1.47498 1.47422 -3.30378 -1.44697 0.71699 -5.32363 -0.09088 -6.33930 -14.13280 4.86178 -9.48685 15.29110 0.60105 -4.09940 7.26673 -0.00000 0.00000 0.00000 -76.84381 14.55171 65.23182 135.08985 -50.72439 -97.83082 -0.00000 0.00000 -1.44720 -0.00000 0.00000 0.00000 74.60380 17.02115 55.83487 -21.11691 31.96456 -6.11171 0.00000 0.00000 15.93590
0.00000 0.84785 0.00000 4.48251 12.19740 25.17030 0.00000 -0.00000 0.00000 1.58268 -25.67969 -4.36173 0.00000 -0.00000 -0.00000 -0.71643 20.21394 -22.23531 0.17767 -2.71512 -7.48661 0.00000 -0.00000 0.00000 6.22356 3.60793 -53.91324 -8.23779 -16.29139 53.41470 -1.25678 -4.11767 -23.02355 -0.04458 1.36265 -3.74722 -0.40141 1.16494 4.02222 -0.98256 1.49060 -2.84190 -0.91857 0.73647 -5.18086 -0.06768 -6.38893 -14.27970 4.69017 -9.40066 13.28800 0.57992 -4.13306 6.62975 -0.00000 -0.00000 0.00000 -79.22885 14.25920 66.11972 134.95617 -50.78994 -97.72728 -0.00000 0.00000 -2.51510 -0.00000 -0.00000 0.00000 75.89451 22.67334 4.62326 -7.46010 12.67395 -0.82963 0.00000 0.00000 64.20570
0.00000 0.84244 0.00000 5.33943 12.58520 26.14110 0.00000 -0.00000 0.00000 2.22538 -25.83422 -5.37076 0.00000 0.00000 0.00000 -0.64849 19.77459 -22.14111 0.17135 -2.66662 -7.35192 0.00000 -0.00000 0.00000 6.00257 3.38669 -56.49623 -9.22122 -16.94798 56.85205 -1.43126 -3.71808 -24.20481 -0.04378 1.35039 -3.71346 -0.41179 1.20526 4.39550 -0.81100 1.54964 -2.55010 -0.74433 0.76901 -5.09285 0.08765 -6.25514 -13.99870 4.79909 -9.16281 11.66810 0.64987 -4.05725 6.05736 -0.00000 0.00000 0.00000 -80.40261 12.22701 67.64387 135.39207 -50.57495 -98.06452 -0.00000 0.00000 -4.08056 -0.00000 0.00000 0.00000 72.38236 23.50517 -24.05278 -5.87005 10.04525 -0.51635 0.00000 0.00000 84.21450
0.00000 0.83849 0.00000 5.82954 12.98080 26.49940 0.00000 -0.00000 0.00000 2.74698 -25.89170 -5.71691 0.00000 -0.00000 -0.00000 -0.47971 18.85009 -22.27894 0.16916 -2.64963 -7.30476 0.00000 -0.00000 0.00000 5.99872 3.15774 -57.64769 -9.82488 -17.31019 58.90146 -1.56711 -3.52444 -25.13894 -0.04402 1.35404 -3.72350 0.04709 0.73571 5.02639 -0.80591 0.94815 -2.78972 -0.95740 0.45175 -5.70179 0.68759 -5.55778 -13.24670 4.58004 -8.27409 11.42910 0.59846 -3.63826 5.80042 -0.00000 0.00000 0.00000 -80.57077 11.81209 67.94372 135.83750 -50.35153 -98.40805 -0.00000 0.00000 -3.78053 -0.00000 0.00000 0.00000 70.95813 21.97734 -8.61926 -6.46690 11.03859 -0.62555 0.00000 0.00000 72.23030
0.00000 0.83695 0.00000 6.17878 12.91190 26.30370 0.00000 -0.00000 0.00000 2.47060 -25.60173 -5.33071 0.00000 -0.00000 -0.00000 -0.40673 18.39132 -22.26013 0.18407 -2.76329 -7.62040 0.00000 -0.00000 0.00000 5.89367 3.13649 -57.67020 -10.10099 -17.46625 59.82538 -1.63502 -3.56233 -25.65648 -0.04818 1.41663 -3.89594 0.50507 0.46711 5.29561 -1.04042 0.60985 -2.89434 -1.42965 0.25963 -5.96481 1.41703 -4.95617 -13.13010 3.90837 -7.52923 11.99720 0.33757 -3.28144 5.89062 0.00000 -0.00000 0.00000 -79.73496 11.25955 68.42868 135.04741 -50.74523 -97.79796 -0.00000 0.00000 -3.96380 0.00000 -0.00000 0.00000 71.88509 23.03304 -12.54211 -6.57248 11.21352 -0.64592 0.00000 0.00000 79.97090
0.00000 0.83757 0.00000 6.40196 12.09350 25.84580 0.00000 -0.00000 0.00000 1.41710 -24.71710 -4.67152 0.00000 0.00000 0.00000 -0.42676 18.40645 -22.07442 0.21277 -2.96968 -8.19436 0.00000 -0.00000 0.00000 5.44360 3.45790 -57.24992 -10.12515 -17.47963 59.90583 -1.59301 -3.58856 -25.36173 -0.06114 1.59541 -4.38878 0.42594 0.51653 5.35383 -1.21406 0.66002 -2.92259 -1.57248 0.28335 -6.02565 1.70173 -4.50828 -13.24420 3.77476 -6.96389 12.01700 0.29862 -3.00262 5.89439 -0.00000 0.00000 0.00000 -79.05626 10.31352 68.86179 134.53771 -50.99295 -97.40258 -0.00000 0.00000 -2.77400 -0.00000 0.00000 0.00000 73.27378 24.72625 -10.97967 -6.43618 10.98765 -0.61968 0.00000 0.00000 73.31100
0.00000 0.84037 0.00000 6.19346 11.44110 25.14310 0.00000 -0.00000 0.00000 0.48845 -23.88486 -3.97195 0.00000 -0.00000 -0.00000 -0.49523 18.58335 -21.64325 0.26422 -3.30683 -9.13417 0.00000 -0.00000 0.00000 5.28651 3.69973 -56.07279 -9.79493 -17.29291 58.80074 -1.48905 -3.76463 -24.67145 -0.06904 1.69525 -4.66417 0.41718 0.60953 5.02086 -1.12443 0.78932 -2.95621 -1.48274 0.35069 -5.86741 2.09166 -4.06224 -13.46040 3.50016 -6.41297 12.19620 0.19330 -2.73098 5.95994 0.00000 -0.00000 0.00000 -78.78324 9.23030 68.88046 134.48973 -51.01603 -97.36529 -0.00000 0.00000 -1.43684 0.00000 -0.00000 0.00000 74.16410 25.30105 1.98667 -7.05624 12.01177 -0.74330 0.00000 0.00000 57.41320
0.00000 0.84468 0.00000 5.65130 11.12550 24.14860 0.00000 -0.00000 0.00000 -0.19829 -23.26870 -3.19284 0.00000 -0.00000 -0.00000 -0.57198 18.63225 -20.86504 0.43109 -4.21352 -11.67816 0.00000 -0.00000 0.00000 5.24565 4.00044 -54.11156 -9.21215 -16.94231 56.82094 -1.31549 -4.28917 -23.59224 -0.08378 1.86700 -5.13825 0.63584 0.69789 4.69235 -1.06328 0.92697 -3.07334 -1.55139 0.41169 -5.79614 2.57253 -3.69095 -13.64520 3.59194 -6.05064 12.65250 0.16941 -2.50851 6.12411 0.00000 -0.00000 0.00000 -78.36378 7.56820 68.79648 134.20591 -51.15163 -97.14446 -0.00000 0.00000 -0.83249 0.00000 -0.00000 0.00000 75.02422 24.29880 20.67468 -9.40578 15.80476 -1.30844 0.00000 0.00000 40.00600
0.00000 0.84974 0.00000 4.74293 10.99290 22.85900 0.00000 -0.00000 0.00000 -0.73208 -22.74473 -2.35960 0.00000 -0.00000 -0.00000 -0.65714 18.63125 -19.83230 0.60823 -4.99183 -13.88527 0.00000 -0.00000 0.00000 5.25597 4.54200 -51.45730 -8.42534 -16.42336 54.08067 -1.07462 -5.23085 -22.12978 -0.11348 2.17189 -5.98094 1.06511 0.73722 4.47446 -0.96590 1.01474 -3.23995 -1.69777 0.43893 -5.83870 3.11712 -3.34442 -13.80320 3.70870 -5.75013 13.26970 0.13767 -2.30416 6.33710 0.00000 -0.00000 0.00000 -77.95076 5.31828 69.00573 133.99577 -51.25107 -96.98069 -0.00000 0.00000 -0.48945 0.00000 -0.00000 0.00000 75.34267 22.32847 39.30380 -14.11569 22.89986 -2.87297 0.00000 0.00000 17.02420
0.00000 0.85523 0.00000 3.57592 11.05100 21.52320 0.00000 -0.00000 0.00000 -1.29513 -22.40907 -1.68358 0.00000 0.00000 0.00000 -0.83096 19.17469 -18.67291 0.65142 -5.16274 -14.37332 0.00000 -0.00000 0.00000 5.33867 5.12753 -48.36088 -7.42925 -15.68296 50.47970 -0.78373 -6.57435 -20.37092 -0.13731 2.38826 -6.57995 1.49837 0.66772 4.12850 -0.72423 0.96197 -3.46441 -1.68149 0.39882 -5.87618 3.88186 -2.88261 -13.92180 3.57038 -5.31415 14.15400 0.00210 -2.03372 6.61852 0.00000 0.00000 0.00000 -77.99147 2.46108 69.87649 133.90891 -51.29194 -96.91292 -0.00000 0.00000 -0.71670 0.00000 0.00000 0.00000 75.40362 20.13395 51.56642 -21.22007 32.08433 -6.16642 0.00000 -0.00000 -2.90402
0.00000 0.86162 0.00000 2.48624 10.81180 20.14000 0.00000 -0.00000 0.00000 -2.47555 -21.91181 -0.99372 0.00000 -0.00000 -0.00000 -0.99531 19.54204 -17.05873 0.55130 -4.75649 -13.21532 0.00000 -0.00000 0.00000 4.94925 5.74812 -44.90544 -6.26223 -14.67774 46.02529 -0.43749 -7.94026 -17.84150 -0.17361 2.68404 -7.40031 1.77327 0.57094 3.80906 -0.45386 0.86133 -3.64304 -1.54246 0.34246 -5.88558 4.82849 -2.29494 -14.00850 3.14498 -4.70367 15.17300 -0.23727 -1.68777 6.93354 -0.00000 -0.00000 0.00000 -78.55752 -0.87362 71.65734 133.68722 -51.39564 -96.73980 -0.00000 0.00000 -0.18153 -0.00000 -0.00000 0.00000 75.89146 18.30323 58.29358 -29.97113 40.86864 -11.39073 0.00000 -0.00000 -15.20470
0.00000 0.86951 0.00000 1.50522 10.00450 19.10470 0.00000 -0.00000 0.00000 -3.87322 -20.96544 -0.84543 0.00000 -0.00000 -0.00000 -0.92975 18.58685 -15.58437 0.55632 -4.77773 -13.27569 0.00000 -0.00000 0.00000 3.94077 6.90970 -41.20411 -4.85155 -13.21464 40.17735 -0.01894 -9.84311 -14.33135 -0.22250 3.03641 -8.38014 1.96397 0.45435 3.55420 -0.08258 0.73500 -3.89562 -1.25111 0.27739 -6.01335 5.94155 -1.52530 -14.07060 2.13107 -3.76645 16.12980 -0.66052 -1.23148 7.22265 -0.00000 0.00000 0.00000 -79.75094 -3.94372 73.99640 133.16429 -51.63674 -96.33046 -0.00000 -0.00000 0.21397 -0.00000 0.00000 0.00000 76.61419 16.86575 62.33136 -40.67417 48.46428 -18.94235 0.00000 -0.00000 -24.63870
0.00000 0.87845 0.00000 0.77205 8.43015 18.77410 0.00000 -0.00000 0.00000 -5.50823 -19.66453 -2.35473 0.00746 0.55784 1.53288 -0.71404 16.96523 -15.27511 0.52150 -4.62817 -12.85101 0.00000 -0.00000 0.00000 2.17669 8.78630 -37.79634 -3.36459 -11.26308 33.17233 0.46476 -12.81053 -9.60200 -0.24701 3.19811 -8.83078 2.00340 0.39059 2.93829 0.37753 0.66446 -4.09312 -0.78387 0.25229 -5.87518 7.07719 -0.53737 -14.28780 0.62872 -2.43267 16.73750 -1.20711 -0.64427 7.44945 0.00000 0.00000 0.00000 -81.22887 -6.69449 76.53226 132.07650 -52.12290 -95.47466 -0.00000 0.00000 -0.14210 0.00000 0.00000 0.00000 77.36407 15.88222 64.84398 -53.70723 54.38549 -29.16214 0.00000 -0.00000 -32.18420
0.00000 0.88686 0.00000 0.31235 6.12388 19.05550 0.00000 -0.00000 0.00000 -7.69607 -17.41716 -2.84752 0.00000 -0.00000 -0.00000 -0.60948 15.53526 -13.66883 0.43331 -4.22424 -11.70839 0.00000 -0.00000 0.00000 -0.45386 11.80832 -34.99815 -2.07895 -9.02862 25.88490 1.03791 -17.84589 -4.13756 -0.17038 2.65909 -7.33102 1.92943 0.41352 2.00945 0.83766 0.69642 -4.44214 -0.26034 0.28259 -5.71547 8.07622 0.57301 -14.17900 -1.26897 -0.77861 17.25740 -1.82815 0.04042 7.63885 -0.00000 0.00000 0.00000 -82.22314 -8.28337 78.51439 130.94870 -52.60563 -94.58153 -0.00000 -0.00000 0.91993 -0.00000 0.00000 0.00000 78.27933 14.87117 66.60058 -67.68769 58.03270 -40.80460 0.00000 -0.00000 -35.76000
0.00000 0.89306 0.00000 0.46790 3.90307 19.19680 0.00000 -0.00000 0.00000 -10.31449 -15.64818 -3.96497 0.00000 0.00000 0.00000 -0.48975 14.26752 -13.03135 0.27904 -3.39752 -9.38750 0.00000 -0.00000 0.00000 -4.29433 17.56181 -31.76924 -1.30541 -7.23786 20.42198 2.36858 -26.69799 -3.83283 -0.00147 -0.24782 0.68090 1.01875 0.38101 0.98771 1.28438 0.61242 -4.58950 0.72453 0.29342 -5.29960 8.80572 1.63069 -13.92950 -3.33562 0.93498 17.72630 -2.45807 0.71565 7.83965 0.00000 0.00000 0.00000 -82.15361 -9.45911 80.20591 130.09174 -52.95843 -93.89909 -0.00000 -0.00000 1.61645 0.00000 0.00000 0.00000 79.09292 13.60404 67.54065 -81.51872 59.72644 -52.66174 0.00000 -0.00000 -38.39950
