HIERARCHY
ROOT root
{
  OFFSET 0.000000 0.000000 0.000000
  CHANNELS 6 Xposition Yposition Zposition Zrotation Yrotation Xrotation
  JOINT lhipjoint
  {
    OFFSET 0.000000 0.000000 0.000000
    CHANNELS 3 Zrotation Yrotation Xrotation
    JOINT lfemur
    {
      OFFSET 0.076955 -0.088858 0.062674
      CHANNELS 3 Zrotation Yrotation Xrotation
      JOINT ltibia
      {
        OFFSET 0.134602 -0.369817 0.000000
        CHANNELS 3 Zrotation Yrotation Xrotation
        JOINT lfoot
        {
          OFFSET 0.133867 -0.367797 0.000000
          CHANNELS 3 Zrotation Yrotation Xrotation
          JOINT ltoes
          {
            OFFSET 0.016413 -0.045094 0.113675
            CHANNELS 3 Zrotation Yrotation Xrotation
            End Site
            {
              OFFSET 0.000000 -0.000000 0.060917
            }
          }
        }
      }
    }
  }
  JOINT rhipjoint
  {
    OFFSET 0.000000 0.000000 0.000000
    CHANNELS 3 Zrotation Yrotation Xrotation
    JOINT rfemur
    {
      OFFSET -0.076961 -0.088859 0.062674
      CHANNELS 3 Zrotation Yrotation Xrotation
      JOINT rtibia
      {
        OFFSET -0.129575 -0.356005 0.000000
        CHANNELS 3 Zrotation Yrotation Xrotation
        JOINT rfoot
        {
          OFFSET -0.136022 -0.373719 0.000000
          CHANNELS 3 Zrotation Yrotation Xrotation
          JOINT rtoes
          {
            OFFSET -0.013093 -0.035974 0.108504
            CHANNELS 3 Zrotation Yrotation Xrotation
            End Site
            {
              OFFSET -0.000000 -0.000000 0.057326
            }
          }
        }
      }
    }
  }
  JOINT lowerback
  {
    OFFSET 0.000000 0.000000 0.000000
    CHANNELS 3 Zrotation Yrotation Xrotation
    JOINT upperback
    {
      OFFSET -0.004835 0.114922 -0.013864
      CHANNELS 3 Zrotation Yrotation Xrotation
      JOINT thorax
      {
        OFFSET -0.000021 0.116102 0.000122
        CHANNELS 3 Zrotation Yrotation Xrotation
        JOINT lowerneck
        {
          OFFSET 0.002188 0.117937 0.006733
          CHANNELS 3 Zrotation Yrotation Xrotation
          JOINT upperneck
          {
            OFFSET -0.002068 0.095682 0.017943
            CHANNELS 3 Zrotation Yrotation Xrotation
            JOINT head
            {
              OFFSET 0.000526 0.096058 -0.025972
              CHANNELS 3 Zrotation Yrotation Xrotation
              End Site
              {
                OFFSET 0.000701 0.100257 -0.010937
              }
            }
          }
        }
        JOINT lclavicle
        {
          OFFSET 0.002188 0.117937 0.006733
          CHANNELS 3 Zrotation Yrotation Xrotation
          JOINT lhumerus
          {
            OFFSET 0.211297 0.045898 -0.020685
            CHANNELS 3 Zrotation Yrotation Xrotation
            JOINT lradius
            {
              OFFSET 0.280633 -0.000000 -0.000000
              CHANNELS 3 Zrotation Yrotation Xrotation
              JOINT lwrist
              {
                OFFSET 0.189547 -0.000000 0.000000
                CHANNELS 3 Zrotation Yrotation Xrotation
                End Site
                {
                  OFFSET 0.094773 -0.000000 0.000000
                }
              }
            }
          }
        }
        JOINT rclavicle
        {
          OFFSET 0.002188 0.117937 0.006733
          CHANNELS 3 Zrotation Yrotation Xrotation
          JOINT rhumerus
          {
            OFFSET -0.211884 0.028598 -0.003683
            CHANNELS 3 Zrotation Yrotation Xrotation
            JOINT rradius
            {
              OFFSET -0.280243 -0.000000 -0.000000
              CHANNELS 3 Zrotation Yrotation Xrotation
              JOINT rwrist
              {
                OFFSET -0.189049 -0.000000 0.000000
                CHANNELS 3 Zrotation Yrotation Xrotation
                End Site
                {
                  OFFSET -0.094524 -0.000000 0.000000
                }
              }
            }
          }
        }
      }
    }
  }
}
MOTION
Frames: 96
Frame Time: 0.04166667
0.00000 0.95853 0.00000 135.23900 -84.62790 -132.71800 0.00000 -0.00000 0.00000 -18.86974 -6.40412 1.75731 0.72932 5.45645 15.21517 0.66147 14.85576 -26.97827 0.07760 1.79701 4.94499 0.00000 -0.00000 0.00000 11.18762 -1.77555 2.46179 -0.12656 -2.29325 6.31682 0.21308 -14.93343 -18.75167 -0.02318 -0.98284 2.70159 -5.98889 -1.18821 -7.68343 0.18392 -0.99961 1.89147 3.43037 -0.72885 6.42175 -13.87570 -9.95279 -16.58030 6.48042 -13.29690 30.08570 2.45681 -6.75553 14.56000 0.00000 0.00000 0.00000 -91.70857 -3.08572 22.69492 11.10507 -18.44913 -1.80903 0.00000 -0.00000 -1.86342 0.00000 0.00000 0.00000 86.63004 1.46377 18.38291 -13.00559 21.29541 -2.45532 -0.00000 0.00000 -8.75742
0.00000 0.96215 0.00000 157.70600 -84.16120 -154.31200 0.00000 -0.00000 0.00000 -16.88688 -7.30997 0.28162 0.75779 5.55958 15.51174 0.63474 16.13835 -28.17858 0.15013 2.49681 6.88081 0.00000 -0.00000 0.00000 13.11214 -0.46582 3.34061 -0.00947 -0.62836 1.72675 0.59427 -16.45722 -16.16536 -0.07975 -1.82169 5.01313 -4.78037 -0.54755 -6.05251 0.63190 -0.38773 1.27665 3.30558 -0.33647 4.76624 -13.84260 -9.86038 -16.25410 6.58362 -13.21370 29.78550 2.52703 -6.71060 14.35040 -0.00000 -0.00000 0.00000 -91.54380 -3.18534 23.30238 11.32694 -18.78765 -1.87987 0.00000 -0.00000 -2.48374 -0.00000 -0.00000 0.00000 87.46416 1.60081 15.26808 -13.34727 21.79392 -2.58079 -0.00000 0.00000 -5.56041
0.00000 0.96242 0.00000 151.93100 -83.93450 -148.44400 0.00000 -0.00000 0.00000 -17.61853 -7.56248 0.17269 0.74907 5.52820 15.42144 0.60547 16.31461 -28.16110 0.15619 2.54650 7.01860 0.00000 -0.00000 0.00000 12.21403 -0.80697 3.99811 0.00000 -0.00000 0.00000 0.72541 -17.08653 -15.37278 -0.04762 -1.40829 3.87297 -5.22468 -0.61906 -6.03420 0.41529 -0.43966 1.32219 3.32433 -0.37412 4.81182 -13.80310 -9.69565 -16.09790 6.81346 -13.03870 29.49250 2.65782 -6.60356 14.18050 0.00000 0.00000 0.00000 -91.50574 -3.36014 23.80274 11.25797 -18.68260 -1.85772 0.00000 -0.00000 -3.23028 0.00000 0.00000 0.00000 87.50649 1.87590 15.19461 -13.16770 21.53244 -2.51450 -0.00000 0.00000 -5.24399
0.00000 0.96067 0.00000 136.97500 -83.73650 -133.42100 0.00000 -0.00000 0.00000 -19.49840 -7.34297 0.67679 0.70763 5.37641 14.98534 0.61639 15.85376 -27.72791 0.10994 2.13790 5.88691 0.00000 -0.00000 0.00000 10.33724 -0.83045 1.53381 -0.07858 -1.80830 4.97617 0.44418 -16.01092 -17.54930 -0.00005 -0.04437 0.12192 -5.78951 -1.01262 -7.82237 -0.14357 -0.75950 1.85603 3.00411 -0.59649 6.42848 -13.58550 -9.72442 -16.49090 6.71319 -13.02140 29.41080 2.57089 -6.56385 14.19900 0.00000 -0.00000 0.00000 -91.58705 -3.42724 24.12919 11.42286 -18.93351 -1.91088 0.00000 -0.00000 -2.91512 0.00000 -0.00000 0.00000 87.45054 2.24113 15.46828 -13.20528 21.58725 -2.52831 -0.00000 0.00000 -5.45768
0.00000 0.96126 0.00000 135.86500 -83.96520 -132.13900 0.00000 -0.00000 0.00000 -19.36996 -7.61820 0.62509 0.66402 5.21147 14.51269 0.56366 16.00502 -27.50270 0.11637 2.19936 6.05693 0.00000 -0.00000 0.00000 10.40616 -0.69047 0.33210 -0.13766 -2.39129 6.58834 0.34480 -15.68435 -18.31770 -0.01713 0.84499 -2.32239 -5.55829 -1.04988 -7.50007 -0.18574 -0.85319 1.80759 2.82089 -0.62592 6.19582 -13.34090 -9.76177 -16.89240 6.47838 -13.02110 29.57420 2.42087 -6.55159 14.31520 -0.00000 -0.00000 0.00000 -91.56999 -3.55041 24.26990 11.30480 -18.75394 -1.87274 0.00000 -0.00000 -3.42190 -0.00000 -0.00000 0.00000 87.50116 2.42152 15.41534 -13.03786 21.34266 -2.46705 -0.00000 0.00000 -5.17431
0.00000 0.96142 0.00000 136.88100 -84.08550 -133.05600 0.00000 -0.00000 0.00000 -19.08468 -7.59328 0.40856 0.65142 5.16274 14.37332 0.52709 16.02034 -27.24300 0.13023 2.32616 6.40793 0.00000 -0.00000 0.00000 10.69202 -0.54399 -0.12297 -0.15844 -2.56471 7.06912 0.30260 -15.55914 -18.65228 -0.01114 0.68162 -1.87317 -5.57608 -1.07749 -6.57101 -0.02771 -0.97203 1.31938 2.99718 -0.65134 5.16476 -13.38520 -9.53080 -16.57380 6.23115 -12.67760 29.81290 2.41164 -6.46359 14.29110 -0.00000 -0.00000 0.00000 -91.91406 -2.73691 23.56683 11.36098 -18.83944 -1.89084 0.00000 -0.00000 -1.64735 -0.00000 -0.00000 0.00000 87.32445 1.48932 16.30218 -13.32356 21.75946 -2.57200 -0.00000 0.00000 -5.07155
0.00000 0.96156 0.00000 134.75300 -84.27870 -130.72800 0.00000 -0.00000 0.00000 -19.07805 -7.84343 -0.07069 0.68377 5.28686 14.72856 0.57028 15.77508 -27.29378 0.13570 2.37429 6.54126 0.00000 -0.00000 0.00000 10.58992 -0.90846 -0.05983 -0.12410 -2.27092 6.25498 0.39564 -15.90932 -18.03764 -0.01407 0.76580 -2.10460 -5.40627 -1.15197 -6.49213 -0.07632 -1.09095 1.23960 2.83937 -0.69965 5.04228 -13.39860 -9.48295 -16.46790 6.19398 -12.61700 29.86770 2.41557 -6.44978 14.28290 -0.00000 0.00000 0.00000 -91.86157 -3.11674 22.54455 10.80582 -17.99000 -1.71547 0.00000 0.00000 1.92316 -0.00000 0.00000 0.00000 87.25084 1.34596 16.80439 -13.42179 21.90210 -2.60853 -0.00000 0.00000 -4.16581
0.00000 0.96168 0.00000 138.68800 -84.49050 -134.66600 0.00000 -0.00000 0.00000 -18.48616 -7.95456 -0.05642 0.67890 5.26840 14.67568 0.54951 15.93891 -27.32097 0.12745 2.30129 6.33907 0.00000 -0.00000 0.00000 11.33699 -0.77937 0.00885 -0.11826 -2.21706 6.10591 0.36087 -15.64436 -18.03041 -0.00001 0.01805 -0.04958 -5.27559 -0.98531 -7.10813 0.01334 -0.82991 1.75400 2.87861 -0.59912 5.91034 -13.02610 -9.56962 -16.79140 5.98702 -12.70530 29.77520 2.24380 -6.45244 14.27280 0.00000 -0.00000 0.00000 -91.77066 -4.84577 19.01236 9.70329 -16.27413 -1.39065 0.00000 0.00000 6.09006 0.00000 -0.00000 0.00000 87.54570 2.45375 15.51801 -12.86669 21.09157 -2.40510 -0.00000 -0.00000 0.65610
0.00000 0.96142 0.00000 137.94400 -84.40970 -134.05800 0.00000 -0.00000 0.00000 -18.60299 -8.06464 0.18360 0.67121 5.23904 14.59162 0.54251 16.09032 -27.43979 0.13802 2.39440 6.59695 0.00000 -0.00000 0.00000 11.27417 -0.75199 0.00831 -0.12899 -2.31507 6.37723 0.35208 -15.54047 -17.96357 -0.00229 -0.30882 0.84851 -5.41076 -0.93920 -7.04970 -0.03469 -0.75639 1.78978 2.91359 -0.56781 5.90998 -13.16520 -9.58391 -16.81880 6.20555 -12.74460 29.72240 2.34430 -6.45412 14.29100 -0.00000 -0.00000 0.00000 -91.79218 -5.79138 13.39809 8.62253 -14.55684 -1.10332 0.00000 0.00000 11.06120 -0.00000 -0.00000 0.00000 87.84821 3.43057 12.37909 -11.74638 19.42320 -2.01716 -0.00000 -0.00000 4.21860
0.00000 0.96137 0.00000 139.13800 -84.61290 -135.25400 0.00000 -0.00000 0.00000 -18.29069 -7.97961 -0.07416 0.69792 5.34016 14.88135 0.55142 15.92287 -27.31729 0.12732 2.30013 6.33587 0.00000 -0.00000 0.00000 11.56924 -0.98354 0.47184 -0.09429 -1.98040 5.45150 0.39082 -15.64280 -17.61304 -0.00480 -0.44733 1.22914 -5.18555 -0.88768 -7.04733 0.04485 -0.71196 1.79305 2.87590 -0.53893 5.90494 -13.68980 -9.62429 -16.39370 6.80944 -12.80710 29.01100 2.67555 -6.46155 13.99410 -0.00000 0.00000 0.00000 -91.42173 -5.70690 14.43672 8.84353 -14.91071 -1.15953 0.00000 0.00000 6.98465 -0.00000 0.00000 0.00000 87.83497 3.61502 11.29168 -11.47973 19.01983 -1.92937 -0.00000 -0.00000 3.56338
0.00000 0.96145 0.00000 136.12100 -84.50800 -132.25300 0.00000 -0.00000 0.00000 -18.58206 -7.75563 -0.01615 0.67874 5.26777 14.67388 0.52475 15.80034 -26.97416 0.12801 2.30630 6.35294 0.00000 -0.00000 0.00000 11.27232 -0.98275 0.08285 -0.12031 -2.23614 6.15873 0.35344 -15.49696 -17.86686 -0.00172 -0.26791 0.73611 -5.50035 -0.84825 -6.68959 -0.01887 -0.65768 1.55963 2.99687 -0.50614 5.45408 -13.69330 -9.65798 -16.37300 6.91181 -12.88200 28.92640 2.70253 -6.48091 13.97160 0.00000 0.00000 0.00000 -91.21113 -4.35844 19.50340 9.80887 -16.44005 -1.42038 0.00000 0.00000 0.21951 0.00000 0.00000 0.00000 87.85977 2.32664 14.14164 -12.28052 20.22400 -2.19830 -0.00000 -0.00000 1.13853
0.00000 0.96129 0.00000 135.41500 -84.58390 -131.51100 0.00000 -0.00000 0.00000 -18.55660 -7.58700 -0.11026 0.67584 5.25671 14.64222 0.53975 15.55331 -26.80996 0.12113 2.24368 6.17958 0.00000 -0.00000 0.00000 11.25068 -1.07391 0.02358 -0.12381 -2.26828 6.24769 0.33859 -15.42201 -17.93601 -0.00630 -0.51272 1.40885 -5.45884 -0.80591 -6.48411 -0.00325 -0.62522 1.33955 2.99634 -0.47537 5.10193 -13.52810 -9.63698 -16.16890 6.58122 -12.84590 29.04690 2.56057 -6.50097 13.93310 -0.00000 -0.00000 0.00000 -91.82417 -3.02622 22.86679 11.08863 -18.42397 -1.80383 0.00000 -0.00000 -1.52676 -0.00000 -0.00000 0.00000 87.99700 1.24112 16.44393 -13.19470 21.57182 -2.52442 -0.00000 0.00000 -3.72366
0.00000 0.96162 0.00000 134.86200 -84.52490 -130.96200 0.00000 -0.00000 0.00000 -18.63478 -7.47453 -0.22248 0.67808 5.26525 14.66667 0.51242 15.62009 -26.67306 0.09496 1.98736 5.47073 0.00000 -0.00000 0.00000 11.14964 -1.11157 0.12603 -0.11428 -2.17952 6.00204 0.34874 -15.44826 -17.84407 -0.00817 -0.58382 1.60430 -5.42251 -0.83483 -7.10854 -0.10054 -0.60914 1.78588 2.86882 -0.49491 5.92512 -13.48190 -9.69615 -16.66180 6.70305 -12.88780 29.01190 2.57303 -6.47431 14.03500 0.00000 0.00000 0.00000 -92.15701 -3.94145 24.72722 11.19488 -18.58635 -1.83756 0.00000 -0.00000 -3.30885 0.00000 0.00000 0.00000 88.31955 2.21904 17.19408 -13.39154 21.85821 -2.59725 -0.00000 0.00000 -5.13313
0.00000 0.96134 0.00000 135.14600 -84.33400 -131.24600 0.00000 -0.00000 0.00000 -18.78859 -7.21897 -0.15702 0.66567 5.21782 14.53088 0.52371 15.50362 -26.62887 0.11719 2.20703 6.07815 0.00000 -0.00000 0.00000 10.98530 -0.87634 -0.09829 -0.13335 -2.35369 6.48419 0.34240 -15.47251 -17.97408 -0.00229 -0.30880 0.84845 -5.57382 -0.75252 -7.15729 -0.14098 -0.48476 1.64312 2.92726 -0.43205 5.79230 -13.21600 -9.51150 -16.56600 6.35806 -12.62300 29.19430 2.45152 -6.38533 14.00800 0.00000 -0.00000 0.00000 -92.31033 -3.71814 26.23655 11.47816 -19.01745 -1.92886 0.00000 -0.00000 -3.55384 0.00000 -0.00000 0.00000 88.27449 2.13747 18.06586 -13.42150 21.90168 -2.60842 -0.00000 0.00000 -5.07760
0.00000 0.96177 0.00000 136.97200 -84.39090 -133.11900 0.00000 -0.00000 0.00000 -18.66777 -7.46955 -0.14333 0.69416 5.32604 14.84087 0.52854 15.70623 -26.89634 0.10439 2.08343 5.73628 0.00000 -0.00000 0.00000 11.10092 -0.99691 0.53069 -0.09495 -1.98723 5.47037 0.39530 -15.63310 -17.53165 -0.00673 -0.52959 1.45523 -5.57468 -0.86323 -7.13679 0.00930 -0.64288 1.57448 3.06663 -0.50907 5.72491 -13.43700 -9.30180 -16.38060 6.45961 -12.26660 28.91780 2.60671 -6.24550 13.83180 0.00000 -0.00000 0.00000 -92.35598 -3.57251 26.41614 11.80786 -19.51586 -2.03765 0.00000 -0.00000 -4.07778 0.00000 -0.00000 0.00000 87.89842 2.26753 19.55872 -13.45718 21.95340 -2.62174 -0.00000 0.00000 -5.84123
0.00000 0.96177 0.00000 136.68800 -84.27870 -132.70400 0.00000 -0.00000 0.00000 -18.85375 -7.52994 -0.21414 0.69935 5.34551 14.89670 0.52757 15.80182 -26.99758 0.09759 2.01457 5.54592 0.00000 -0.00000 0.00000 10.88686 -0.92621 0.43342 -0.09594 -1.99751 5.49877 0.40524 -15.74221 -17.59432 -0.00390 -0.40341 1.10845 -5.57326 -0.84794 -7.34546 -0.09660 -0.60864 1.43244 2.95825 -0.48672 5.68905 -13.31010 -9.22064 -16.60920 6.15018 -12.09890 29.31870 2.48672 -6.20013 13.99820 0.00000 -0.00000 0.00000 -91.92338 -3.70929 26.52860 11.59997 -19.20201 -1.96873 0.00000 -0.00000 -3.68463 0.00000 -0.00000 0.00000 87.83587 1.94117 20.55038 -13.52046 22.04502 -2.64544 -0.00000 0.00000 -7.46842
0.00000 0.96120 0.00000 136.96000 -84.27310 -133.03300 0.00000 -0.00000 0.00000 -18.91784 -7.63321 0.03708 0.69831 5.34161 14.88552 0.58030 15.73174 -27.32119 0.10680 2.10729 5.80224 0.00000 -0.00000 0.00000 10.82716 -0.91164 0.48702 -0.10416 -2.08107 5.72976 0.39874 -15.71624 -17.63767 -0.00000 -0.00482 0.01324 -5.51509 -0.85255 -7.57022 -0.16830 -0.60144 1.45629 2.84947 -0.48448 5.83983 -13.14310 -9.38012 -17.42940 5.83301 -12.25040 30.08200 2.26487 -6.27260 14.49030 0.00000 0.00000 0.00000 -91.67686 -3.72428 25.22038 11.23012 -18.64013 -1.84880 0.00000 -0.00000 -2.01048 0.00000 0.00000 0.00000 87.92454 2.05873 20.12482 -13.28850 21.70847 -2.55901 -0.00000 0.00000 -7.00946
0.00000 0.96101 0.00000 137.47500 -84.03420 -133.73600 0.00000 -0.00000 0.00000 -19.15175 -7.81668 0.39371 0.69433 5.32670 14.84277 0.57217 16.08731 -27.65939 0.11468 2.18334 6.01263 0.00000 -0.00000 0.00000 10.68144 -0.71596 0.62251 -0.11482 -2.18472 6.01642 0.38861 -15.69573 -17.74177 -0.00000 -0.01342 0.03687 -5.66444 -0.77624 -7.48145 -0.22683 -0.48776 1.48517 2.88678 -0.43272 5.81083 -12.81780 -9.31847 -17.48940 5.53019 -12.17630 30.26340 2.10309 -6.24716 14.52250 0.00000 -0.00000 0.00000 -91.46454 -3.94340 24.32978 10.72253 -17.86170 -1.68983 0.00000 -0.00000 -1.43582 0.00000 -0.00000 0.00000 88.00589 1.90064 19.35804 -13.16192 21.52401 -2.51238 -0.00000 0.00000 -6.20301
0.00000 0.96095 0.00000 135.59600 -83.99600 -131.83100 0.00000 -0.00000 0.00000 -19.35452 -7.67437 0.32563 0.69169 5.31675 14.81424 0.55447 16.00034 -27.42805 0.10591 2.09852 5.77799 0.00000 -0.00000 0.00000 10.45866 -0.81572 0.53745 -0.11996 -2.23285 6.14961 0.36588 -15.65459 -17.98061 -0.00112 -0.21576 0.59282 -5.82476 -0.83093 -7.52263 -0.23088 -0.54539 1.40946 2.96554 -0.46379 5.76203 -12.68930 -8.88834 -17.05960 5.41019 -11.61570 30.29700 2.16681 -6.03114 14.35750 -0.00000 0.00000 0.00000 -91.56361 -3.81771 23.24050 10.55355 -17.60074 -1.63837 0.00000 -0.00000 -0.87325 -0.00000 0.00000 0.00000 87.84613 1.74873 18.60511 -13.25706 21.66270 -2.54740 -0.00000 0.00000 -5.01271
0.00000 0.96083 0.00000 136.00100 -84.25690 -132.18800 0.00000 -0.00000 0.00000 -19.10687 -7.61211 0.31832 0.69453 5.32746 14.84495 0.58990 15.72741 -27.38896 0.12583 2.28666 6.29856 0.00000 -0.00000 0.00000 10.74163 -0.98931 0.57926 -0.11806 -2.21515 6.10062 0.34174 -15.55824 -18.13534 -0.00406 -0.41126 1.13001 -5.64652 -0.85650 -7.62003 -0.16018 -0.59593 1.32364 2.93305 -0.48096 5.72963 -11.16970 -7.43116 -18.13730 4.46428 -9.77741 32.66700 1.85512 -5.24164 15.28670 0.00000 0.00000 0.00000 -91.51042 -3.67746 23.39526 10.47205 -17.47455 -1.61381 0.00000 -0.00000 -0.83995 0.00000 0.00000 0.00000 87.85509 1.62000 17.91560 -13.05671 21.37025 -2.47391 -0.00000 0.00000 -4.24579
0.00000 0.96080 0.00000 133.30700 -84.08290 -129.62100 0.00000 -0.00000 0.00000 -19.48683 -7.72044 0.68836 0.67290 5.24550 14.61010 0.56230 15.94083 -27.41999 0.10874 2.12624 5.85466 0.00000 -0.00000 0.00000 10.38962 -1.06428 0.57052 -0.13334 -2.35361 6.48395 0.31708 -15.41483 -18.21322 -0.00117 -0.22053 0.60590 -5.89313 -0.83414 -7.90304 -0.28290 -0.51223 1.46131 2.95092 -0.45752 6.03115 -8.48379 -4.93810 -20.49280 3.59228 -6.80580 36.16830 1.57080 -3.83917 17.06860 -0.00000 0.00000 0.00000 -91.50587 -3.94704 23.36418 10.53232 -17.56788 -1.63195 0.00000 -0.00000 -0.90411 -0.00000 0.00000 0.00000 87.86048 1.77444 17.80316 -13.01890 21.31490 -2.46015 -0.00000 0.00000 -4.39678
0.00000 0.96052 0.00000 131.32200 -84.10540 -127.68600 0.00000 -0.00000 0.00000 -19.60173 -7.62846 0.87741 0.66081 5.19911 14.47735 0.55255 15.88837 -27.28681 0.10078 2.04714 5.63595 0.00000 -0.00000 0.00000 10.28573 -1.23133 0.54897 -0.14336 -2.44012 6.72366 0.29405 -15.38341 -18.46241 -0.00121 -0.22471 0.61740 -6.01797 -0.79336 -7.68147 -0.25688 -0.47458 1.15412 3.05628 -0.42479 5.57806 -6.18849 -2.46667 -21.11760 2.78188 -3.84963 38.64100 1.42203 -2.52672 18.21140 0.00000 0.00000 0.00000 -91.65262 -3.26570 23.86942 10.90263 -18.13884 -1.74549 0.00000 -0.00000 -1.63711 0.00000 0.00000 0.00000 87.72263 1.05047 18.11484 -13.34252 21.78701 -2.57903 -0.00000 0.00000 -4.82393
0.00000 0.96036 0.00000 126.46800 -84.29820 -122.87600 0.00000 -0.00000 0.00000 -19.66749 -7.59095 0.91968 0.65619 5.18126 14.42628 0.54906 15.55245 -26.88106 0.09906 2.02970 5.58774 0.00000 -0.00000 0.00000 10.17149 -1.68972 0.34415 -0.16707 -2.63330 7.25943 0.22370 -14.99075 -18.71067 -0.00505 -0.45896 1.26111 -5.93561 -0.82464 -7.83604 -0.33018 -0.50374 1.30892 2.92749 -0.44558 5.83074 -4.90721 -0.85090 -21.37710 2.24873 -1.69144 39.51660 1.41303 -1.58488 18.60470 0.00000 -0.00000 0.00000 -91.49331 -3.65696 24.84094 10.98330 -18.26264 -1.77068 0.00000 -0.00000 -2.13301 0.00000 -0.00000 0.00000 87.75647 1.46749 17.85536 -13.07193 21.39252 -2.47946 -0.00000 0.00000 -4.90115
0.00000 0.95994 0.00000 122.92200 -84.36960 -119.28900 0.00000 -0.00000 0.00000 -19.69620 -7.28737 0.86258 0.64806 5.14969 14.33600 0.54805 15.17790 -26.45275 0.07645 1.78368 4.90819 0.00000 -0.00000 0.00000 10.06950 -1.96214 0.09392 -0.18890 -2.79916 7.72009 0.18242 -14.84299 -18.98957 -0.00439 -0.42788 1.17570 -6.09737 -0.79046 -7.69356 -0.20935 -0.46711 1.08494 3.15207 -0.42097 5.51264 -3.93697 0.12756 -21.27180 1.60660 -0.35775 40.12510 1.22359 -1.03216 18.85550 -0.00000 -0.00000 0.00000 -91.91670 -3.15864 24.55862 11.08996 -18.42601 -1.80425 0.00000 -0.00000 -2.07087 -0.00000 -0.00000 0.00000 87.61898 0.68961 18.00714 -13.23796 21.63488 -2.54035 -0.00000 0.00000 -5.62569
0.00000 0.95998 0.00000 118.64900 -84.42040 -115.18300 0.00000 -0.00000 0.00000 -19.71327 -7.06257 0.93924 0.65359 5.17116 14.39738 0.52707 14.89950 -25.97414 0.06679 1.66737 4.58725 0.00000 -0.00000 0.00000 10.08484 -2.44105 0.34858 -0.18833 -2.79495 7.70839 0.13732 -14.72919 -19.36088 -0.00777 -0.56905 1.56371 -6.16233 -0.77528 -8.15012 -0.31485 -0.38640 1.48475 3.08408 -0.40987 6.18820 -2.59943 1.06600 -21.56330 1.08943 0.77684 40.44230 0.98844 -0.45633 19.08720 0.00000 -0.00000 0.00000 -91.80306 -3.52720 24.45993 11.12275 -18.47615 -1.81463 0.00000 -0.00000 -1.78912 0.00000 -0.00000 0.00000 87.76380 1.53847 17.37885 -13.18267 21.55428 -2.52000 -0.00000 0.00000 -4.42775
0.00000 0.95985 0.00000 116.42500 -84.77470 -112.89100 0.00000 -0.00000 0.00000 -19.28162 -7.29231 1.02740 0.62113 5.04355 14.03281 0.51823 14.88387 -25.88550 0.08267 1.85459 5.10397 0.00000 -0.00000 0.00000 10.59349 -2.62419 -0.15381 -0.23254 -3.10370 8.56758 0.01861 -14.16765 -19.91742 -0.02288 -0.97663 2.68451 -5.93056 -0.66761 -7.90063 -0.23384 -0.29943 1.18205 3.05265 -0.34023 5.71411 -2.01875 2.17836 -20.73100 1.51645 1.98126 41.03280 1.34622 0.13513 19.17890 -0.00000 0.00000 0.00000 -91.82235 -3.02689 24.45890 11.10752 -18.45287 -1.80981 0.00000 -0.00000 -2.15082 -0.00000 0.00000 0.00000 87.79846 1.11407 17.36046 -13.25359 21.65764 -2.54611 -0.00000 0.00000 -4.76764
0.00000 0.96020 0.00000 112.77500 -85.08630 -109.23800 0.00000 -0.00000 0.00000 -18.88273 -7.26622 0.56550 0.63989 5.11774 14.24468 0.41482 14.93475 -25.09239 0.03915 1.27712 3.51164 0.00000 -0.00000 0.00000 10.96397 -3.18454 0.18589 -0.18612 -2.77860 7.66295 0.07080 -14.41137 -19.66914 -0.03934 -1.28011 3.51989 -5.77253 -0.62990 -7.82689 -0.09556 -0.27009 1.33335 3.11260 -0.32847 5.82864 -0.97941 3.17446 -20.83680 1.12573 3.26429 41.56160 1.26065 0.72608 19.54360 -0.00000 0.00000 0.00000 -91.78456 -3.31132 24.72374 11.20540 -18.60241 -1.84091 0.00000 -0.00000 -2.94879 -0.00000 0.00000 0.00000 87.71830 1.50202 17.19847 -13.22974 21.62291 -2.53732 -0.00000 0.00000 -4.53855
0.00000 0.95930 0.00000 106.90400 -85.04550 -103.51500 0.00000 -0.00000 0.00000 -19.09133 -7.54650 1.21560 0.60454 4.97696 13.84286 0.42783 14.87078 -25.12721 0.05174 1.46789 4.03721 0.00000 -0.00000 0.00000 10.79772 -3.49485 -0.26828 -0.25785 -3.26702 9.02306 -0.04494 -13.95371 -20.33046 -0.02351 -0.98983 2.72082 -5.79231 -0.49654 -8.33927 -0.09972 -0.04470 1.62118 3.14892 -0.24038 6.40460 -0.27507 4.03669 -20.72760 1.06233 4.33248 42.10370 1.34816 1.22482 19.87040 0.00000 0.00000 0.00000 -91.91034 -3.66229 24.49796 11.14715 -18.51345 -1.82237 0.00000 -0.00000 -2.23226 0.00000 0.00000 0.00000 87.65175 1.78308 16.77950 -13.13085 21.47864 -2.50099 -0.00000 0.00000 -4.60388
0.00000 0.95942 0.00000 101.67100 -85.61830 -98.03980 0.00000 -0.00000 0.00000 -18.56685 -8.00263 0.70369 0.67468 5.25231 14.62962 0.53939 14.28669 -25.39238 0.07150 1.72505 4.74639 0.00000 -0.00000 0.00000 11.17067 -4.25456 0.18389 -0.18080 -2.73875 7.55224 0.07086 -14.34920 -19.57708 -0.01822 -0.87155 2.39544 -4.84425 -0.40653 -8.40578 -0.01770 -0.03730 1.21622 2.70270 -0.18542 6.00605 0.91834 5.02388 -19.54300 0.58993 5.53558 42.49960 1.13907 1.79775 19.85880 0.00000 0.00000 0.00000 -91.76515 -3.00711 24.92719 11.04071 -18.35063 -1.78872 0.00000 -0.00000 -2.36844 0.00000 0.00000 0.00000 87.71218 0.89566 16.75638 -13.32333 21.75912 -2.57191 -0.00000 0.00000 -4.44219
0.00000 0.96176 0.00000 103.67100 -87.02910 -99.53590 0.00000 -0.00000 0.00000 -16.38599 -8.48427 -0.92146 0.74737 5.52207 15.40380 0.51752 14.12192 -25.02891 0.07224 1.73392 4.77088 0.00000 -0.00000 0.00000 13.37041 -4.83065 1.25748 -0.04006 -1.29182 3.55212 0.29331 -15.07454 -17.94127 -0.09885 -2.02750 5.58165 -3.96385 -0.16181 -6.86739 0.52881 0.08860 0.61090 2.78748 -0.06034 4.48484 1.96051 6.06119 -19.02480 0.46533 6.80117 42.84600 1.16536 2.43254 20.01270 -0.00000 -0.00000 0.00000 -91.79602 -2.55680 24.85903 11.37399 -18.85923 -1.89505 0.00000 -0.00000 -2.23388 -0.00000 -0.00000 0.00000 87.81105 0.60024 16.76595 -13.31029 21.74016 -2.56708 -0.00000 0.00000 -4.09231
0.00000 0.95994 0.00000 88.64500 -86.05930 -85.10080 0.00000 -0.00000 0.00000 -17.79608 -8.04040 0.21661 0.70224 5.35632 14.92770 0.53578 13.52531 -24.52778 0.05777 1.55091 4.26608 0.00000 -0.00000 0.00000 11.95318 -5.38120 0.51892 -0.14003 -2.41174 6.64499 0.09231 -14.36500 -19.34728 -0.03626 -1.22911 3.37942 -4.42325 -0.27447 -7.96441 0.23290 0.06547 1.41985 2.74127 -0.12611 5.95988 2.76171 6.86292 -19.01920 0.28351 7.86168 42.98510 1.18238 2.95245 20.18910 0.00000 -0.00000 0.00000 -91.96319 -3.34554 24.53583 11.13965 -18.50198 -1.81999 0.00000 -0.00000 -2.29431 0.00000 -0.00000 0.00000 87.77094 1.13388 16.51781 -13.25081 21.65360 -2.54509 -0.00000 0.00000 -4.16276
0.00000 0.95997 0.00000 84.19110 -85.66160 -80.50060 0.00000 -0.00000 0.00000 -18.26094 -8.59393 0.19184 0.69975 5.34703 14.90106 0.53209 13.67119 -24.65547 0.06456 1.63937 4.51001 0.00000 -0.00000 0.00000 11.46907 -5.70148 0.27429 -0.13873 -2.40059 6.61412 0.09986 -14.36684 -19.25979 -0.02678 -1.05652 2.90435 -4.58911 -0.27566 -7.91550 0.15314 0.07812 1.27612 2.75219 -0.11783 5.77971 3.62042 7.77138 -18.40030 0.02556 9.10425 43.04140 1.16410 3.54547 20.16570 0.00000 0.00000 0.00000 -91.94716 -2.91473 24.51846 11.23937 -18.65423 -1.85176 0.00000 -0.00000 -2.48148 0.00000 0.00000 0.00000 87.70679 0.95586 16.88724 -13.14159 21.49432 -2.50493 -0.00000 0.00000 -4.03735
0.00000 0.96023 0.00000 83.11570 -85.37540 -79.51530 0.00000 -0.00000 0.00000 -18.39748 -7.82014 -0.12659 0.67930 5.26992 14.68004 0.46218 13.33037 -23.67271 0.04037 1.29679 3.56580 0.00000 -0.00000 0.00000 11.27379 -5.78414 0.15342 -0.14584 -2.46108 6.78174 0.05303 -14.10784 -19.43309 -0.05593 -1.52607 4.19759 -4.85290 -0.11554 -7.46941 0.07518 0.29497 1.21873 2.84334 -0.00932 5.44774 3.92870 8.36658 -17.86220 0.28422 9.84913 42.90940 1.37822 3.94694 19.93980 0.00000 -0.00000 0.00000 -91.84133 -2.79175 24.74049 11.21314 -18.61422 -1.84338 0.00000 -0.00000 -2.95267 0.00000 -0.00000 0.00000 87.78585 0.89266 16.54700 -13.18267 21.55428 -2.52000 -0.00000 0.00000 -4.00740
0.00000 0.96158 0.00000 88.25820 -86.09810 -84.37660 0.00000 -0.00000 0.00000 -17.41685 -7.74342 -1.25514 0.71877 5.41766 15.10375 0.42457 13.42074 -23.43701 0.05144 1.46365 4.02554 0.00000 -0.00000 0.00000 12.32523 -5.32412 0.14265 -0.10230 -2.06248 5.67836 0.08722 -14.08076 -18.98433 -0.15096 -2.50372 6.89996 -4.64719 0.10529 -6.53053 0.43399 0.49823 0.96234 3.11569 0.11780 4.62673 4.82908 8.98855 -17.25400 -0.47225 10.86460 42.59320 1.04972 4.40798 19.75960 -0.00000 0.00000 0.00000 -92.05692 -2.73222 24.68708 11.28093 -18.71759 -1.86508 0.00000 -0.00000 -3.44532 -0.00000 0.00000 0.00000 87.58147 0.85068 16.99543 -13.45718 21.95340 -2.62174 -0.00000 0.00000 -4.22086
0.00000 0.95917 0.00000 84.40720 -85.16890 -81.18750 0.00000 -0.00000 0.00000 -19.11287 -7.20199 -0.05572 0.73013 5.45939 15.22361 0.54818 12.68730 -23.73454 0.05171 1.46753 4.03622 0.00000 -0.00000 0.00000 10.33453 -5.83437 0.72613 -0.13836 -2.39736 6.60516 0.11405 -14.37077 -19.09465 -0.03419 -1.19352 3.28143 -4.57889 0.04021 -7.78659 -0.04150 0.51807 1.86044 2.59972 0.08059 6.28955 5.10339 9.42053 -17.13730 -0.51652 11.47990 42.63030 1.11824 4.68881 19.80960 -0.00000 -0.00000 0.00000 -91.96511 -3.30216 24.74141 11.38471 -18.87553 -1.89851 0.00000 -0.00000 -3.54874 -0.00000 -0.00000 0.00000 87.54257 1.39908 16.78872 -13.27738 21.69229 -2.55490 -0.00000 0.00000 -4.14877
0.00000 0.96307 0.00000 105.28700 -87.06260 -101.30300 0.00000 -0.00000 0.00000 -16.53210 -7.54782 -2.28087 0.80117 5.71283 15.95343 0.42175 13.59309 -23.60711 0.05195 1.47092 4.04556 0.00000 -0.00000 0.00000 12.93824 -4.76185 1.37346 -0.02250 -0.96844 2.66199 0.32528 -15.05084 -17.45919 -0.20882 -2.94214 8.11770 -3.65743 0.52550 -5.90169 0.64586 0.95339 1.44360 2.81971 0.35779 4.74235 5.60891 9.85048 -16.55400 -0.81644 12.10050 42.64100 0.99717 4.97545 19.77250 -0.00000 0.00000 0.00000 -91.86524 -3.76181 24.70371 11.35997 -18.83792 -1.89052 0.00000 -0.00000 -3.56778 -0.00000 0.00000 0.00000 87.40740 1.96373 17.09995 -13.27628 21.69069 -2.55450 -0.00000 0.00000 -4.24780
0.00000 0.96025 0.00000 93.68990 -85.13780 -90.38910 0.00000 -0.00000 0.00000 -19.56073 -6.95195 -1.36175 0.85321 5.89090 16.46819 0.55894 12.72808 -23.87202 0.03482 1.20446 3.31157 0.00000 -0.00000 0.00000 9.53811 -6.12863 3.90134 0.00000 -0.00000 0.00000 0.60035 -16.33647 -15.79063 -0.02659 -1.05266 2.89372 -5.02813 0.20919 -6.46871 -0.12607 0.71718 1.98401 2.77384 0.17692 5.64905 5.70183 10.30660 -15.75300 -0.45086 12.60730 43.01810 1.22818 5.22825 19.78190 0.00000 -0.00000 0.00000 -91.75819 -3.25648 24.67758 11.64590 -19.27148 -1.98387 0.00000 -0.00000 -3.63164 0.00000 -0.00000 0.00000 87.44386 1.39388 17.63358 -13.53501 22.06607 -2.65091 -0.00000 0.00000 -4.64437
0.00000 0.96130 0.00000 98.28810 -85.63420 -94.61070 0.00000 -0.00000 0.00000 -19.09084 -6.85445 -2.15541 0.88249 5.98853 16.75116 0.62580 12.35773 -24.06628 0.06491 1.64383 4.52233 0.00000 -0.00000 0.00000 9.93694 -5.61926 3.32437 0.00000 -0.00000 0.00000 0.63895 -16.53121 -15.57135 -0.02501 -1.02105 2.80674 -4.84056 0.31123 -6.47336 -0.17630 0.84664 2.24107 2.63193 0.23665 5.91435 6.19347 10.65000 -14.84920 -0.37809 12.92930 42.80250 1.18899 5.47377 19.45190 0.00000 0.00000 0.00000 -91.39326 -3.92775 24.47478 11.42331 -18.93419 -1.91102 0.00000 -0.00000 -3.38883 0.00000 0.00000 0.00000 87.70752 1.64408 18.00532 -13.55358 22.09293 -2.65789 -0.00000 0.00000 -4.87756
0.00000 0.96185 0.00000 107.66600 -85.60420 -103.59600 0.00000 -0.00000 0.00000 -19.29485 -7.03052 -2.58800 0.89159 6.01853 16.83818 0.66643 12.49315 -24.54963 0.13423 2.36144 6.50564 0.00000 -0.00000 0.00000 9.76012 -4.77517 2.88804 0.00000 -0.00000 0.00000 0.66944 -16.72762 -15.49949 -0.02174 -0.95202 2.61680 -4.92460 0.38907 -6.13530 -0.26325 0.94593 2.42166 2.59541 0.28027 5.90409 5.90173 11.01910 -14.96630 0.03419 13.41660 42.95890 1.54764 5.66434 19.51520 0.00000 0.00000 0.00000 -91.18400 -4.43988 24.43031 11.32906 -18.79088 -1.88055 0.00000 -0.00000 -3.14611 0.00000 0.00000 0.00000 87.64565 2.06952 18.13298 -13.48898 21.99947 -2.63364 -0.00000 0.00000 -4.69512
0.00000 0.96274 0.00000 122.60500 -85.76360 -118.21800 0.00000 -0.00000 0.00000 -18.87989 -6.93516 -3.25652 0.93590 6.16221 17.25579 0.72147 12.70953 -25.22275 0.19024 2.80899 7.74740 0.00000 -0.00000 0.00000 10.17140 -3.64388 2.49156 0.00000 -0.00000 0.00000 0.69848 -16.91258 -15.42900 -0.03818 -1.26119 3.46777 -4.60229 0.62807 -5.40867 -0.28157 1.19188 2.18478 2.40653 0.43521 5.22405 6.15759 10.94420 -14.46180 -0.04128 13.23330 42.44490 1.37567 5.66115 19.08000 0.00000 -0.00000 0.00000 -90.96678 -4.30623 24.26622 11.22027 -18.62509 -1.84565 0.00000 -0.00000 -2.53190 0.00000 -0.00000 0.00000 87.55070 1.83172 18.65107 -13.48794 21.99795 -2.63325 -0.00000 0.00000 -5.03284
0.00000 0.96287 0.00000 127.66000 -84.82890 -123.17800 0.00000 -0.00000 0.00000 -19.83850 -6.45141 -3.33720 0.90968 6.07765 17.00989 0.73714 12.86111 -25.50119 0.23544 3.12285 8.62096 0.00000 -0.00000 0.00000 9.21844 -2.75711 2.42724 0.00000 0.00000 -0.00000 0.72577 -17.08701 -15.36732 -0.04516 -1.37147 3.77154 -5.37727 0.59265 -5.06271 -0.47606 1.18481 2.15901 2.63119 0.41401 4.99301 5.74250 10.60270 -14.84030 0.10348 12.76700 41.81490 1.40804 5.46237 18.70100 0.00000 0.00000 0.00000 -90.89547 -4.41704 24.17339 11.12225 -18.47539 -1.81447 0.00000 -0.00000 -2.08822 0.00000 0.00000 0.00000 87.44199 2.24507 18.84324 -13.46724 21.96797 -2.62550 -0.00000 0.00000 -5.16827
0.00000 0.96283 0.00000 132.66500 -84.14440 -128.16500 0.00000 -0.00000 0.00000 -20.51418 -6.51924 -3.01459 0.89763 6.03833 16.89567 0.76764 13.43864 -26.32189 0.25204 3.23026 8.92049 0.00000 -0.00000 0.00000 8.64305 -1.96928 2.54523 0.00000 0.00000 -0.00000 0.73673 -17.14919 -15.32312 -0.05148 -1.46424 4.02716 -5.77087 0.46061 -5.01768 -0.44494 1.02234 1.88146 2.86698 0.33514 4.68500 4.19438 9.59383 -15.21690 0.48826 11.51470 41.64310 1.57680 4.77021 18.43990 -0.00000 -0.00000 0.00000 -91.04289 -4.05048 24.11343 10.97775 -18.25414 -1.76895 0.00000 -0.00000 -1.66655 -0.00000 -0.00000 0.00000 87.24592 1.71473 19.73335 -13.66390 22.25218 -2.69952 -0.00000 0.00000 -5.10593
0.00000 0.96254 0.00000 137.01200 -83.37240 -132.60800 0.00000 -0.00000 0.00000 -20.98462 -5.80019 -3.03360 0.89497 6.02962 16.87039 0.80887 13.37764 -26.57934 0.29094 3.46866 9.58638 0.00000 -0.00000 0.00000 8.15635 -1.12772 2.77564 0.00000 -0.00000 0.00000 0.76642 -17.27788 -15.09873 -0.03945 -1.28197 3.52499 -5.93629 0.53445 -5.07741 -0.60107 1.14093 1.87681 2.80819 0.38980 4.70392 1.89389 7.30500 -16.72020 1.20691 8.38517 41.86990 1.73522 3.21556 18.67140 0.00000 -0.00000 0.00000 -90.75419 -4.49950 24.70170 11.00215 -18.29155 -1.77660 0.00000 -0.00000 -1.99091 0.00000 -0.00000 0.00000 87.47568 2.23771 19.74770 -13.78610 22.42810 -2.74597 -0.00000 0.00000 -6.12738
0.00000 0.96199 0.00000 142.26900 -82.90610 -138.10700 0.00000 -0.00000 0.00000 -21.09373 -5.40488 -2.71325 0.90989 6.07834 17.01189 0.86360 13.57283 -27.18649 0.31024 3.58084 9.90030 0.00000 -0.00000 0.00000 8.14584 -0.38719 3.12252 0.00000 -0.00000 0.00000 0.82478 -17.60369 -14.84634 -0.00685 -0.53441 1.46848 -5.67538 0.47937 -5.21925 -0.55173 1.05724 1.84522 2.70817 0.35507 4.76147 -0.99988 4.89802 -17.30980 2.16746 5.22121 41.84090 2.06577 1.60725 18.62090 -0.00000 -0.00000 0.00000 -90.71517 -4.78019 24.94962 11.09352 -18.43145 -1.80538 0.00000 -0.00000 -2.20260 -0.00000 -0.00000 0.00000 87.49684 2.27325 20.38525 -14.02698 22.77326 -2.83854 -0.00000 0.00000 -6.61765
0.00000 0.96213 0.00000 145.85000 -82.32180 -141.72500 0.00000 -0.00000 0.00000 -21.23027 -5.05496 -2.74081 0.92660 6.13238 17.16900 0.86471 13.86012 -27.47815 0.29521 3.49375 9.65655 0.00000 -0.00000 0.00000 8.04031 0.37311 3.19773 0.00000 0.00000 -0.00000 0.87776 -17.87956 -14.55875 -0.00019 -0.09017 0.24773 -5.72107 0.20283 -5.53852 -0.35080 0.71078 1.96704 2.91628 0.16756 5.09940 -3.12790 2.97662 -17.94280 2.33063 2.93581 41.71200 2.07337 0.36576 18.72960 -0.00000 -0.00000 0.00000 -90.88224 -5.29452 25.31128 11.15850 -18.53079 -1.82598 0.00000 -0.00000 -2.64567 -0.00000 -0.00000 0.00000 87.10933 2.65138 21.75981 -14.38034 23.27582 -2.97675 -0.00000 0.00000 -7.50946
0.00000 0.96220 0.00000 151.92500 -81.82130 -147.77800 0.00000 -0.00000 0.00000 -20.88811 -4.68006 -2.65992 0.93405 6.15629 17.23858 0.88968 14.15276 -27.95072 0.29507 3.49294 9.65429 0.00000 -0.00000 0.00000 8.46591 1.26716 3.30959 0.00000 0.00000 -0.00000 0.92685 -18.11434 -14.22092 -0.00226 0.30670 -0.84269 -5.06593 0.21208 -5.58646 -0.23987 0.66897 1.79424 2.66003 0.17465 4.95152 -3.94757 1.60639 -18.32600 2.09435 1.11618 42.10600 1.74224 -0.56175 19.17620 0.00000 -0.00000 0.00000 -90.63673 -5.11634 26.36219 11.21314 -18.61422 -1.84338 0.00000 -0.00000 -3.56920 0.00000 -0.00000 0.00000 87.23845 2.53725 22.18772 -14.23604 23.07115 -2.91997 -0.00000 0.00000 -8.78853
0.00000 0.96217 0.00000 150.81600 -80.79910 -146.75600 0.00000 -0.00000 0.00000 -21.71390 -4.52914 -2.28503 0.88370 5.99253 16.76275 0.83089 14.81103 -28.18829 0.29803 3.51027 9.70277 0.00000 -0.00000 0.00000 7.71992 2.04233 3.42212 0.00000 -0.00000 0.00000 0.95482 -18.27908 -14.12387 -0.00528 0.46939 -1.28977 -5.69515 -0.00816 -5.61818 -0.26899 0.42548 1.83580 2.95977 0.03104 5.03288 -5.13877 0.64282 -18.10560 2.44471 -0.12715 41.73660 1.85840 -1.19066 18.95230 -0.00000 -0.00000 0.00000 -90.69641 -5.24207 26.23923 11.30747 -18.75801 -1.87360 0.00000 -0.00000 -4.07795 -0.00000 -0.00000 0.00000 87.10115 2.86666 21.70005 -13.91490 22.61291 -2.79530 -0.00000 0.00000 -7.97958
0.00000 0.96211 0.00000 150.19400 -80.14490 -146.23700 0.00000 -0.00000 0.00000 -22.23286 -4.41019 -1.70716 0.81997 5.77788 16.14128 0.76757 15.42570 -28.37043 0.30008 3.52220 9.73616 0.00000 -0.00000 0.00000 7.27180 2.49103 3.64959 0.00000 -0.00000 0.00000 0.96807 -18.37369 -14.13373 -0.00971 0.63630 -1.74857 -5.90399 -0.11602 -5.77742 -0.40214 0.31489 1.89055 2.92797 -0.03476 5.19236 -5.77700 -0.35725 -17.89860 2.40599 -1.47151 41.40380 1.66991 -1.82383 18.78970 0.00000 -0.00000 0.00000 -90.57870 -5.13424 26.59059 11.32610 -18.78637 -1.87960 0.00000 -0.00000 -4.18913 0.00000 -0.00000 0.00000 87.31030 2.94281 20.04271 -13.56273 22.10615 -2.66133 -0.00000 0.00000 -6.08270
0.00000 0.96144 0.00000 151.79000 -80.02290 -147.53900 0.00000 -0.00000 0.00000 -21.90180 -3.61018 -1.95714 0.78899 5.67026 15.83063 0.80343 14.86716 -28.04720 0.29920 3.51708 9.72182 0.00000 -0.00000 0.00000 7.60804 3.18862 2.19133 -0.01783 -0.86222 2.36978 0.79360 -17.53404 -15.26358 -0.00292 0.34891 -0.95868 -5.78782 -0.29092 -5.93728 -0.25541 0.07243 1.70337 2.99207 -0.14592 5.10899 -6.63506 -1.27029 -17.75710 2.45515 -2.55821 40.79800 1.62029 -2.35807 18.48290 -0.00000 -0.00000 0.00000 -90.71878 -4.87345 26.41678 11.36924 -18.85201 -1.89351 0.00000 -0.00000 -4.30334 -0.00000 -0.00000 0.00000 87.26455 2.29905 19.10506 -13.50824 22.02734 -2.64086 -0.00000 0.00000 -5.19977
0.00000 0.96116 0.00000 149.73500 -79.74790 -145.65800 0.00000 -0.00000 0.00000 -22.37690 -3.71781 -1.37177 0.75529 5.55062 15.48594 0.79267 15.14995 -28.26234 0.28760 3.44883 9.53092 0.00000 -0.00000 0.00000 7.17846 3.46491 1.55795 -0.05278 -1.48261 4.07780 0.68239 -17.08215 -16.12292 -0.00341 0.37686 -1.03548 -6.01542 -0.36809 -6.12090 -0.40753 0.01214 1.88629 2.95441 -0.19426 5.41333 -7.31603 -2.29142 -17.69810 2.47714 -3.70420 39.42010 1.52248 -2.83880 17.77390 -0.00000 -0.00000 0.00000 -90.67748 -5.21294 26.74664 11.11291 -18.46111 -1.81151 0.00000 -0.00000 -4.45728 -0.00000 -0.00000 0.00000 87.17733 2.09208 18.80471 -13.43027 21.91440 -2.61169 -0.00000 0.00000 -5.30976
0.00000 0.96181 0.00000 153.86000 -80.18420 -149.54200 0.00000 -0.00000 0.00000 -21.22491 -4.31535 -1.55451 0.81284 5.75330 16.07027 0.90990 15.02942 -28.97012 0.32398 3.65851 10.11786 0.00000 -0.00000 0.00000 8.33536 2.73310 3.65322 0.00000 -0.00000 0.00000 0.89646 -18.01647 -14.57610 -0.00193 0.28347 -0.77886 -5.35360 -0.49354 -6.36268 -0.06534 -0.21175 1.69957 2.91688 -0.28135 5.37133 -8.02051 -3.06236 -17.49560 2.41778 -4.43357 38.05620 1.48232 -3.17881 17.05140 0.00000 -0.00000 0.00000 -91.04405 -4.93187 25.46524 11.08446 -18.41760 -1.80252 0.00000 -0.00000 -3.03533 0.00000 -0.00000 0.00000 87.26273 1.89360 17.61095 -12.93008 21.18468 -2.42796 -0.00000 0.00000 -4.11069
0.00000 0.96206 0.00000 154.59400 -80.42030 -150.20600 0.00000 -0.00000 0.00000 -20.81336 -4.54659 -1.33529 0.80558 5.72815 15.99766 0.92298 15.09452 -29.12652 0.29513 3.49331 9.65533 0.00000 -0.00000 0.00000 8.78015 2.54696 3.72624 0.00000 -0.00000 0.00000 0.87389 -17.87672 -14.63145 -0.00005 0.04762 -0.13083 -5.11758 -0.57297 -6.21961 0.08257 -0.36323 1.28924 2.92384 -0.32983 4.87107 -8.96440 -3.79096 -16.67900 2.74294 -5.24615 36.52310 1.65279 -3.54485 16.16610 0.00000 -0.00000 0.00000 -91.22766 -4.05116 25.38900 11.29956 -18.74595 -1.87106 0.00000 -0.00000 -3.13644 0.00000 -0.00000 0.00000 87.09427 1.34830 17.67441 -12.94084 21.20047 -2.43185 -0.00000 0.00000 -4.32219
0.00000 0.96134 0.00000 151.73100 -80.41970 -147.42200 0.00000 -0.00000 0.00000 -21.18051 -5.14215 -0.53580 0.74880 5.52724 15.41869 0.93018 15.48894 -29.57362 0.35633 3.83500 10.61293 0.00000 -0.00000 0.00000 8.54086 2.79147 2.29471 -0.03306 -1.17365 3.22673 0.62572 -16.79419 -16.40282 -0.00009 -0.06165 0.16937 -5.33759 -0.60262 -7.01724 -0.10046 -0.32083 1.52812 2.85776 -0.33577 5.57314 -8.85903 -4.22905 -17.19360 2.58198 -5.68486 35.76900 1.47777 -3.67717 15.93840 0.00000 -0.00000 0.00000 -91.20158 -4.29159 25.68733 11.32973 -18.79189 -1.88077 0.00000 -0.00000 -3.43970 0.00000 -0.00000 0.00000 87.20316 1.73395 17.45423 -13.02322 21.32123 -2.46172 -0.00000 0.00000 -4.40439
0.00000 0.96186 0.00000 150.66400 -80.63810 -146.28600 0.00000 -0.00000 0.00000 -20.94359 -5.37143 -0.37886 0.71386 5.39953 15.05170 0.79839 16.00058 -29.19527 0.25089 3.22295 8.90010 0.00000 -0.00000 0.00000 8.84426 2.79424 1.41156 -0.07057 -1.71386 4.71551 0.53046 -16.41386 -17.08110 -0.00180 -0.27399 0.75282 -5.54519 -0.63931 -7.32422 -0.07583 -0.33035 1.59021 2.99813 -0.35560 5.81723 -9.35036 -4.80488 -17.35410 3.11058 -6.35669 34.40380 1.66662 -3.87691 15.41100 -0.00000 -0.00000 0.00000 -91.17564 -4.81302 25.73467 11.11580 -18.46553 -1.81243 0.00000 -0.00000 -3.57849 -0.00000 -0.00000 0.00000 87.27405 2.25370 18.00267 -13.18521 21.55799 -2.52094 -0.00000 0.00000 -4.96487
0.00000 0.96127 0.00000 149.93700 -81.21040 -145.65900 0.00000 -0.00000 0.00000 -20.42015 -5.32133 -0.15099 0.70254 5.35744 14.93092 0.73485 15.91677 -28.65865 0.18620 2.77913 7.66443 0.00000 -0.00000 0.00000 9.44877 2.34315 1.15647 -0.09766 -2.01533 5.54802 0.42135 -15.94851 -17.75424 -0.00257 -0.32717 0.89893 -5.44887 -0.65864 -7.07946 0.02383 -0.39331 1.33381 3.04249 -0.36891 5.41268 -9.39224 -5.25271 -17.69820 2.94319 -6.81426 33.84420 1.51172 -4.05967 15.26000 0.00000 0.00000 0.00000 -91.40465 -4.19174 25.39936 11.24550 -18.66357 -1.85372 0.00000 -0.00000 -3.43617 0.00000 0.00000 0.00000 87.24225 1.84508 18.99494 -13.76223 22.39378 -2.73687 -0.00000 0.00000 -6.07275
0.00000 0.96142 0.00000 146.44400 -81.77910 -142.23400 0.00000 -0.00000 0.00000 -20.27019 -5.56563 0.19447 0.67001 5.23447 14.57854 0.62619 16.07739 -28.04840 0.12402 2.27017 6.25292 0.00000 -0.00000 0.00000 9.59222 1.73120 0.62369 -0.14405 -2.44597 6.73986 0.31440 -15.49363 -18.38566 -0.00108 -0.21233 0.58338 -5.61161 -0.81857 -7.33742 0.08222 -0.57840 1.32309 3.17188 -0.47032 5.56890 -9.91689 -5.60677 -17.82070 3.32377 -7.18008 33.13320 1.69169 -4.19145 15.03260 0.00000 0.00000 0.00000 -91.60226 -4.08459 25.11371 11.32783 -18.78901 -1.88015 0.00000 -0.00000 -3.60495 0.00000 0.00000 0.00000 87.22930 2.19369 18.82933 -13.53402 22.06464 -2.65054 -0.00000 0.00000 -5.69193
0.00000 0.96035 0.00000 144.66400 -82.44950 -140.47200 0.00000 -0.00000 0.00000 -19.92108 -6.29975 0.69832 0.66878 5.22974 14.56499 0.71308 15.89135 -28.47560 0.16299 2.60111 7.17010 0.00000 -0.00000 0.00000 9.98064 1.06444 0.52121 -0.15997 -2.57700 7.10321 0.28487 -15.42122 -18.64556 -0.00016 -0.08269 0.22719 -5.22056 -0.78390 -7.68221 0.06236 -0.54833 1.25626 2.93301 -0.44393 5.68554 -9.96713 -5.87366 -17.71100 3.55510 -7.57558 32.54040 1.72725 -4.31033 14.78290 -0.00000 0.00000 0.00000 -91.52961 -3.70971 25.41413 11.40951 -18.91322 -1.90654 0.00000 -0.00000 -3.78768 -0.00000 0.00000 0.00000 87.36990 2.01538 18.56328 -13.51365 22.03517 -2.64289 -0.00000 0.00000 -5.44529
0.00000 0.95970 0.00000 141.42600 -82.96150 -137.35900 0.00000 -0.00000 0.00000 -19.55307 -6.47689 0.97939 0.63279 5.08979 14.16483 0.56948 16.22576 -27.79564 0.11983 2.23164 6.14627 0.00000 -0.00000 0.00000 10.40276 0.56040 0.08559 -0.21455 -2.98203 8.22873 0.13547 -14.76642 -19.44002 -0.00730 -0.55188 1.51650 -5.33976 -0.86849 -7.97611 0.12861 -0.63128 1.37108 3.05671 -0.49960 5.98479 -10.24910 -6.10662 -17.86240 3.60445 -7.75706 32.13340 1.75866 -4.39123 14.66760 0.00000 -0.00000 0.00000 -91.63427 -3.87914 25.08999 11.33112 -18.79402 -1.88121 0.00000 -0.00000 -3.50304 0.00000 -0.00000 0.00000 87.32114 1.98409 18.81151 -13.30467 21.73198 -2.56500 -0.00000 0.00000 -6.36634
0.00000 0.95985 0.00000 138.63000 -83.53720 -134.58600 0.00000 -0.00000 0.00000 -19.01748 -6.49563 1.15318 0.59340 4.93168 13.71381 0.46890 16.24148 -27.05200 0.06676 1.66699 4.58620 0.00000 -0.00000 0.00000 10.95250 0.03921 -0.31643 -0.25659 -3.25911 9.00097 0.03035 -14.33688 -20.02559 -0.02268 -0.97236 2.67277 -5.31149 -0.87243 -7.99629 0.16515 -0.64418 1.23583 3.07803 -0.49963 5.85435 -10.58600 -6.32311 -17.67550 4.04146 -8.10281 31.79670 1.93468 -4.51142 14.54780 0.00000 -0.00000 0.00000 -91.71638 -3.39295 24.26151 11.45338 -18.97986 -1.92079 0.00000 -0.00000 -2.91808 0.00000 -0.00000 0.00000 87.45770 1.73730 18.51441 -13.18227 21.55369 -2.51985 -0.00000 0.00000 -6.11108
0.00000 0.95953 0.00000 130.30800 -83.87890 -126.46200 0.00000 -0.00000 0.00000 -19.28977 -7.19416 2.04143 0.53314 4.67874 12.99450 0.39302 16.50552 -26.77414 0.07464 1.76242 4.84953 0.00000 -0.00000 0.00000 10.58287 -0.88572 -0.98296 -0.34300 -3.76331 10.41171 -0.08101 -13.85437 -20.58963 -0.00479 -0.44692 1.22803 -5.52775 -1.04724 -8.13180 0.01417 -0.83784 1.29451 3.01369 -0.60534 6.01376 -10.15430 -6.31913 -18.32730 3.55374 -7.98381 32.00320 1.66746 -4.45933 14.72540 -0.00000 -0.00000 0.00000 -91.81484 -3.28887 23.90941 11.33626 -18.80183 -1.88287 0.00000 -0.00000 -2.62836 -0.00000 -0.00000 0.00000 87.46639 1.67965 18.47766 -13.10106 21.43512 -2.49010 -0.00000 0.00000 -6.18232
0.00000 0.95887 0.00000 126.38900 -84.25100 -122.64700 0.00000 -0.00000 0.00000 -18.93769 -7.88554 2.61320 0.49748 4.52194 12.54989 0.40794 16.59375 -26.99614 0.10551 2.09450 5.76689 0.00000 -0.00000 0.00000 10.97366 -1.24203 -1.14357 -0.38023 -3.96015 10.96459 -0.16154 -13.61917 -21.13484 -0.01433 -0.77294 2.12425 -5.56013 -0.94029 -8.20990 0.02265 -0.68794 1.27442 3.06063 -0.53270 6.02334 -10.40230 -6.51694 -17.88720 3.84803 -8.29540 31.50130 1.78476 -4.57527 14.45970 -0.00000 0.00000 0.00000 -91.82137 -3.08599 24.17823 11.37644 -18.86296 -1.89584 0.00000 -0.00000 -2.59384 -0.00000 0.00000 0.00000 87.50180 1.67441 17.38675 -13.21193 21.59695 -2.53076 -0.00000 0.00000 -4.65831
0.00000 0.95925 0.00000 122.59900 -85.02500 -118.79500 0.00000 -0.00000 0.00000 -18.06805 -8.53074 2.42247 0.50821 4.56970 12.68521 0.37507 16.65642 -26.81504 0.09160 1.95195 5.37288 0.00000 -0.00000 0.00000 11.93006 -1.12902 -0.83010 -0.34453 -3.77162 10.43502 -0.08778 -14.32920 -21.29658 -0.03119 -1.14001 3.13412 -5.26743 -0.94990 -8.19908 0.14300 -0.73121 1.46854 3.01556 -0.55422 6.22367 -10.47160 -6.76056 -18.52620 4.14432 -8.60395 31.31740 1.84152 -4.64312 14.56800 -0.00000 -0.00000 0.00000 -91.75491 -3.61575 24.25271 11.23207 -18.64310 -1.84943 0.00000 -0.00000 -2.34309 -0.00000 -0.00000 0.00000 87.58283 2.12864 17.42846 -13.01412 21.30790 -2.45841 -0.00000 0.00000 -4.73867
0.00000 0.95909 0.00000 120.28900 -85.38350 -116.68800 0.00000 -0.00000 0.00000 -17.40369 -7.76372 1.58979 0.59543 4.93999 13.73748 0.44372 15.60035 -26.10604 0.03378 1.18644 3.26193 0.00000 -0.00000 0.00000 12.27453 -2.85809 -0.23137 -0.23296 -3.10645 8.57525 0.00458 -13.94815 -19.76662 -0.01945 -0.90034 2.47463 -5.02901 -0.87153 -7.75743 0.23029 -0.68376 1.37398 2.98309 -0.51318 5.86425 -10.57670 -6.73489 -18.05360 4.19952 -8.59333 31.10720 1.89789 -4.65180 14.37830 -0.00000 -0.00000 0.00000 -91.87493 -3.15124 24.38755 11.57239 -19.16027 -1.95967 0.00000 -0.00000 -3.04139 -0.00000 -0.00000 0.00000 87.53797 1.57187 18.00076 -13.50329 22.02018 -2.63900 -0.00000 0.00000 -4.99909
0.00000 0.95928 0.00000 117.32900 -85.53920 -114.21200 0.00000 -0.00000 0.00000 -16.70929 -5.16385 -0.32246 0.71176 5.39174 15.02933 0.45902 13.31372 -23.62598 0.01182 0.70204 1.92930 0.00000 -0.00000 0.00000 12.57351 -3.49795 -0.03450 -0.21948 -3.01586 8.32291 -0.03853 -13.36764 -19.45513 -0.03978 -1.28726 3.53957 -4.77446 -0.81134 -6.21176 0.35482 -0.71291 1.58384 2.97676 -0.50965 5.20528 -10.56280 -6.80423 -18.34050 4.06666 -8.56596 30.83130 1.84065 -4.63467 14.30860 -0.00000 0.00000 0.00000 -92.36874 -3.34674 22.39433 11.99572 -19.79822 -2.10084 0.00000 -0.00000 -4.14503 -0.00000 0.00000 0.00000 87.15004 2.31216 18.03296 -13.40716 21.88087 -2.60307 -0.00000 0.00000 -4.85937
0.00000 0.95692 0.00000 116.18000 -86.05220 -113.74700 0.00000 -0.00000 0.00000 -16.07373 -1.74822 -2.63897 0.99052 6.33436 17.75770 0.61325 9.91450 -21.54372 0.00023 0.09821 0.26984 0.00000 -0.00000 0.00000 12.37709 -4.03082 -0.04166 -0.27335 -3.36303 9.29113 -0.04997 -13.24513 -19.42007 -0.00766 -0.56516 1.55300 -3.20816 -0.63736 -5.75698 0.50635 -0.62615 2.09326 2.26357 -0.43119 5.45094 -10.19580 -6.86215 -17.99890 3.61649 -8.57712 30.11020 1.61302 -4.64311 13.87340 -0.00000 -0.00000 0.00000 -92.73346 -3.11955 21.33479 12.54730 -20.62033 -2.29139 0.00000 -0.00000 -4.79063 -0.00000 -0.00000 0.00000 86.42916 2.55473 18.03404 -13.59921 22.15884 -2.67507 -0.00000 0.00000 -5.46190
0.00000 0.95580 0.00000 121.83400 -86.10040 -119.89000 0.00000 -0.00000 0.00000 -15.91626 0.11430 -4.26321 1.24256 7.06809 19.91724 0.74137 7.84047 -20.94661 0.00690 0.53655 1.47436 0.00000 -0.00000 0.00000 12.20083 -3.91096 0.23573 -0.28531 -3.43516 9.49273 -0.06134 -13.07794 -19.32511 -0.00669 -0.52803 1.45094 -2.66105 -0.67427 -4.64804 0.97431 -0.77534 2.52835 2.43439 -0.50090 5.28206 -10.03460 -6.58763 -18.63300 3.29541 -7.98724 29.84830 1.55381 -4.38612 13.82080 -0.00000 -0.00000 0.00000 -92.92726 -3.63055 21.31953 12.59956 -20.69768 -2.30983 0.00000 -0.00000 -5.65175 -0.00000 -0.00000 0.00000 85.44362 3.64117 17.78214 -13.29256 21.71437 -2.56051 -0.00000 0.00000 -4.68279
0.00000 0.95564 0.00000 127.65500 -85.65800 -125.81000 0.00000 -0.00000 0.00000 -16.58742 0.96719 -5.44720 1.43063 7.56291 21.39415 0.80271 7.27695 -21.08351 0.00043 0.13321 0.36601 0.00000 -0.00000 0.00000 11.46372 -3.35075 0.67490 -0.24754 -3.20152 8.84029 0.05498 -13.64364 -18.73213 -0.00005 -0.04377 0.12025 -2.67077 -0.63457 -4.20046 1.11638 -0.74351 2.78152 2.59309 -0.49393 5.29236 -8.79961 -5.53179 -18.78200 2.46447 -6.56101 29.95440 1.28038 -3.74644 13.68500 0.00000 -0.00000 0.00000 -92.64901 -3.53579 21.13392 12.55844 -20.63682 -2.29531 0.00000 -0.00000 -5.02706 0.00000 -0.00000 0.00000 85.09449 4.11454 16.30921 -13.21094 21.59551 -2.53040 -0.00000 0.00000 -3.92460
0.00000 0.95494 0.00000 147.80100 -85.80600 -145.67800 0.00000 -0.00000 0.00000 -15.92532 1.59782 -6.95838 1.64756 8.08977 22.98707 0.93158 6.49805 -21.69900 0.00541 0.47507 1.30539 0.00000 -0.00000 0.00000 12.08875 -2.43621 0.99289 -0.18502 -2.77042 7.64023 0.20585 -14.29110 -17.80033 -0.00027 0.10668 -0.29310 -1.63855 -0.43982 -3.37066 1.40500 -0.57934 2.79845 2.32987 -0.37832 4.81534 -6.71900 -3.84358 -20.11660 1.25701 -4.32518 31.11560 0.82154 -2.72128 14.21560 0.00000 -0.00000 0.00000 -92.01195 -3.84129 20.58285 12.27246 -20.21199 -2.19552 0.00000 -0.00000 -3.70801 0.00000 -0.00000 0.00000 85.10202 3.88852 17.20494 -13.60976 22.17408 -2.67905 -0.00000 0.00000 -5.02490
0.00000 0.95509 0.00000 161.25100 -85.08900 -158.76500 0.00000 -0.00000 0.00000 -16.07661 2.39628 -8.49668 1.87419 8.59896 24.54866 1.04888 5.98994 -22.39015 0.00402 0.40966 1.12563 0.00000 -0.00000 0.00000 11.96701 -1.45058 1.68805 -0.10319 -2.07139 5.70298 0.36910 -15.03490 -16.79583 -0.00000 0.00888 -0.02440 -1.52442 -0.19622 -2.86858 1.41529 -0.26888 2.87494 2.29974 -0.22016 4.59172 -5.02301 -1.92872 -20.49810 0.53662 -1.86272 31.69370 0.68334 -1.58129 14.39130 0.00000 0.00000 0.00000 -91.17807 -4.19588 20.99018 12.28609 -20.23230 -2.20023 0.00000 -0.00000 -3.94643 0.00000 0.00000 0.00000 85.36619 3.72255 17.93710 -13.76159 22.39285 -2.73663 -0.00000 0.00000 -5.09526
0.00000 0.95404 0.00000 160.74700 -83.72710 -158.25300 0.00000 -0.00000 0.00000 -17.57858 2.83595 -8.91406 1.98394 8.83254 25.27288 1.20398 5.61280 -23.45519 0.08798 1.91310 5.26556 0.00000 -0.00000 0.00000 10.52550 -0.05064 1.66100 -0.11008 -2.13921 5.89055 0.41914 -15.41579 -16.76991 -0.00055 0.15165 -0.41666 -2.76100 0.07997 -1.69132 1.04439 0.14894 2.59466 2.63221 -0.02535 3.61135 -3.82592 -0.15916 -20.52570 -0.03774 0.45447 32.72950 0.65924 -0.57241 14.78240 0.00000 0.00000 0.00000 -90.57579 -3.98396 21.55340 12.34706 -20.32308 -2.22136 0.00000 -0.00000 -3.57490 0.00000 0.00000 0.00000 85.89203 2.92226 17.78798 -13.77259 22.40867 -2.74082 -0.00000 0.00000 -5.08132
0.00000 0.95475 0.00000 168.24400 -82.89990 -165.56700 0.00000 -0.00000 0.00000 -17.88530 2.80606 -9.44019 2.12242 9.11655 26.16060 1.34418 5.53104 -24.52464 0.25033 3.21938 8.89013 0.00000 -0.00000 0.00000 10.13681 0.16160 4.55403 0.00000 0.00000 -0.00000 0.88544 -17.67143 -13.74195 -0.01389 0.76091 -2.09117 -2.72559 0.26721 -2.03380 0.86430 0.41022 3.02388 2.44374 0.09054 4.23513 -2.56634 1.12665 -20.90330 -1.05043 2.26839 33.11320 0.35667 0.19205 15.03520 0.00000 -0.00000 0.00000 -90.01522 -4.96904 22.10958 12.25265 -20.18245 -2.18868 0.00000 -0.00000 -3.86496 0.00000 -0.00000 0.00000 86.40427 3.45986 18.35822 -13.69362 22.29501 -2.71079 -0.00000 0.00000 -5.35140
0.00000 0.95429 0.00000 165.99800 -81.82080 -163.42700 0.00000 -0.00000 0.00000 -19.54628 3.19811 -9.65384 2.15081 9.17339 26.33924 1.34310 6.43632 -25.07124 0.23806 3.14004 8.66887 0.00000 -0.00000 0.00000 8.61577 1.25253 4.61918 0.00000 -0.00000 0.00000 1.03593 -18.53270 -13.01472 -0.01136 0.68815 -1.89112 -3.66263 0.56059 -1.50689 0.39362 0.83440 2.94825 2.49834 0.28856 3.82770 -1.91815 2.23055 -20.69780 -1.67850 3.86246 33.59880 0.27441 0.82775 15.23580 -0.00000 -0.00000 0.00000 -89.90407 -5.22480 22.37384 12.04770 -19.87614 -2.11848 0.00000 -0.00000 -3.20687 -0.00000 -0.00000 0.00000 86.68576 3.12892 18.81521 -13.79986 22.44786 -2.75122 -0.00000 0.00000 -5.64340
0.00000 0.95324 0.00000 166.46200 -81.04240 -163.85500 0.00000 -0.00000 0.00000 -20.63679 3.49384 -9.74456 2.20398 9.27862 26.67083 1.41614 6.60324 -25.72947 0.33293 3.70819 10.25713 0.00000 -0.00000 0.00000 7.63286 2.11723 4.67059 0.00000 0.00000 -0.00000 1.14522 -19.18188 -12.58891 -0.04090 1.30531 -3.58929 -3.89274 0.69251 -1.86880 0.12306 1.04379 2.88200 2.36252 0.38921 3.95100 -1.32464 3.01483 -20.94750 -2.29254 5.02216 34.53790 0.12921 1.24557 15.78960 -0.00000 -0.00000 0.00000 -89.99905 -5.31564 22.91704 11.85071 -19.58036 -2.05198 0.00000 -0.00000 -3.23856 -0.00000 -0.00000 0.00000 86.88730 3.26636 18.97387 -13.70933 22.31765 -2.71675 -0.00000 0.00000 -5.63226
0.00000 0.95280 0.00000 164.38300 -80.50530 -161.64900 0.00000 -0.00000 0.00000 -21.88628 3.60790 -10.03241 2.25353 9.37532 26.97656 1.45612 6.56331 -26.00124 0.41876 4.15358 11.50915 0.00000 -0.00000 0.00000 6.45479 2.61183 4.63684 0.00000 0.00000 -0.00000 1.16054 -19.34363 -12.85354 -0.02757 1.07185 -2.94652 -4.30149 0.78925 -2.51843 -0.16589 1.23190 2.84713 2.31381 0.46864 4.27009 -1.05998 3.33587 -21.24560 -2.73300 5.57699 35.04400 0.00255 1.41287 16.14720 0.00000 -0.00000 0.00000 -90.09188 -5.59360 23.53850 11.57244 -19.16035 -1.95969 0.00000 -0.00000 -3.08360 0.00000 -0.00000 0.00000 86.98025 3.43758 19.48023 -13.84846 22.51766 -2.76981 -0.00000 0.00000 -5.77678
0.00000 0.95242 0.00000 160.74600 -80.30120 -158.13200 0.00000 -0.00000 0.00000 -23.18978 3.98497 -9.79143 2.23217 9.33381 26.84519 1.50580 5.97184 -26.00739 0.24309 3.17282 8.76027 0.00000 -0.00000 0.00000 5.26389 2.60091 4.92740 0.00000 0.00000 -0.00000 1.09975 -19.09953 -13.52804 -0.00014 0.07516 -0.20650 -4.82497 0.84698 -2.69770 -0.41026 1.34399 2.47537 2.36025 0.52668 3.97293 -1.00194 3.43301 -20.67720 -2.75730 5.65616 35.51440 -0.01940 1.42262 16.25160 -0.00000 0.00000 0.00000 -90.04886 -4.82248 24.97433 11.54214 -19.11445 -1.94975 0.00000 -0.00000 -3.93981 -0.00000 0.00000 0.00000 87.17009 2.89597 19.62401 -13.99347 22.72537 -2.82558 -0.00000 0.00000 -5.98213
0.00000 0.95177 0.00000 157.10300 -80.36150 -154.52500 0.00000 -0.00000 0.00000 -23.98700 3.80356 -9.25637 2.16176 9.19518 26.40780 1.53609 5.67679 -26.05636 0.30760 3.56568 9.85785 0.00000 -0.00000 0.00000 4.44809 2.30363 5.12374 0.00000 -0.00000 0.00000 1.09891 -19.12976 -13.66619 -0.00060 0.15780 -0.43356 -5.27251 0.86599 -3.44178 -0.58169 1.44927 2.72487 2.45725 0.54436 4.64449 -0.89334 3.52698 -21.22530 -2.87422 5.83011 36.15290 -0.05136 1.45362 16.72570 0.00000 -0.00000 0.00000 -90.03504 -5.56329 25.49559 11.22628 -18.63426 -1.84758 0.00000 -0.00000 -3.00925 0.00000 -0.00000 0.00000 87.19098 3.46748 20.53801 -14.29225 23.15097 -2.94203 -0.00000 0.00000 -6.92098
0.00000 0.95189 0.00000 155.65600 -80.92740 -152.96200 0.00000 -0.00000 0.00000 -23.86865 3.59036 -9.10849 2.13178 9.13534 26.21960 1.48061 5.96442 -25.81746 0.25211 3.23070 8.92169 0.00000 -0.00000 0.00000 4.55728 1.70268 5.14481 0.00000 -0.00000 0.00000 1.15552 -19.47524 -13.55138 -0.03031 1.12393 -3.08987 -5.23414 0.91323 -3.66197 -0.56740 1.51883 2.44864 2.45744 0.59136 4.47554 -1.15780 3.53359 -20.93460 -2.23745 5.65266 37.06420 0.22638 1.39064 17.08570 0.00000 0.00000 0.00000 -89.85609 -5.39765 25.59078 11.13281 -18.49153 -1.81782 0.00000 -0.00000 -2.65183 0.00000 0.00000 0.00000 87.35717 2.92550 21.39946 -14.37163 23.26349 -2.97331 -0.00000 0.00000 -8.24796
0.00000 0.95250 0.00000 154.61900 -81.14550 -151.71900 0.00000 -0.00000 0.00000 -23.63722 3.08850 -8.79961 2.04931 8.96805 25.69543 1.45177 6.11413 -25.69330 0.20224 2.89575 7.98864 0.00000 -0.00000 0.00000 4.82062 1.46445 5.03381 0.00000 0.00000 -0.00000 1.15347 -19.49384 -13.67968 -0.03426 1.19470 -3.28469 -5.30508 0.94189 -3.79124 -0.60312 1.56743 2.31367 2.46490 0.61874 4.40352 -1.09629 3.73241 -21.23640 -2.01817 5.83647 38.03850 0.35133 1.44835 17.68500 -0.00000 0.00000 0.00000 -89.59730 -5.03292 25.89211 11.36254 -18.84182 -1.89135 0.00000 -0.00000 -3.29982 -0.00000 0.00000 0.00000 87.48457 2.95001 22.24947 -14.54856 23.51347 -3.04355 -0.00000 0.00000 -8.78157
0.00000 0.95335 0.00000 153.83100 -81.77830 -150.95100 0.00000 -0.00000 0.00000 -22.82512 2.61776 -8.40443 2.00530 8.87711 25.41168 1.34130 6.89515 -25.35191 0.27170 3.35292 9.26289 0.00000 -0.00000 0.00000 5.53924 0.88573 5.02350 0.00000 0.00000 -0.00000 1.12665 -19.29333 -13.58537 -0.01064 0.66605 -1.83036 -5.23125 0.95830 -3.44891 -0.53284 1.56003 2.29491 2.48796 0.62259 4.18962 -1.03584 4.11555 -21.07300 -1.43542 6.09571 39.35720 0.65427 1.57008 18.36220 -0.00000 -0.00000 0.00000 -89.51736 -4.98297 26.02403 11.31411 -18.76812 -1.87574 0.00000 -0.00000 -2.51926 -0.00000 -0.00000 0.00000 87.30220 3.08118 21.91623 -14.69430 23.71852 -3.10193 -0.00000 0.00000 -7.57868
0.00000 0.95411 0.00000 152.64900 -82.82310 -149.77900 0.00000 -0.00000 0.00000 -21.69319 2.12536 -8.33705 2.00330 8.87294 25.39868 1.30086 6.38832 -24.71419 0.24311 3.17297 8.76068 0.00000 -0.00000 0.00000 6.59686 -0.06578 4.93112 0.00000 0.00000 -0.00000 1.13985 -19.28142 -13.18077 -0.03026 1.12284 -3.08686 -5.00682 0.79748 -3.32784 -0.42582 1.33205 2.70986 2.45990 0.49572 4.57418 -0.72695 4.38700 -21.30500 -1.19943 6.23514 40.59100 0.74677 1.63030 19.16830 0.00000 0.00000 0.00000 -89.49973 -5.73845 26.11613 11.31573 -18.77058 -1.87626 0.00000 -0.00000 -2.59995 0.00000 0.00000 0.00000 87.11782 4.01573 22.01471 -14.64529 23.64966 -3.08225 -0.00000 0.00000 -7.44633
0.00000 0.95516 0.00000 153.06100 -83.65760 -150.22700 0.00000 -0.00000 0.00000 -20.32946 1.41313 -8.13809 1.94851 8.75799 25.04119 1.27803 6.24818 -24.44645 0.29320 3.48194 9.62354 0.00000 -0.00000 0.00000 7.92250 -0.70232 4.76004 0.00000 0.00000 -0.00000 1.14246 -19.27232 -13.06910 -0.01830 0.87340 -2.40055 -4.74823 0.92047 -2.54127 -0.27409 1.43079 2.73748 2.46276 0.56050 4.14881 -0.78722 4.49666 -20.83920 -0.38652 5.96371 41.73460 1.08149 1.56812 19.70360 0.00000 0.00000 0.00000 -89.65966 -5.74890 27.33685 11.47173 -19.00769 -1.92676 0.00000 -0.00000 -3.42555 0.00000 0.00000 0.00000 86.95168 4.08935 21.37270 -14.39237 23.29285 -2.98151 -0.00000 0.00000 -7.06435
0.00000 0.95506 0.00000 145.34000 -84.55890 -142.43700 0.00000 -0.00000 0.00000 -19.78803 0.82711 -7.90773 1.85494 8.55716 24.41959 1.17640 6.18582 -23.59077 0.24745 3.20096 8.83873 0.00000 -0.00000 0.00000 8.49094 -1.03509 2.03819 -0.06889 -1.69330 4.65879 0.85159 -17.95100 -15.29125 -0.00874 0.60378 -1.65916 -4.90847 0.76713 -2.15114 -0.21964 1.20897 2.85397 2.59019 0.44344 4.06238 -0.70373 4.74504 -20.57070 -0.12012 6.09689 42.83800 1.22746 1.60015 20.34450 -0.00000 0.00000 0.00000 -89.91530 -5.62778 28.50206 11.82458 -19.54104 -2.04324 0.00000 -0.00000 -4.40955 -0.00000 0.00000 0.00000 86.50826 4.09355 21.35593 -14.22961 23.06200 -2.91745 -0.00000 0.00000 -6.70765
0.00000 0.95650 0.00000 139.04000 -85.36290 -136.16500 0.00000 -0.00000 0.00000 -18.89995 0.34084 -8.01289 1.82519 8.49205 24.21888 1.07001 6.25534 -22.74733 0.16454 2.61338 7.20414 0.00000 -0.00000 0.00000 9.29893 -1.58710 0.80645 -0.13270 -2.34803 6.46850 0.68480 -17.08978 -16.10000 -0.01620 0.82178 -2.25857 -4.72277 0.73632 -1.65610 -0.09474 1.12908 2.99194 2.60401 0.40711 3.93165 -0.45163 4.87557 -20.23410 0.04893 5.99634 43.87610 1.24382 1.56069 20.97310 0.00000 0.00000 0.00000 -90.28355 -5.55278 29.19093 12.01108 -19.82126 -2.10605 0.00000 -0.00000 -5.04634 0.00000 0.00000 0.00000 86.26960 4.14368 20.93931 -14.04021 22.79217 -2.84367 -0.00000 0.00000 -6.21672
0.00000 0.95628 0.00000 135.43200 -86.33100 -132.62100 0.00000 -0.00000 0.00000 -17.63410 0.05797 -8.21699 1.83620 8.51622 24.29333 0.95891 6.45509 -21.91419 0.04934 1.43349 3.94240 0.00000 -0.00000 0.00000 10.57585 -2.07918 -0.22559 -0.21235 -2.96677 8.18625 0.51752 -16.34381 -17.13253 -0.00562 0.48428 -1.33069 -4.13512 0.70685 -1.36684 0.13553 1.04881 3.27696 2.50688 0.37199 4.07378 -0.29612 4.98678 -19.78960 0.52956 5.77672 44.52540 1.40782 1.53596 21.28390 0.00000 -0.00000 0.00000 -90.37079 -5.65117 30.12149 12.19127 -20.09087 -2.16755 0.00000 -0.00000 -5.43896 0.00000 -0.00000 0.00000 86.08836 4.49665 20.65167 -13.94072 22.64990 -2.80524 -0.00000 0.00000 -6.08754
0.00000 0.95742 0.00000 128.93800 -86.55550 -126.06400 0.00000 -0.00000 0.00000 -16.95465 -0.34549 -8.17584 1.70861 8.23076 23.41719 0.81718 6.91496 -20.94515 0.03439 1.19708 3.29123 0.00000 -0.00000 0.00000 11.25485 -2.21260 -1.84040 -0.33150 -3.70032 10.23505 0.36003 -15.58366 -17.93256 -0.00001 0.01531 -0.04207 -4.23340 0.78210 -0.43652 0.24334 1.09984 3.15221 2.65887 0.40910 3.40970 -0.11981 5.15454 -19.23530 0.88150 5.66078 45.38380 1.52731 1.51602 21.74130 -0.00000 -0.00000 0.00000 -90.33423 -5.38763 30.32234 12.27649 -20.21800 -2.19691 0.00000 -0.00000 -5.61550 -0.00000 -0.00000 0.00000 85.99106 4.32705 20.80012 -14.17607 22.98585 -2.89651 -0.00000 0.00000 -6.57447
0.00000 0.95753 0.00000 118.67100 -86.83880 -115.85500 0.00000 -0.00000 0.00000 -16.40042 -0.83383 -7.54068 1.54372 7.84287 22.23784 0.70092 7.43482 -20.22360 0.01965 0.90510 2.48773 0.00000 -0.00000 0.00000 11.84922 -2.69319 -2.52993 -0.40179 -4.06956 11.27244 0.24848 -15.11944 -18.60667 -0.00545 -0.47683 1.31022 -4.25778 0.64891 -0.55654 0.41869 0.92414 3.53544 2.85335 0.29762 3.88717 -0.29160 5.13898 -18.96180 1.04205 5.59527 45.47750 1.62008 1.48223 21.70400 -0.00000 0.00000 0.00000 -90.40536 -5.79355 29.71819 12.15002 -20.02924 -2.15340 0.00000 -0.00000 -5.00987 -0.00000 0.00000 0.00000 85.84247 4.58792 21.30823 -14.40553 23.31147 -2.98671 -0.00000 0.00000 -6.90057
0.00000 0.95798 0.00000 107.91500 -86.92030 -105.01900 0.00000 -0.00000 0.00000 -16.07007 -1.63260 -6.89947 1.40234 7.49092 21.17817 0.62790 8.04181 -19.99607 0.00937 0.62508 1.71771 0.00000 -0.00000 0.00000 12.28417 -3.21943 -3.03048 -0.42497 -4.18387 11.59455 0.21564 -14.88958 -18.64822 -0.00330 -0.37082 1.01888 -4.16464 0.59413 -0.30229 0.50984 0.83338 3.44464 2.88802 0.26121 3.65547 -0.22054 5.14366 -18.70380 1.08693 5.49655 45.77130 1.60542 1.44676 21.85100 0.00000 0.00000 0.00000 -90.41924 -5.53166 29.47085 12.18453 -20.08080 -2.16523 0.00000 -0.00000 -5.34706 0.00000 0.00000 0.00000 85.77544 4.42891 21.48940 -14.37690 23.27095 -2.97540 -0.00000 0.00000 -7.13693
0.00000 0.95913 0.00000 95.07460 -86.33200 -92.15730 0.00000 -0.00000 0.00000 -16.46282 -2.41518 -5.89100 1.20309 6.95900 19.59396 0.50069 8.97937 -19.52403 0.00106 0.21047 0.57828 0.00000 -0.00000 0.00000 11.97839 -3.98830 -3.45234 -0.44404 -4.27553 11.85315 0.15409 -14.47008 -18.75497 -0.00792 -0.57474 1.57933 -4.54468 0.45458 -0.38241 0.39113 0.66368 3.34806 2.97338 0.17058 3.61344 0.05432 5.23150 -18.18800 1.05813 5.47917 45.91780 1.52104 1.47845 21.81610 0.00000 -0.00000 0.00000 -90.36514 -5.20924 29.49055 12.20250 -20.10763 -2.17140 0.00000 -0.00000 -5.24078 0.00000 -0.00000 0.00000 85.77492 4.14949 21.22960 -14.35108 23.23437 -2.96520 -0.00000 0.00000 -6.68889
0.00000 0.95932 0.00000 85.81810 -86.70790 -82.96850 0.00000 -0.00000 0.00000 -15.70242 -3.39830 -5.12024 1.10665 6.68385 18.78207 0.44642 9.63562 -19.58797 0.00066 0.16597 0.45600 0.00000 -0.00000 0.00000 12.80139 -4.74172 -3.57035 -0.44737 -4.29133 11.89775 0.09407 -14.09552 -18.92291 -0.01788 -0.86343 2.37311 -3.81366 0.34453 -1.03961 0.66760 0.51961 3.73652 2.85234 0.09151 4.40370 -0.06826 5.20979 -19.06580 1.11037 5.51556 46.02690 1.65425 1.44880 22.56180 0.00000 -0.00000 0.00000 -90.69607 -5.80276 29.53006 12.24635 -20.17306 -2.18650 0.00000 -0.00000 -5.68904 0.00000 -0.00000 0.00000 85.54295 4.71427 20.43394 -14.20510 23.02716 -2.90786 -0.00000 0.00000 -6.27384
0.00000 0.95893 0.00000 80.60180 -86.58370 -77.91680 0.00000 -0.00000 0.00000 -15.40546 -3.42475 -5.10313 1.08890 6.63179 18.62901 0.38850 9.73592 -19.05981 0.00233 -0.31156 -0.85605 0.00000 -0.00000 0.00000 13.13116 -4.73128 -3.71609 -0.46853 -4.39024 12.17722 0.08891 -14.19958 -19.14107 -0.03122 -1.14059 3.13573 -3.65118 0.32425 -0.35729 0.72266 0.45907 3.29271 2.80715 0.09315 3.55882 0.17146 5.31537 -18.38160 1.20682 5.45381 46.29600 1.62316 1.46618 22.54510 0.00000 0.00000 0.00000 -90.78941 -4.95750 30.26730 12.52088 -20.58119 -2.28210 0.00000 -0.00000 -6.38937 0.00000 0.00000 0.00000 85.38196 4.08405 20.37892 -14.13997 22.93446 -2.88243 -0.00000 0.00000 -6.09863
0.00000 0.95870 0.00000 77.04950 -86.13580 -74.55040 0.00000 -0.00000 0.00000 -15.58760 -3.85350 -4.52705 1.01065 6.39648 17.93923 0.32080 10.13866 -18.72735 0.00022 -0.09678 -0.26590 0.00000 -0.00000 0.00000 12.94576 -5.23964 -4.32854 -0.54997 -4.75083 13.19924 -0.00310 -13.60045 -19.36604 -0.03151 -1.14590 3.15035 -3.78800 0.26565 -0.63205 0.76732 0.39330 3.52415 2.93129 0.04178 3.96001 0.36374 5.34655 -18.37100 1.03930 5.51538 46.23170 1.51104 1.51188 22.50990 0.00000 0.00000 0.00000 -91.08608 -5.36369 30.51394 12.73882 -20.90333 -2.35928 0.00000 -0.00000 -5.83212 0.00000 0.00000 0.00000 85.18430 4.44346 19.95423 -14.01598 22.75755 -2.83429 -0.00000 0.00000 -5.90872
0.00000 0.95870 0.00000 74.04970 -86.21090 -71.82570 0.00000 -0.00000 0.00000 -15.18289 -3.96961 -4.39940 0.99592 6.35107 17.80650 0.27368 10.38817 -18.46058 0.00690 -0.53659 -1.47449 0.00000 -0.00000 0.00000 13.37061 -5.13619 -4.34284 -0.57559 -4.85838 13.50509 0.01242 -13.82333 -19.49955 -0.03560 -1.21783 3.34838 -3.51677 0.27857 -0.70738 0.91862 0.39984 3.62822 2.93695 0.04565 4.11028 0.53761 5.32552 -18.23520 1.00538 5.41807 46.20100 1.43204 1.51004 22.44700 -0.00000 -0.00000 0.00000 -91.17282 -5.29037 30.97069 12.99776 -21.28393 -2.45247 0.00000 -0.00000 -7.20040 -0.00000 -0.00000 0.00000 85.27314 4.48840 19.46866 -14.18887 23.00407 -2.90151 -0.00000 0.00000 -5.90460
0.00000 0.95860 0.00000 68.20950 -86.23670 -66.19330 0.00000 -0.00000 0.00000 -14.80628 -4.24575 -4.31143 0.99232 6.33993 17.77397 0.25222 10.44447 -18.27212 0.01041 -0.65883 -1.81051 0.00000 -0.00000 0.00000 13.74463 -5.11050 -4.35766 -0.60169 -4.96543 13.81000 -0.03809 -13.80338 -20.04832 -0.07026 -1.71008 4.70510 -3.25871 0.18598 -0.72307 1.16749 0.25856 3.70100 3.04442 -0.02464 4.20533 0.58768 5.41610 -18.34440 1.07206 5.52206 46.24820 1.49101 1.56700 22.52830 -0.00000 -0.00000 0.00000 -91.30962 -5.42824 30.98212 13.08652 -21.41386 -2.48479 0.00000 -0.00000 -7.63218 -0.00000 -0.00000 0.00000 85.19522 4.62525 19.49152 -14.09301 22.86752 -2.86415 -0.00000 0.00000 -5.99980
0.00000 0.95772 0.00000 66.63260 -85.85290 -64.84950 0.00000 -0.00000 0.00000 -15.01629 -4.15201 -4.24081 0.98181 6.30726 17.67856 0.24058 10.28126 -17.94459 0.01045 -0.66024 -1.81438 0.00000 -0.00000 0.00000 13.49514 -5.34527 -4.83463 -0.68129 -5.27746 14.70164 -0.08997 -13.56684 -20.30328 -0.07633 -1.78223 4.90420 -3.25156 0.16509 -0.77063 1.17256 0.23061 3.79188 3.04520 -0.04299 4.32938 0.51079 5.41605 -18.45930 1.21578 5.50225 46.25600 1.58582 1.56822 22.56340 0.00000 -0.00000 0.00000 -91.32489 -5.44853 31.33405 13.07493 -21.39691 -2.48056 0.00000 -0.00000 -7.69798 0.00000 -0.00000 0.00000 85.27954 4.61458 19.21071 -14.06958 22.83409 -2.85505 -0.00000 0.00000 -5.84704
0.00000 0.95764 0.00000 63.42600 -85.74910 -61.79820 0.00000 -0.00000 0.00000 -14.92343 -4.24248 -4.22877 0.97485 6.28552 17.61512 0.23070 10.25280 -17.79157 0.00606 -0.50290 -1.38186 0.00000 -0.00000 0.00000 13.56329 -5.74148 -4.96801 -0.69382 -5.32479 14.83727 -0.10939 -13.35298 -20.23346 -0.05503 -1.51376 4.16366 -3.02529 0.12000 -0.35702 1.32460 0.14893 3.48631 3.06849 -0.06218 3.78193 0.50009 5.32401 -17.70860 1.13356 5.39216 46.09680 1.45727 1.54998 21.82350 -0.00000 -0.00000 0.00000 -91.47145 -4.78410 31.38632 13.14656 -21.50158 -2.50675 0.00000 -0.00000 -8.26567 -0.00000 -0.00000 0.00000 85.28383 3.89734 19.23370 -14.16144 22.96503 -2.89080 -0.00000 0.00000 -5.83168
0.00000 0.95797 0.00000 62.30940 -85.66490 -60.89290 0.00000 -0.00000 0.00000 -14.94470 -4.12436 -3.84460 0.93713 6.16616 17.26729 0.22966 10.23936 -17.76317 0.00307 -0.35757 -0.98249 0.00000 -0.00000 0.00000 13.57904 -5.64594 -4.31636 -0.64041 -5.11976 14.25046 -0.07952 -13.69813 -20.36417 -0.04927 -1.43250 3.93968 -2.90444 0.14334 -0.56076 1.44803 0.17869 3.49097 3.13058 -0.04781 3.89978 0.21335 4.98456 -17.76330 1.00303 5.08462 45.66760 1.36526 1.39595 21.50580 -0.00000 -0.00000 0.00000 -91.67026 -4.40124 30.92156 13.15158 -21.50891 -2.50859 0.00000 -0.00000 -7.48650 -0.00000 -0.00000 0.00000 85.13156 4.00732 18.61393 -13.82925 22.49008 -2.76246 -0.00000 0.00000 -5.24885
