HIERARCHY
ROOT root
{
  OFFSET 0.000000 0.000000 0.000000
  CHANNELS 6 Xposition Yposition Zposition Zrotation Yrotation Xrotation
  JOINT lhipjoint
  {
    OFFSET 0.000000 0.000000 0.000000
    CHANNELS 3 Zrotation Yrotation Xrotation
    JOINT lfemur
    {
      OFFSET 0.077512 -0.103766 0.048358
      CHANNELS 3 Zrotation Yrotation Xrotation
      JOINT ltibia
      {
        OFFSET 0.143271 -0.393634 0.000000
        CHANNELS 3 Zrotation Yrotation Xrotation
        JOINT lfoot
        {
          OFFSET 0.149745 -0.411421 0.000000
          CHANNELS 3 Zrotation Yrotation Xrotation
          JOINT ltoes
          {
            OFFSET 0.012474 -0.034272 0.129696
            CHANNELS 3 Zrotation Yrotation Xrotation
            End Site
            {
              OFFSET 0.000000 -0.000000 0.067298
            }
          }
        }
      }
    }
  }
  JOINT rhipjoint
  {
    OFFSET 0.000000 0.000000 0.000000
    CHANNELS 3 Zrotation Yrotation Xrotation
    JOINT rfemur
    {
      OFFSET -0.073466 -0.103765 0.048358
      CHANNELS 3 Zrotation Yrotation Xrotation
      JOINT rtibia
      {
        OFFSET -0.148803 -0.408833 0.000000
        CHANNELS 3 Zrotation Yrotation Xrotation
        JOINT rfoot
        {
          OFFSET -0.147898 -0.406346 0.000000
          CHANNELS 3 Zrotation Yrotation Xrotation
          JOINT rtoes
          {
            OFFSET -0.011721 -0.032203 0.136823
            CHANNELS 3 Zrotation Yrotation Xrotation
            End Site
            {
              OFFSET -0.000000 -0.000000 0.070544
            }
          }
        }
      }
    }
  }
  JOINT lowerback
  {
    OFFSET 0.000000 0.000000 0.000000
    CHANNELS 3 Zrotation Yrotation Xrotation
    JOINT upperback
    {
      OFFSET 0.003239 0.120882 -0.012878
      CHANNELS 3 Zrotation Yrotation Xrotation
      JOINT thorax
      {
        OFFSET 0.001579 0.120885 0.004598
        CHANNELS 3 Zrotation Yrotation Xrotation
        JOINT lowerneck
        {
          OFFSET 0.000073 0.123182 0.010643
          CHANNELS 3 Zrotation Yrotation Xrotation
          JOINT upperneck
          {
            OFFSET -0.003962 0.089692 0.018615
            CHANNELS 3 Zrotation Yrotation Xrotation
            JOINT head
            {
              OFFSET -0.001809 0.093293 -0.011960
              CHANNELS 3 Zrotation Yrotation Xrotation
              End Site
              {
                OFFSET -0.000410 0.094143 -0.006124
              }
            }
          }
        }
        JOINT lclavicle
        {
          OFFSET 0.000073 0.123182 0.010643
          CHANNELS 3 Zrotation Yrotation Xrotation
          JOINT lhumerus
          {
            OFFSET 0.221747 0.055052 -0.004480
            CHANNELS 3 Zrotation Yrotation Xrotation
            JOINT lradius
            {
              OFFSET 0.315155 -0.000000 -0.000000
              CHANNELS 3 Zrotation Yrotation Xrotation
              JOINT lwrist
              {
                OFFSET 0.209458 -0.000000 0.000000
                CHANNELS 3 Zrotation Yrotation Xrotation
                End Site
                {
                  OFFSET 0.104729 -0.000000 -0.000000
                }
              }
            }
          }
        }
        JOINT rclavicle
        {
          OFFSET 0.000073 0.123182 0.010643
          CHANNELS 3 Zrotation Yrotation Xrotation
          JOINT rhumerus
          {
            OFFSET -0.220075 0.061461 -0.012750
            CHANNELS 3 Zrotation Yrotation Xrotation
            JOINT rradius
            {
              OFFSET -0.293713 -0.000000 -0.000000
              CHANNELS 3 Zrotation Yrotation Xrotation
              JOINT rwrist
              {
                OFFSET -0.205987 -0.000000 0.000000
                CHANNELS 3 Zrotation Yrotation Xrotation
                End Site
                {
                  OFFSET -0.102993 -0.000000 -0.000000
                }
              }
            }
          }
        }
      }
    }
  }
}
MOTION
Frames: 56
Frame Time: 0.04166667
0.00000 0.89584 0.00000 -14.54588 -0.00003 54.71879 0.00000 -0.00000 0.00000 16.83505 -13.91594 -84.14317 13.58325 18.98274 70.92761 2.07177 -15.27316 -26.43368 0.13872 -2.40045 -6.61372 0.00000 -0.00000 0.00000 16.44493 1.87580 -36.84816 -4.91730 -13.29005 40.46418 -1.64881 -3.10593 -25.54094 -1.00124 6.36751 -17.85455 3.20676 -0.28725 45.95880 3.09878 4.61914 8.82225 -0.59512 2.98346 -11.32840 -1.59703 3.31893 -18.33740 -4.42720 5.31904 3.61234 -0.66094 2.38576 4.08273 0.00000 0.00000 0.00000 -57.07022 -63.36778 7.87864 89.07786 -59.99679 -59.20141 -0.00000 0.00000 -0.64515 0.00000 0.00000 0.00000 -1.64096 80.62101 -28.56998 -31.60373 42.22896 -12.47368 0.00000 -0.00000 -1.07686
0.00000 0.92910 0.00000 -14.61055 0.89349 68.04052 0.00000 -0.00000 0.00000 14.72507 -14.84997 -83.94797 9.45478 17.09163 57.65000 1.56883 -13.87951 -23.04665 0.05656 -1.53460 -4.22111 0.00000 -0.00000 0.00000 12.82194 3.77948 -41.60142 -5.91721 -14.34763 44.64853 -1.65864 -0.92120 -24.70154 -1.09428 6.64761 -18.67548 4.40187 0.30828 41.88640 3.85917 5.02107 7.60014 -0.46328 2.85309 -11.53720 -0.65358 3.11771 -17.71260 -4.60219 4.81197 2.79915 -0.92283 2.17250 3.75401 0.00000 0.00000 0.00000 -26.26553 -67.33300 -18.21481 75.60480 -59.20234 -47.56678 -0.00000 -0.00000 3.60976 0.00000 0.00000 0.00000 -44.23904 78.22402 -67.28466 -29.09066 40.10110 -10.81907 0.00000 0.00000 1.29147
0.00000 0.96075 0.00000 -12.03447 2.75497 79.84329 0.00000 -0.00000 0.00000 12.47089 -17.18321 -81.01058 4.89431 13.26378 40.36409 0.08963 -13.51778 -10.55569 0.14173 -2.42622 -6.68514 0.00000 -0.00000 0.00000 10.52857 2.16991 -45.36261 -9.27630 -16.98227 57.04084 -1.39966 1.94232 -21.82017 -1.07008 6.57605 -18.46531 6.50144 -0.36634 39.93080 4.69172 4.66900 6.51205 -0.44443 2.45713 -12.06740 0.45059 2.77885 -17.07280 -4.58669 4.09361 0.77121 -1.27261 1.90788 3.40548 -0.00000 -0.00000 0.00000 5.01059 -64.82517 -46.15151 62.57687 -56.95839 -36.49338 -0.00000 -0.00000 6.95081 -0.00000 -0.00000 0.00000 -69.51195 72.29074 -89.20809 -25.68127 36.89224 -8.69561 0.00000 0.00000 6.72937
0.00000 0.97582 0.00000 -9.26853 4.51902 93.23590 0.00000 -0.00000 0.00000 9.79027 -17.26296 -80.69985 2.20939 9.28926 26.70441 -0.09994 -6.46161 -1.08231 1.32908 -7.30061 -20.60906 0.00000 -0.00000 0.00000 11.22105 -0.27303 -49.88805 -13.24067 -18.86734 69.87135 -0.90343 -1.79429 -18.68840 -0.24159 3.16307 -8.73308 9.58839 1.31955 35.45150 5.71341 4.69588 5.03406 -0.63935 1.29466 -11.82730 1.90994 2.20985 -16.65370 -4.01505 3.01212 -0.28125 -1.43456 1.43882 2.94309 -0.00000 0.00000 0.00000 23.75209 -60.65936 -63.48190 50.57444 -53.22457 -26.63359 -0.00000 -0.00000 14.76600 -0.00000 0.00000 0.00000 -77.38909 67.46744 -97.21533 -23.53862 34.67255 -7.44245 0.00000 0.00000 11.15590
0.00000 0.96546 0.00000 -8.42716 5.21245 103.59577 0.00000 -0.00000 0.00000 6.15707 -16.01577 -83.74012 3.28847 11.14799 32.78063 -0.09250 -5.38807 1.80223 1.49712 -7.72898 -21.89389 0.00000 -0.00000 0.00000 12.57005 -3.34952 -50.29747 -15.87823 -19.58771 77.86870 -0.64306 -2.61526 -16.31949 -0.00693 0.53749 -1.47696 10.49390 2.03764 33.31150 6.20446 6.09679 3.87041 -1.17171 1.92167 -12.29870 2.63757 1.44247 -16.07050 -2.02868 1.71894 0.59366 -1.00781 0.85976 3.07422 0.00000 -0.00000 0.00000 31.61621 -57.78217 -70.97275 42.93371 -49.71509 -20.65016 -0.00000 -0.00000 24.09090 0.00000 -0.00000 0.00000 -79.66210 66.63789 -100.91139 -23.11895 34.21863 -7.20508 0.00000 0.00000 15.82640
0.00000 0.92999 0.00000 -8.67208 4.58171 111.24081 0.00000 -0.00000 0.00000 5.73619 -16.54384 -85.55236 7.18107 15.48249 49.55585 -0.27348 -10.25478 8.54844 1.18762 -6.91571 -19.46589 0.00000 -0.00000 0.00000 11.94517 -8.13873 -48.27983 -16.95746 -19.77659 81.07231 -0.55208 -0.96461 -14.41785 -0.01435 0.77357 -2.12599 10.24070 1.17699 33.22710 6.07190 7.10157 3.02546 -1.79331 3.06449 -13.31560 1.99954 0.57093 -15.25550 2.38046 0.33861 2.63380 0.46704 0.36224 3.58235 0.00000 0.00000 0.00000 23.39830 -55.94165 -59.31828 50.87548 -53.34255 -26.87490 -0.00000 -0.00000 30.40180 0.00000 0.00000 0.00000 -72.30807 72.20686 -94.79101 -27.66810 38.80889 -9.91498 0.00000 0.00000 21.95440
0.00000 0.87452 0.00000 -11.15306 4.58533 116.97171 0.00000 -0.00000 0.00000 3.78889 -15.50131 -82.34282 11.73700 18.27725 65.15272 -0.03864 -9.88799 13.42615 0.70047 -5.34971 -14.90874 0.00000 -0.00000 0.00000 9.96880 -12.60848 -45.45913 -17.38693 -19.83550 82.33973 -0.48400 -0.33981 -13.27058 -0.01173 0.69920 -1.92150 9.68477 1.71715 34.23970 6.76246 7.79626 3.34711 -1.07843 3.38828 -13.50320 0.23371 -0.12348 -15.42180 7.09531 -0.87903 6.69597 2.10408 0.07414 4.55119 -0.00000 -0.00000 0.00000 1.46485 -52.45302 -35.28301 83.56654 -59.84302 -54.43140 -0.00000 -0.00000 34.24480 -0.00000 -0.00000 0.00000 -40.22214 80.01043 -66.52219 -41.58587 48.98189 -19.62753 0.00000 0.00000 29.69680
0.00000 0.81042 0.00000 -14.09289 6.04528 122.36754 0.00000 -0.00000 0.00000 1.97956 -14.05504 -77.44542 15.53934 19.51611 76.85610 0.53048 -5.33469 16.74163 0.12072 -2.23996 -6.16928 0.00000 -0.00000 0.00000 7.11200 -17.48115 -45.25265 -18.43232 -19.94097 85.41209 -0.37871 -0.85766 -11.96711 -0.00002 0.03190 -0.08766 9.74310 1.88266 35.04300 8.55379 8.33828 4.96440 0.62304 3.76682 -12.24770 -0.44609 -0.82056 -16.27540 8.95221 -2.11206 8.98443 2.71216 -0.34909 5.48885 -0.00000 -0.00000 0.00000 -12.91575 -44.34503 -18.12112 113.43024 -57.82051 -80.14271 -0.00000 -0.00000 38.42070 -0.00000 -0.00000 0.00000 -10.27530 80.09948 -34.31769 -53.39972 54.27791 -28.91232 0.00000 0.00000 31.38180
0.00000 0.74731 0.00000 -17.69873 8.54232 129.41667 0.00000 -0.00000 0.00000 1.08823 -11.52001 -76.32327 18.83606 19.96749 86.59510 1.31890 -0.65646 21.95919 0.00675 0.53039 1.45742 0.00000 -0.00000 0.00000 2.87565 -21.11599 -50.43046 -20.84634 -19.98282 92.47520 -0.32479 0.64449 -10.55708 -0.00874 -0.60362 1.65873 9.38049 2.33600 33.79860 10.35100 8.65359 6.88850 2.73443 4.09277 -9.97293 -1.30720 -2.06742 -18.22850 12.11490 -4.46515 12.10310 3.67292 -1.11343 7.05252 0.00000 -0.00000 0.00000 -17.14310 -32.76778 -4.15184 131.28519 -52.46383 -94.84861 -0.00000 -0.00000 44.63750 0.00000 -0.00000 0.00000 -6.98325 78.25018 -26.57131 -57.34272 55.55924 -32.13963 0.00000 0.00000 30.99680
0.00000 0.68129 0.00000 -21.02913 12.11510 137.29008 0.00000 -0.00000 0.00000 0.76632 -8.46165 -78.19163 21.82211 19.92021 95.33431 2.08908 0.67652 27.16821 0.01853 0.87895 2.41580 0.00000 -0.00000 0.00000 -2.02976 -24.76589 -58.26534 -23.32395 -19.73301 99.76028 -0.23475 2.72930 -8.61616 -0.01390 -0.76118 2.09193 9.45506 2.83158 31.85760 12.28550 9.08787 8.23910 4.75250 4.42033 -8.08420 -2.01568 -3.02864 -16.70340 14.66340 -6.40740 14.60560 4.45395 -1.83087 7.88304 -0.00000 0.00000 0.00000 -20.39535 -23.68467 12.88467 141.85544 -46.93139 -102.92887 -0.00000 -0.00000 43.41430 -0.00000 0.00000 0.00000 -10.97705 77.36486 -26.24594 -54.96768 54.81260 -30.18958 0.00000 0.00000 31.06160
0.00000 0.60667 0.00000 -23.91921 17.26348 143.98398 0.00000 -0.00000 0.00000 0.73176 -4.06990 -79.15850 24.20176 19.57134 102.37000 2.33721 -0.43297 29.11198 0.00933 0.62356 1.71353 0.00000 -0.00000 0.00000 -5.94587 -27.24354 -65.11900 -24.45451 -19.51746 103.12550 -0.15089 1.10941 -7.02947 -0.09181 -1.95423 5.37919 12.00720 2.93224 32.51770 13.96960 10.11880 9.88904 4.98497 4.94170 -6.46711 -2.90857 -3.28141 -15.38420 14.17490 -6.89854 18.07190 4.45626 -2.09829 8.84544 -0.00000 -0.00000 0.00000 -39.06955 -23.84815 28.27779 145.52937 -44.43041 -105.55849 -0.00000 -0.00000 44.32200 -0.00000 -0.00000 0.00000 -21.78072 75.84773 -32.08385 -50.32600 53.12614 -26.43472 0.00000 0.00000 29.64710
0.00000 0.52498 0.00000 -28.18560 22.75328 149.74188 0.00000 -0.00000 0.00000 -0.32850 1.78319 -79.31163 25.72723 19.19469 106.96420 2.08280 -3.48600 28.68869 0.06709 -1.67110 -4.59754 0.00000 -0.00000 0.00000 -8.73347 -26.62659 -71.99194 -24.40537 -19.52819 102.97846 -0.13312 -3.03985 -8.70543 -0.25213 -3.23087 8.92217 11.51550 3.08265 35.64810 14.13990 10.05720 12.06450 5.41326 4.74336 -5.34007 -3.49898 -3.16277 -15.99430 13.98910 -7.01408 21.43340 4.57272 -2.08681 10.15190 -0.00000 -0.00000 0.00000 -57.60859 -25.11037 36.74835 141.77709 -46.98108 -102.87161 -0.00000 -0.00000 52.74610 -0.00000 -0.00000 0.00000 -36.69311 72.56251 -41.09770 -47.86120 52.09560 -24.47617 0.00000 0.00000 26.31080
0.00000 0.43258 0.00000 -30.43633 29.82378 157.06188 0.00000 -0.00000 0.00000 -0.10987 9.21001 -80.97478 26.89477 18.81982 110.54799 1.62487 -4.97527 26.30676 0.05247 -1.47823 -4.06570 0.00000 -0.00000 0.00000 -7.30127 -22.33090 -78.02228 -23.92295 -19.62696 101.53882 -0.04530 -5.35282 -8.90442 -0.29723 -3.50558 9.68966 8.71488 2.51339 39.72810 13.85590 7.79621 14.46260 7.35608 3.15698 -4.28312 -3.74022 -1.30977 -17.19830 10.41860 -3.59913 23.90190 3.87909 -0.80898 10.81760 -0.00000 0.00000 0.00000 -65.45406 -28.08773 28.76170 137.42972 -49.52107 -99.62669 -0.00000 -0.00000 42.54090 -0.00000 0.00000 0.00000 -53.04858 67.84419 -52.94180 -48.62263 52.42465 -25.07831 0.00000 0.00000 25.65280
0.00000 0.34485 0.00000 -29.98941 39.28632 166.78545 0.00000 -0.00000 0.00000 1.63191 19.84168 -84.84378 28.07463 18.35892 114.24794 1.39472 -1.15977 22.76733 0.03865 -1.26894 -3.48910 0.00000 -0.00000 0.00000 -2.98562 -13.02670 -85.59311 -24.66271 -19.47056 103.74940 0.17060 -8.41951 -7.55050 -0.37754 -3.94625 10.92551 7.85886 1.29365 46.09260 10.21560 5.03428 15.74920 5.06051 1.22820 -3.77019 -1.92682 1.49687 -17.16230 2.62592 1.98136 21.84160 1.49226 1.01900 9.70548 0.00000 0.00000 0.00000 -53.63900 -32.19681 10.23186 134.20845 -51.15042 -97.14644 -0.00000 -0.00000 23.99640 0.00000 0.00000 0.00000 -58.54524 57.85542 -55.93305 -53.46165 54.29968 -28.96260 0.00000 0.00000 19.56100
0.00000 0.25938 0.00000 -31.44270 45.51906 176.69560 0.00000 -0.00000 0.00000 -1.27072 25.00055 -88.14563 28.94422 17.96227 117.03741 0.90299 -2.74352 19.14100 0.25476 -3.24753 -8.96866 0.00000 -0.00000 0.00000 -0.70705 -7.48480 -94.74060 -26.69640 -18.88905 109.93416 0.42701 -11.89541 -7.69093 -0.58756 -4.90779 13.64575 2.71011 2.00207 49.47350 6.85965 2.42201 15.40680 5.23935 -0.60074 -3.57538 -0.58568 2.41073 -15.96220 1.24475 3.16399 23.59870 0.94039 1.45855 10.12550 0.00000 -0.00000 0.00000 -36.77482 -31.32354 -5.34334 126.75438 -54.22349 -91.21275 -0.00000 -0.00000 24.14120 0.00000 -0.00000 0.00000 -46.40458 48.04561 -47.12482 -58.17075 55.80246 -32.82352 0.00000 0.00000 20.30770
0.00000 0.15991 0.00000 -28.63164 47.67993 -167.52271 0.00000 -0.00000 0.00000 -3.77711 21.45361 -88.86120 28.68893 18.08397 116.21231 0.62561 -3.21859 16.45494 0.38393 -3.97916 -11.01804 0.00000 -0.00000 0.00000 5.96430 -5.99417 -100.56301 -28.12159 -18.33878 114.39710 0.59286 -13.49539 -5.39321 -0.75072 -5.53417 15.43861 0.70263 0.57530 51.17000 5.94153 -1.00447 13.41450 6.68184 -2.44881 -5.71502 -0.35622 3.27394 -13.55060 -0.23968 4.58892 25.96250 0.53156 1.83615 10.55240 0.00000 0.00000 0.00000 -25.72148 -27.01898 -13.88250 117.60338 -56.91546 -83.65768 -0.00000 -0.00000 22.15920 0.00000 0.00000 0.00000 -28.36212 45.93766 -35.86585 -57.58060 55.62999 -32.33590 0.00000 0.00000 12.01990
0.00000 0.12542 0.00000 -107.14972 69.64981 160.78989 0.00000 -0.00000 0.00000 -53.50661 7.28015 -107.09399 27.22746 18.69849 111.58246 0.20401 1.35115 8.16391 0.66547 -5.21703 -14.52861 0.00000 -0.00000 0.00000 -26.76727 -6.41511 -138.84075 -29.34228 -17.76348 118.33508 -0.27362 -1.73336 9.42790 -0.06036 -1.58532 4.36094 -40.66150 1.94087 20.07550 -6.08756 -6.91373 6.73840 13.37360 -4.75841 0.78179 2.08465 4.36122 -12.14470 -0.88137 5.62599 26.44560 -0.00724 2.42635 10.55880 -0.00000 0.00000 0.00000 -17.03207 -21.93990 -16.46782 109.42467 -58.52517 -76.73895 -0.00000 -0.00000 20.81910 -0.00000 0.00000 0.00000 10.51236 44.69048 -10.37690 -66.20663 57.74891 -39.55007 0.00000 0.00000 8.89892
0.00000 0.11509 0.00000 -131.83792 74.46325 136.54515 0.00000 -0.00000 0.00000 -58.43166 11.60916 -91.35088 28.10780 18.34471 114.35329 0.82192 4.16125 16.23344 0.40382 -4.07972 -11.30106 0.00000 -0.00000 0.00000 -25.17519 -18.59816 -132.33372 -32.94046 -15.38182 130.90086 -1.56963 11.47661 30.24519 -0.00000 -0.00032 0.00088 -45.43760 1.85085 19.87130 -5.59042 -8.14193 7.75073 13.65940 -6.19371 3.53744 0.30330 3.61722 -12.98290 -1.15546 4.96753 26.94090 0.12523 1.86775 10.85190 0.00000 -0.00000 0.00000 -24.32506 -26.34470 -15.70182 103.97426 -59.24911 -72.07155 -0.00000 -0.00000 19.98580 0.00000 -0.00000 0.00000 34.70079 35.14552 7.21900 -59.91005 56.28592 -34.26626 0.00000 0.00000 12.57580
0.00000 0.09595 0.00000 -13.92353 76.28378 -123.71510 0.00000 -0.00000 0.00000 -26.90926 25.37093 -63.72901 28.53914 18.15332 115.73065 4.44437 8.97101 38.51096 0.10007 2.03999 5.61619 0.00000 -0.00000 0.00000 -10.37001 -26.90545 -90.91318 -33.47250 -14.92074 132.93624 -0.91431 9.90769 24.21138 -0.51637 -4.60570 12.78726 -20.74930 3.34727 35.17300 -1.90458 -5.39679 14.26650 9.97316 -5.13037 0.01135 -2.20651 3.09767 -12.42270 -0.98192 4.58533 29.53950 0.54583 1.26693 11.66250 0.00000 0.00000 0.00000 -31.75195 -36.54740 -12.79632 86.86215 -59.96276 -57.28289 -0.00000 -0.00000 13.96360 0.00000 0.00000 0.00000 46.17205 28.93262 12.98311 -43.97608 50.25689 -21.44851 0.00000 0.00000 13.08370
0.00000 0.10690 0.00000 24.13505 50.87296 -74.71873 0.00000 -0.00000 0.00000 -1.69034 25.01058 -67.22737 27.94495 18.41382 113.83680 2.21299 -0.62391 28.39160 0.05386 1.49762 4.11917 0.00000 -0.00000 0.00000 15.50926 -6.26190 -79.75808 -30.53706 -17.09657 122.32223 0.13506 -6.60189 -3.63433 -0.01437 0.77411 -2.12748 3.01292 -1.63755 23.72910 1.27108 -3.69031 14.38420 0.37743 -2.78643 2.63419 -2.26157 3.69187 -11.76590 -4.30134 6.22814 30.06990 -0.49030 1.45009 11.88180 -0.00000 -0.00000 0.00000 -29.43647 -40.97488 -11.02075 63.85020 -57.25155 -37.56257 -0.00000 -0.00000 10.79600 -0.00000 -0.00000 0.00000 55.99696 21.55181 18.51750 -41.09018 48.70268 -19.25432 0.00000 0.00000 22.32360
0.00000 0.12334 0.00000 25.13450 33.27548 -57.85173 0.00000 -0.00000 0.00000 14.38801 20.97534 -77.33438 27.67161 18.52604 112.97401 1.33787 -4.34228 23.79953 0.01917 -0.89399 -2.45718 0.00000 -0.00000 0.00000 34.22418 2.31186 -81.59428 -28.68538 -18.08563 116.20087 0.05958 -8.64354 -11.10624 -0.26390 3.30485 -9.12867 17.01750 -3.29613 17.53550 3.75023 -3.95258 11.71520 -4.86028 -2.03701 2.66116 -0.54864 5.18958 -10.88470 -8.61353 9.02507 29.66920 -2.05117 2.27516 11.94720 0.00000 0.00000 0.00000 -28.17724 -38.89367 -6.39431 57.15150 -55.50184 -31.98199 -0.00000 -0.00000 11.92970 0.00000 0.00000 0.00000 61.00659 14.92206 21.36600 -39.84556 47.97813 -18.32442 0.00000 0.00000 31.95060
0.00000 0.14220 0.00000 30.49421 25.52123 -46.57197 0.00000 -0.00000 0.00000 20.35221 17.73457 -77.38617 27.56153 18.56992 112.62796 -0.09105 -16.65304 22.73793 0.83374 -5.82497 -16.27742 0.00000 -0.00000 0.00000 41.38054 -0.86447 -82.30185 -29.26568 -17.80260 118.08428 -0.69801 -0.84060 -16.10997 -0.50309 4.54701 -12.62091 16.50720 -3.23682 22.11940 3.33859 -3.23528 11.46970 -4.93153 -1.98372 0.20678 1.15722 5.34316 -11.19250 -9.70159 9.08679 28.11400 -2.68264 2.49421 11.54280 0.00000 0.00000 0.00000 -26.16919 -38.32637 -3.57704 60.73467 -56.50254 -34.95306 -0.00000 -0.00000 13.37370 0.00000 0.00000 0.00000 60.62771 12.97429 20.08705 -36.92002 46.13547 -16.18235 0.00000 0.00000 37.84020
0.00000 0.16371 0.00000 33.12360 19.53877 -37.03464 0.00000 -0.00000 0.00000 22.24063 16.89717 -82.07016 28.20353 18.30328 114.65778 -1.51811 -24.65578 23.06420 1.62682 -8.04119 -22.83926 0.00000 -0.00000 0.00000 44.85729 -5.29989 -86.17801 -30.81247 -16.92689 123.26357 -1.36069 -2.11833 -22.89130 -0.39784 4.04973 -11.21663 12.43490 -2.25803 27.53610 2.82798 -2.35189 11.88180 -3.25754 -1.96333 -1.83256 1.53527 5.07939 -13.24250 -9.92472 8.69015 25.48560 -2.75278 2.52819 10.95420 0.00000 0.00000 0.00000 -17.73628 -41.85929 -4.99405 61.93488 -56.80386 -35.95568 -0.00000 -0.00000 11.32460 0.00000 0.00000 0.00000 60.82161 7.54903 17.92976 -46.89936 51.66576 -23.71945 0.00000 0.00000 42.05300
0.00000 0.18635 0.00000 34.61183 14.19989 -27.90798 0.00000 -0.00000 0.00000 19.32431 18.72449 -89.24097 28.84382 18.01067 116.71229 -2.09329 -29.05107 28.10434 1.99596 -8.85765 -25.35104 0.00000 -0.00000 0.00000 44.94113 -6.66089 -90.88420 -32.42182 -15.80006 128.97133 -1.97151 4.09240 -25.58179 -3.49757 11.45999 -33.84739 7.27619 -1.18658 32.99060 0.62418 -2.15690 11.48550 -2.39789 -2.17746 -4.28912 2.04585 5.54683 -14.82080 -10.09700 9.25476 23.37490 -2.72996 2.95307 10.55840 0.00000 0.00000 0.00000 -4.34733 -44.66724 -9.56246 57.30240 -55.54718 -32.10638 -0.00000 -0.00000 12.23580 0.00000 0.00000 0.00000 65.52786 6.01338 17.26974 -49.98134 52.98797 -26.15925 0.00000 0.00000 45.13150
0.00000 0.20973 0.00000 34.08566 7.63821 -20.23603 0.00000 -0.00000 0.00000 14.79539 21.91910 -96.24452 29.54107 17.65996 118.98850 -0.90781 -28.57280 35.29444 2.00223 -8.87072 -25.39175 0.00000 -0.00000 0.00000 50.40474 -6.16014 -96.10985 -33.49425 -14.90115 133.02077 -1.95539 8.24237 -25.09112 -6.16214 14.58365 -45.62902 1.01509 0.87850 38.10980 -1.56263 -2.15201 10.97950 -1.20058 -2.44818 -6.58820 3.32185 6.28658 -16.39130 -9.15043 9.68399 19.77860 -2.44093 3.61522 9.60140 0.00000 0.00000 0.00000 11.98489 -46.95479 -16.38432 47.52582 -51.94754 -24.21181 -0.00000 -0.00000 10.63730 0.00000 0.00000 0.00000 69.78428 8.00551 19.19088 -42.36253 49.40896 -20.21542 0.00000 0.00000 46.82290
0.00000 0.23523 0.00000 28.47602 2.27084 -13.50859 0.00000 -0.00000 0.00000 12.97214 21.58490 -102.72361 30.01737 17.40007 120.56970 -0.51124 -28.74044 37.69996 1.29051 -7.19803 -20.30339 0.00000 -0.00000 0.00000 57.62078 -1.88769 -97.82472 -33.79059 -14.62825 134.18352 -1.89247 6.88172 -24.72461 -5.83704 14.26855 -44.32417 -2.34976 2.25857 41.62630 -1.77683 -2.29884 10.43640 0.49449 -2.65987 -8.24681 3.23763 7.28935 -17.84190 -8.51919 10.68080 14.86820 -2.02491 4.36567 8.20284 -0.00000 -0.00000 0.00000 24.64794 -49.36454 -22.76271 37.46831 -46.49635 -16.57885 -0.00000 -0.00000 11.97150 -0.00000 -0.00000 0.00000 70.87743 10.96658 22.73937 -34.00409 44.08775 -14.11591 0.00000 0.00000 40.21270
0.00000 0.26530 0.00000 19.05634 0.66115 -7.15215 0.00000 -0.00000 0.00000 16.81253 20.08644 -107.62485 30.59022 17.06431 122.50323 -4.10395 -35.70993 29.67885 0.33427 -3.71560 -10.27789 0.00000 -0.00000 0.00000 59.58989 6.73759 -95.70768 -33.72351 -14.69103 133.91847 -1.62758 10.95543 -22.99708 -6.58147 14.96908 -47.27304 -1.21394 1.51584 42.65850 -0.52353 -2.97705 10.90100 1.53870 -3.11396 -7.98720 2.36547 8.03501 -18.31180 -8.69603 11.48810 9.97642 -1.88069 4.85280 6.68491 -0.00000 -0.00000 0.00000 28.60972 -54.35426 -28.80268 29.78943 -40.71222 -11.27203 -0.00000 -0.00000 16.61030 -0.00000 -0.00000 0.00000 71.58189 16.89634 24.86838 -25.58041 36.79136 -8.63513 0.00000 0.00000 35.54050
0.00000 0.30053 0.00000 13.74576 0.77362 -3.17474 0.00000 -0.00000 0.00000 18.09237 21.64176 -111.50584 31.87323 16.21170 126.98200 -5.67817 -38.12103 21.48116 0.24933 -3.21301 -8.87236 0.00000 -0.00000 0.00000 60.34969 4.02301 -95.63951 -34.24108 -14.19058 135.99367 -1.00116 18.00997 -20.47084 -7.59402 15.81238 -51.08683 0.08850 1.03190 44.51800 -0.45157 -3.57575 11.78270 1.22327 -3.57562 -7.53101 1.67531 7.86255 -18.43450 -8.50878 11.11730 7.44859 -1.80012 4.74164 5.82283 0.00000 -0.00000 0.00000 24.49475 -64.50713 -30.27768 23.51010 -34.64190 -7.42623 -0.00000 -0.00000 12.88290 0.00000 -0.00000 0.00000 72.60377 22.49928 23.28434 -17.37672 27.35172 -4.25898 0.00000 0.00000 36.10110
0.00000 0.33900 0.00000 12.79962 2.37862 1.89341 0.00000 -0.00000 0.00000 10.90705 21.20881 -117.48239 33.17470 15.18300 131.78953 -4.59243 -34.74228 13.56573 0.02815 -1.08319 -2.97774 0.00000 -0.00000 0.00000 59.69051 -3.72695 -100.14050 -34.99347 -13.39114 139.14913 -0.25269 23.09613 -18.03810 -6.85490 15.20848 -48.32338 1.41149 0.37478 45.34180 -0.49205 -3.91608 12.26300 0.64705 -3.72697 -7.23893 -0.06628 7.08484 -19.45710 -10.02510 10.36190 5.50628 -2.09805 4.18657 5.34696 0.00000 0.00000 0.00000 6.17222 -75.46277 -17.49892 18.06940 -28.24594 -4.58204 -0.00000 -0.00000 12.95580 0.00000 0.00000 0.00000 70.39606 25.44927 18.06872 -11.51218 19.06905 -1.93996 0.00000 0.00000 38.40800
0.00000 0.38064 0.00000 12.61052 5.42109 8.29274 0.00000 -0.00000 0.00000 5.01523 17.60714 -122.13624 33.56344 14.83846 133.29036 -4.30517 -33.82452 12.72984 0.00182 0.27579 0.75776 0.00000 -0.00000 0.00000 58.73269 -11.12974 -105.60801 -35.35339 -12.97442 140.72721 1.14378 30.22071 -14.66192 -4.36975 12.63682 -38.02374 4.00222 -1.64617 45.24190 0.01549 -5.03133 12.40910 0.31780 -4.12085 -7.08612 -0.72652 6.82622 -20.12830 -13.02970 9.95927 2.78260 -2.99860 3.74593 4.74615 0.00000 -0.00000 0.00000 -50.87882 -80.79570 23.25600 12.87329 -21.10128 -2.40748 -0.00000 -0.00000 26.41570 0.00000 -0.00000 0.00000 66.45655 26.55211 15.75908 -8.94309 15.06968 -1.18528 0.00000 0.00000 38.07880
0.00000 0.42187 0.00000 13.90533 7.69613 16.14935 0.00000 -0.00000 0.00000 -0.00114 12.85813 -125.54980 33.48882 14.90605 132.99964 -4.34752 -33.94616 13.58653 0.07572 1.77513 4.88459 0.00000 -0.00000 0.00000 56.12344 -13.89724 -110.01275 -35.40613 -12.91130 140.96267 2.46296 36.03810 -13.13403 -1.70964 8.23311 -23.42438 5.37582 -3.41717 44.17210 0.44808 -6.22201 12.17300 0.52745 -4.48555 -7.10499 -0.53427 6.88024 -20.51370 -15.27410 9.58369 0.00333 -3.79218 3.43899 4.08109 0.00000 -0.00000 0.00000 -98.08672 -77.52960 48.68582 13.02962 -21.33059 -2.46405 -0.00000 -0.00000 33.58500 0.00000 -0.00000 0.00000 62.93809 28.16340 15.25446 -7.55292 12.82558 -0.85012 0.00000 0.00000 35.99530
0.00000 0.46192 0.00000 14.56837 7.10210 23.46306 0.00000 -0.00000 0.00000 -3.58774 9.46044 -126.56180 33.11566 15.23371 131.56449 -4.46378 -34.45286 11.00166 0.23411 3.11409 8.59653 0.00000 -0.00000 0.00000 52.61100 -10.98699 -111.98246 -35.17611 -13.18268 139.94380 1.66081 35.48454 -17.04299 -1.24815 7.08339 -19.96266 6.25127 -3.53227 43.93460 0.96561 -5.51236 11.52710 0.35642 -3.99408 -7.72709 -1.95761 6.16800 -19.87380 -16.07010 8.42310 -2.27304 -3.96864 2.89689 3.18638 -0.00000 -0.00000 0.00000 -110.89611 -75.56038 63.51729 16.63693 -26.37665 -3.92467 -0.00000 -0.00000 21.49680 -0.00000 -0.00000 0.00000 59.25343 29.03057 11.60142 -6.30205 10.76499 -0.59437 0.00000 0.00000 34.33740
0.00000 0.50022 0.00000 14.09890 5.39440 29.08331 0.00000 -0.00000 0.00000 -4.72077 6.30835 -125.62135 32.59206 15.66601 129.59916 -4.44604 -35.10132 5.99473 0.29406 3.48704 9.63778 0.00000 -0.00000 0.00000 47.45829 -5.78703 -112.70096 -34.83294 -13.56949 138.46050 0.10336 30.97908 -21.41518 -1.60978 8.00102 -22.71717 6.72621 -2.72788 43.84830 1.61548 -4.05731 11.28950 0.19105 -3.25568 -7.87642 -3.94603 5.42601 -18.97360 -16.31760 7.27966 -4.33015 -3.86720 2.42623 2.27060 -0.00000 0.00000 0.00000 -126.54026 -75.21774 82.56664 16.19563 -25.78518 -3.73065 -0.00000 -0.00000 20.52560 -0.00000 0.00000 0.00000 55.88984 31.12425 1.44470 -4.98071 8.55190 -0.37263 0.00000 0.00000 38.26030
0.00000 0.53989 0.00000 11.61837 3.62000 31.97362 0.00000 -0.00000 0.00000 -3.65648 4.54547 -122.29452 31.94140 16.16218 127.22653 -4.07633 -35.46169 -0.01753 0.20806 2.93680 8.10286 0.00000 -0.00000 0.00000 42.51964 -0.60339 -110.56906 -34.30148 -14.12969 136.24055 -0.93727 25.53046 -23.60461 -2.01158 8.89015 -25.45230 7.64250 -2.63972 44.92410 1.62479 -3.67031 11.57720 -0.38394 -3.11017 -7.81210 -4.17296 5.90571 -17.99520 -16.79270 7.32708 -7.13271 -4.01342 2.60194 1.28610 0.00000 -0.00000 0.00000 -135.60949 -75.34634 90.07542 15.66489 -25.06417 -3.50279 -0.00000 -0.00000 24.79290 0.00000 -0.00000 0.00000 54.51290 36.20260 -3.75654 -4.74939 8.16112 -0.33901 0.00000 0.00000 39.16070
0.00000 0.57920 0.00000 7.16935 1.06786 33.31710 0.00000 -0.00000 0.00000 -1.67406 5.66457 -118.05283 31.12187 16.72865 124.33230 -3.35831 -35.37844 -6.14919 0.06235 1.61110 4.43205 0.00000 -0.00000 0.00000 38.22778 7.58929 -106.50122 -33.76979 -14.64778 134.10121 -1.59561 18.69599 -24.47449 -2.15349 9.17873 -26.35602 7.01571 -2.28168 46.76420 1.44246 -3.72607 11.72180 -0.15147 -3.23634 -8.11627 -4.10375 7.09155 -16.87140 -16.32800 8.41560 -9.72322 -4.26253 3.33713 0.31336 -0.00000 -0.00000 0.00000 -121.85169 -78.72065 79.03550 15.78009 -25.22156 -3.55173 -0.00000 -0.00000 22.64950 -0.00000 -0.00000 0.00000 54.82126 44.45793 -4.98618 -5.15015 8.83756 -0.39825 0.00000 0.00000 39.87790
0.00000 0.61385 0.00000 2.07220 -0.67762 34.44220 0.00000 -0.00000 0.00000 0.83968 7.06987 -114.43381 30.22670 17.28039 121.27202 -2.08609 -33.55172 -12.32137 0.00709 0.54381 1.49431 0.00000 -0.00000 0.00000 32.95497 16.15657 -104.14083 -33.77436 -14.64350 134.11928 -2.01899 15.66428 -26.19826 -2.47368 9.78990 -28.29899 6.11729 -2.27833 48.33410 1.31037 -4.10066 10.56370 0.49675 -3.48286 -8.44934 -3.24370 6.67276 -15.89250 -15.05830 10.26300 -11.86370 -3.91882 6.08899 -0.46038 0.00000 -0.00000 0.00000 -87.34936 -80.54628 45.81693 15.06996 -24.24348 -3.25461 -0.00000 -0.00000 19.83160 0.00000 -0.00000 0.00000 55.39844 54.19652 -4.25847 -5.56765 9.53916 -0.46492 0.00000 0.00000 49.54500
0.00000 0.64468 0.00000 -1.52593 -1.40711 35.02156 0.00000 -0.00000 0.00000 2.89086 7.30463 -110.43609 29.04717 17.91193 117.37170 -1.07566 -31.68166 -16.53575 0.00559 0.48294 1.32701 0.00000 -0.00000 0.00000 25.06583 20.74396 -105.06109 -34.17449 -14.25709 135.72265 -2.49020 10.61727 -28.40528 -2.61231 10.03931 -29.10413 5.18658 -2.47074 48.44070 0.90900 -4.73143 10.10830 0.80338 -3.73528 -9.02225 -1.93311 8.09517 -15.56800 -13.36590 11.74250 -13.34090 -3.54382 6.83711 -0.95788 -0.00000 0.00000 0.00000 -61.31348 -79.51071 18.68668 13.01533 -21.30967 -2.45885 -0.00000 -0.00000 20.12800 -0.00000 0.00000 0.00000 55.39572 60.31166 19.02827 -8.76909 14.79166 -1.14045 0.00000 0.00000 41.84050
0.00000 0.67384 0.00000 -3.53437 -0.39161 35.17156 0.00000 -0.00000 0.00000 4.41635 5.87127 -106.84655 27.64370 18.53724 112.88621 -0.57998 -30.28069 -18.19674 0.00965 0.63432 1.74313 0.00000 -0.00000 0.00000 17.02211 17.73038 -107.69517 -33.87122 -14.55199 134.50360 -2.61575 1.75627 -30.16349 -1.92669 8.71167 -24.89749 5.69640 -3.23108 47.23420 0.55956 -5.30564 10.46940 0.37672 -3.88463 -9.78921 1.42515 8.62097 -14.94140 -12.58750 12.03120 -15.26350 -3.96447 7.02514 -1.53528 -0.00000 0.00000 0.00000 -54.45318 -79.53703 5.89279 10.21340 -17.07268 -1.53701 -0.00000 -0.00000 26.43910 -0.00000 0.00000 0.00000 61.30685 64.81130 27.43352 -12.24271 20.16764 -2.18525 0.00000 0.00000 28.44650
0.00000 0.70189 0.00000 -5.12096 1.94134 35.72142 0.00000 -0.00000 0.00000 5.67410 3.86040 -104.27004 26.05187 19.09823 107.95399 -0.17798 -28.60931 -19.21230 0.03709 1.24311 3.41797 0.00000 -0.00000 0.00000 10.36736 11.80144 -108.94462 -31.73619 -16.30990 126.49258 -2.36537 -4.56721 -30.95335 -0.81784 5.77055 -16.12011 7.51957 -4.31441 46.11150 1.17578 -5.34234 9.67377 0.13308 -3.81838 -10.41200 3.36695 8.31719 -15.02110 -12.05360 11.60330 -16.62100 -4.22654 6.87744 -1.94889 0.00000 -0.00000 0.00000 -51.60215 -78.54788 -0.81515 9.45830 -15.88780 -1.32278 -0.00000 -0.00000 30.18660 0.00000 -0.00000 0.00000 67.46032 66.23921 31.16799 -15.87280 25.34787 -3.59133 0.00000 0.00000 18.33870
0.00000 0.72741 0.00000 -6.60225 3.13647 36.19366 0.00000 -0.00000 0.00000 6.91783 2.97909 -100.95037 24.31196 19.54826 102.69914 0.38473 -26.93065 -21.30951 0.06759 1.67735 4.61479 0.00000 -0.00000 0.00000 3.91116 9.97585 -105.97028 -27.51054 -18.58998 112.46794 -2.03462 -5.38860 -29.30419 -0.54135 4.71406 -13.09478 8.62505 -3.67376 44.69500 2.34154 -3.54747 8.61163 -0.00527 -2.96888 -11.10530 4.15714 7.30157 -14.77750 -12.28860 10.30980 -17.84670 -4.18646 6.37956 -2.11725 0.00000 0.00000 0.00000 -56.10642 -75.36564 7.55769 12.09629 -19.94889 -2.13503 -0.00000 -0.00000 21.00140 0.00000 0.00000 0.00000 66.08850 63.53265 29.61994 -19.03135 29.45761 -5.04626 0.00000 0.00000 13.27350
0.00000 0.75267 0.00000 -6.94507 4.02370 35.36847 0.00000 -0.00000 0.00000 8.06194 1.41224 -96.00298 22.58323 19.83925 97.57233 0.89384 -24.76644 -22.95749 0.04478 1.36578 3.75585 0.00000 -0.00000 0.00000 -0.41030 10.60045 -98.24117 -22.93876 -19.79167 98.62108 -1.55103 -1.26304 -24.02665 -0.89078 6.01587 -16.83049 8.89834 -2.53450 43.08950 3.21439 -1.68357 7.79293 -0.08877 -2.09034 -11.47280 4.45591 6.19383 -15.50220 -11.77930 9.09734 -17.61450 -4.11346 5.81493 -2.05539 0.00000 0.00000 0.00000 -60.62918 -69.60083 20.62701 16.46509 -26.14720 -3.84863 -0.00000 -0.00000 10.77280 0.00000 0.00000 0.00000 65.45849 58.10434 27.76664 -19.88218 30.50013 -5.47142 0.00000 0.00000 10.46710
0.00000 0.77659 0.00000 -6.73788 5.45109 32.55922 0.00000 -0.00000 0.00000 8.90624 -0.34073 -89.50559 21.04749 19.97367 93.06396 1.04428 -23.40034 -23.12869 0.01730 0.84926 2.33414 0.00000 -0.00000 0.00000 0.64562 11.81097 -88.76903 -20.55985 -19.99248 91.63708 -2.14641 0.74167 -27.52531 -1.38822 7.45468 -21.06958 8.89170 -1.46792 41.75920 4.09824 -0.14876 7.26048 0.15454 -1.37737 -11.61190 2.87544 8.02782 -16.80340 -10.98500 7.27736 -15.82960 -3.84445 2.37162 -1.77286 0.00000 0.00000 0.00000 -67.78476 -61.21929 29.42859 22.01952 -32.99908 -6.59647 -0.00000 -0.00000 15.16400 0.00000 0.00000 0.00000 68.11919 50.25673 25.24760 -20.17459 30.85211 -5.62061 0.00000 0.00000 9.19114
0.00000 0.80154 0.00000 -6.14086 6.82644 29.02455 0.00000 -0.00000 0.00000 8.66986 -2.07941 -81.85323 19.33633 19.98944 88.05924 1.07093 -22.85350 -23.02208 0.00761 0.56322 1.54769 0.00000 -0.00000 0.00000 3.53357 12.16156 -81.11158 -19.28610 -19.98778 87.91230 -2.23028 -1.32731 -28.75201 -0.92514 6.12767 -17.15531 9.15887 -0.72746 40.29090 4.64758 0.99201 6.89715 0.07960 -0.83323 -11.51130 1.91108 6.76279 -17.69100 -10.05310 5.76634 -15.09830 -3.38619 1.65575 -1.56006 0.00000 0.00000 0.00000 -74.38082 -51.23360 34.43195 28.93076 -39.95909 -10.71622 -0.00000 -0.00000 9.64969 0.00000 0.00000 0.00000 70.93634 41.18973 22.09296 -21.02448 31.85692 -6.06286 0.00000 0.00000 6.26420
0.00000 0.83180 0.00000 -4.94117 8.90471 26.06552 0.00000 -0.00000 0.00000 6.83411 -3.96611 -74.31853 17.14267 19.80312 81.61934 0.89769 -22.79936 -21.96924 0.01759 0.85630 2.35350 0.00000 -0.00000 0.00000 5.87682 10.82994 -73.48071 -17.69173 -19.87177 83.23720 -2.18226 -2.90080 -29.07055 -0.62767 5.06952 -14.10696 9.70984 -0.76018 37.61270 5.08739 1.23309 6.39723 0.10632 -0.62961 -11.14820 1.19509 5.95952 -19.06940 -9.53339 5.04751 -13.34340 -3.06314 1.34044 -0.83418 -0.00000 0.00000 0.00000 -79.02806 -40.58150 35.83866 34.66869 -44.57410 -14.58034 -0.00000 -0.00000 7.94546 -0.00000 0.00000 0.00000 73.99826 32.20391 18.97391 -21.43672 32.33457 -6.28190 0.00000 0.00000 4.18221
0.00000 0.86793 0.00000 -3.80185 11.58606 23.18676 0.00000 -0.00000 0.00000 4.49164 -5.98935 -65.90973 14.41213 19.23430 73.45923 0.70567 -22.29568 -20.52657 0.03834 1.26379 3.47492 0.00000 -0.00000 0.00000 8.32419 8.72838 -64.32554 -15.26055 -19.45271 76.02028 -2.11064 -4.83591 -29.50792 -0.57608 4.86041 -13.51087 10.41070 -1.15560 34.87170 5.43398 1.05832 5.68530 0.12826 -0.61103 -10.94090 0.49977 4.96199 -20.48860 -8.38819 4.27163 -10.92760 -2.56011 1.03504 0.10140 0.00000 0.00000 0.00000 -81.98423 -29.73626 35.63697 39.18376 -47.57880 -17.83432 -0.00000 -0.00000 8.02922 0.00000 0.00000 0.00000 76.89505 24.30485 14.85494 -20.93622 31.75382 -6.01634 0.00000 0.00000 6.45798
0.00000 0.90550 0.00000 -2.91194 13.65983 20.56581 0.00000 -0.00000 0.00000 2.39897 -8.52884 -56.33588 11.40148 18.12601 64.07862 0.72568 -20.43511 -19.70069 0.04392 1.35250 3.71927 0.00000 -0.00000 0.00000 10.09104 7.18032 -55.06968 -12.49686 -18.59288 67.55528 -1.91446 -6.57436 -29.17694 -0.43306 4.22300 -11.70490 10.86300 -1.47983 32.00280 5.45437 0.77970 5.01026 -0.10187 -0.63044 -10.69520 -0.19739 3.83563 -22.09000 -7.10232 3.44177 -7.89884 -2.05545 0.72336 1.29787 -0.00000 -0.00000 0.00000 -83.48182 -19.57356 35.31131 43.03081 -49.76648 -20.72425 -0.00000 -0.00000 5.82950 -0.00000 -0.00000 0.00000 78.90953 18.06980 12.86402 -19.99825 30.64024 -5.53046 0.00000 0.00000 7.65798
0.00000 0.93929 0.00000 -2.62204 14.12745 18.35702 0.00000 -0.00000 0.00000 0.64300 -10.19096 -46.74174 8.67356 16.59300 54.95417 0.86483 -17.39704 -19.27756 0.03015 1.12081 3.08127 0.00000 -0.00000 0.00000 11.53101 7.11953 -45.88702 -9.69624 -17.23546 58.46822 -1.71682 -7.88423 -28.66670 -0.26029 3.28231 -9.06574 10.49280 -1.10532 28.85530 5.34862 1.02641 4.67481 -0.19995 -0.36243 -10.50110 -0.63463 2.74640 -23.90500 -6.34782 2.70514 -3.82868 -1.68039 0.43205 2.58395 -0.00000 -0.00000 0.00000 -84.25281 -10.06524 35.59810 46.85869 -51.64723 -23.68756 -0.00000 -0.00000 3.77225 -0.00000 -0.00000 0.00000 80.30218 12.66648 13.21175 -19.58425 30.13819 -5.32102 0.00000 0.00000 8.44408
0.00000 0.96553 0.00000 -2.77797 13.73888 16.70440 0.00000 -0.00000 0.00000 -0.64428 -11.12671 -38.04189 6.43870 14.84040 46.71798 1.01551 -14.06586 -19.20266 0.00938 0.62547 1.71879 0.00000 -0.00000 0.00000 12.97886 7.24164 -37.82142 -7.32047 -15.59592 50.07619 -1.60228 -8.17812 -28.08174 -0.14369 2.44292 -6.73141 10.01100 -0.42207 25.40160 5.20040 1.62050 3.85876 -0.35122 0.05278 -9.64983 -0.61263 1.85030 -24.24830 -6.05070 2.00238 -0.79971 -1.65192 0.16998 3.55121 -0.00000 -0.00000 0.00000 -84.62530 -1.53397 36.47440 50.25010 -53.09587 -26.37401 -0.00000 -0.00000 0.83622 -0.00000 -0.00000 0.00000 81.11612 8.14546 15.53388 -19.60318 30.16128 -5.33053 0.00000 0.00000 8.88884
0.00000 0.98372 0.00000 -2.88176 12.88494 14.63170 0.00000 -0.00000 0.00000 -2.17836 -11.76929 -29.10988 4.70966 13.04917 39.55282 1.14714 -10.80736 -19.46538 0.00119 0.22300 0.61270 0.00000 -0.00000 0.00000 14.06295 6.23242 -30.01708 -5.44629 -13.86941 42.71683 -1.65374 -6.95229 -27.65301 -0.10965 2.13504 -5.87901 9.56975 0.23508 22.28830 4.91203 2.18738 3.21334 -0.61097 0.44190 -8.70898 -0.76440 1.14837 -23.80850 -5.61494 1.56597 2.21185 -1.53032 0.06415 4.41997 -0.00000 -0.00000 0.00000 -84.81008 6.25165 37.37018 52.61765 -53.99819 -28.27850 -0.00000 -0.00000 0.09299 -0.00000 -0.00000 0.00000 81.48719 4.33017 19.81189 -19.97145 30.60792 -5.51680 0.00000 0.00000 8.37688
0.00000 0.99372 0.00000 -3.04251 12.13107 13.38672 0.00000 -0.00000 0.00000 -3.32766 -11.93651 -22.65012 3.62589 11.64520 34.48812 1.20053 -8.48103 -19.62308 0.00002 0.02736 0.07516 0.00000 -0.00000 0.00000 14.75002 4.76668 -24.29035 -4.14327 -12.34866 36.97679 -1.62142 -6.08563 -26.90737 -0.18776 2.79075 -7.69672 9.03030 0.80872 18.58330 4.69864 2.61350 2.36674 -0.62874 0.77606 -7.63958 -0.82556 0.68249 -22.88870 -5.22182 1.33869 5.21319 -1.41640 0.04744 5.23148 0.00000 0.00000 0.00000 -85.16768 13.21861 38.20726 54.65410 -54.70839 -29.93346 -0.00000 0.00000 -1.08251 0.00000 0.00000 0.00000 81.62739 1.37914 25.25964 -20.73357 31.51602 -5.91005 0.00000 0.00000 7.97106
0.00000 0.99845 0.00000 -3.45629 11.94791 12.73694 0.00000 -0.00000 0.00000 -3.69529 -11.64801 -18.66076 3.03464 10.75092 31.44437 1.21197 -7.57940 -19.67482 0.00106 -0.21008 -0.57720 0.00000 -0.00000 0.00000 15.43329 3.20420 -20.44709 -3.30720 -11.17647 32.87738 -1.48724 -5.54991 -25.62332 -0.27942 3.39986 -9.39406 8.69499 1.10965 15.18180 4.57651 2.77979 1.30581 -0.55838 0.94566 -6.92843 -0.79811 0.38723 -21.82750 -4.76701 1.16393 7.76893 -1.29262 0.03916 5.88251 0.00000 0.00000 0.00000 -85.66410 18.94738 38.97566 56.90756 -55.42794 -31.78103 -0.00000 0.00000 -3.49613 0.00000 0.00000 0.00000 81.85728 -0.41000 30.67326 -21.85191 32.80926 -6.50542 0.00000 0.00000 6.94625
0.00000 0.99915 0.00000 -3.85506 11.98377 12.18387 0.00000 -0.00000 0.00000 -3.88671 -11.34580 -15.84721 2.75443 10.28649 29.90952 1.28239 -7.33082 -20.23900 0.00341 -0.37697 -1.03580 0.00000 -0.00000 0.00000 15.92617 1.64435 -17.53934 -2.80243 -10.36814 30.17730 -1.46478 -4.96539 -25.12367 -0.39442 4.03252 -11.16818 8.44118 1.25321 12.71100 4.43809 2.80732 0.36866 -0.52268 1.00701 -6.56604 -0.66615 0.18967 -21.13870 -4.40767 0.98030 9.76897 -1.22063 -0.00318 6.41465 -0.00000 -0.00000 0.00000 -86.57568 22.84266 39.35904 58.75557 -55.96911 -33.30770 -0.00000 0.00000 -3.81157 -0.00000 -0.00000 0.00000 82.34638 -1.06914 35.03262 -23.19420 34.30049 -7.24744 0.00000 0.00000 6.16383
0.00000 0.99750 0.00000 -4.15533 12.06644 11.72060 0.00000 -0.00000 0.00000 -4.14590 -11.26881 -13.74081 2.65231 10.10973 29.33280 1.40546 -7.26636 -21.20318 0.00518 -0.46476 -1.27706 0.00000 -0.00000 0.00000 16.17884 0.90183 -15.06169 -2.50084 -9.83943 28.45830 -1.45760 -5.24176 -25.22496 -0.48977 4.48728 -12.45175 8.27035 1.48049 11.07010 4.29312 3.00230 -0.35804 -0.57722 1.12364 -6.40973 -0.68086 -0.11776 -20.85390 -4.11344 0.61985 11.23700 -1.16905 -0.15508 6.83776 -0.00000 -0.00000 0.00000 -87.93472 24.39794 39.72347 58.91076 -56.01263 -33.43635 -0.00000 0.00000 -4.28841 -0.00000 -0.00000 0.00000 83.23598 -1.16720 37.38325 -24.70246 35.89832 -8.11480 0.00000 0.00000 5.87645
0.00000 0.99491 0.00000 -4.35544 12.48433 11.54683 0.00000 -0.00000 0.00000 -4.49383 -11.52310 -12.42975 2.67173 10.14367 29.44324 1.55599 -7.31536 -22.33360 0.00407 -0.41185 -1.13164 0.00000 -0.00000 0.00000 16.29681 0.65050 -12.91609 -2.28127 -9.42889 27.14638 -1.43694 -6.35452 -25.72968 -0.60881 4.99419 -13.89200 8.30800 1.67247 9.81105 4.13336 3.18736 -0.94113 -0.76131 1.21871 -6.29675 -0.83557 -0.48254 -20.81810 -3.77783 0.17046 12.24860 -1.09282 -0.35353 7.15384 -0.00000 -0.00000 0.00000 -89.34753 24.17284 40.29447 57.99339 -55.75109 -32.67687 -0.00000 0.00000 -4.74279 -0.00000 -0.00000 0.00000 84.41838 -1.17621 38.60529 -26.45728 37.65670 -9.16560 0.00000 0.00000 5.61554
0.00000 0.99227 0.00000 -4.01214 13.41024 11.85189 0.00000 -0.00000 0.00000 -5.39662 -12.17535 -11.60383 2.70184 10.19599 29.61376 1.71092 -7.47643 -23.44391 0.00131 -0.23414 -0.64330 0.00000 -0.00000 0.00000 15.81512 0.51609 -11.05754 -2.08801 -9.04705 25.94261 -1.42272 -7.80149 -26.55958 -0.66239 5.20521 -14.49478 8.06530 1.68915 8.63914 3.87042 3.11196 -1.46542 -0.86216 1.19746 -6.19231 -0.99892 -0.81333 -20.93810 -3.51209 -0.24430 12.88010 -1.03414 -0.54056 7.37496 0.00000 -0.00000 0.00000 -90.34198 23.22656 41.39826 57.67998 -55.65934 -32.41795 -0.00000 0.00000 -4.83437 0.00000 -0.00000 0.00000 85.19956 -1.19877 40.53323 -28.80323 39.84525 -10.63441 0.00000 0.00000 4.80518
0.00000 0.98896 0.00000 -3.20506 14.52562 12.55998 0.00000 -0.00000 0.00000 -6.75609 -12.71444 -11.21208 2.74847 10.27629 29.87614 1.86386 -8.13353 -24.48287 0.00043 0.13369 0.36730 0.00000 -0.00000 0.00000 14.77722 0.22869 -9.67930 -1.96732 -8.79767 25.16443 -1.41376 -9.21748 -27.48878 -0.74094 5.49878 -15.33684 7.57232 1.61995 7.71646 3.46162 2.93020 -2.01711 -0.97376 1.12661 -6.26734 -1.25171 -1.15082 -20.78260 -3.24478 -0.68054 12.73160 -0.95496 -0.73024 7.29499 0.00000 0.00000 0.00000 -90.30872 22.43598 43.56188 59.40420 -56.14907 -33.84582 -0.00000 0.00000 -5.43178 0.00000 0.00000 0.00000 85.37221 -1.77124 43.23604 -32.64698 43.05694 -13.18044 0.00000 0.00000 3.32218
