HIERARCHY
ROOT root
{
  OFFSET 0.000000 0.000000 0.000000
  CHANNELS 6 Xposition Yposition Zposition Zrotation Yrotation Xrotation
  JOINT lhipjoint
  {
    OFFSET 0.000000 0.000000 0.000000
    CHANNELS 3 Zrotation Yrotation Xrotation
    JOINT lfemur
    {
      OFFSET 0.102897 -0.089377 0.049154
      CHANNELS 3 Zrotation Yrotation Xrotation
      JOINT ltibia
      {
        OFFSET 0.137606 -0.378070 0.000000
        CHANNELS 3 Zrotation Yrotation Xrotation
        JOINT lfoot
        {
          OFFSET 0.146354 -0.402104 0.000000
          CHANNELS 3 Zrotation Yrotation Xrotation
          JOINT ltoes
          {
            OFFSET 0.008214 -0.022567 0.120317
            CHANNELS 3 Zrotation Yrotation Xrotation
            End Site
            {
              OFFSET 0.000000 -0.000000 0.061765
            }
          }
        }
      }
    }
  }
  JOINT rhipjoint
  {
    OFFSET 0.000000 0.000000 0.000000
    CHANNELS 3 Zrotation Yrotation Xrotation
    JOINT rfemur
    {
      OFFSET -0.100036 -0.089377 0.049154
      CHANNELS 3 Zrotation Yrotation Xrotation
      JOINT rtibia
      {
        OFFSET -0.141508 -0.388790 0.000000
        CHANNELS 3 Zrotation Yrotation Xrotation
        JOINT rfoot
        {
          OFFSET -0.147670 -0.405720 0.000000
          CHANNELS 3 Zrotation Yrotation Xrotation
          JOINT rtoes
          {
            OFFSET -0.008574 -0.023557 0.121905
            CHANNELS 3 Zrotation Yrotation Xrotation
            End Site
            {
              OFFSET -0.000000 -0.000000 0.062608
            }
          }
        }
      }
    }
  }
  JOINT lowerback
  {
    OFFSET 0.000000 0.000000 0.000000
    CHANNELS 3 Zrotation Yrotation Xrotation
    JOINT upperback
    {
      OFFSET -0.002033 0.119901 -0.017074
      CHANNELS 3 Zrotation Yrotation Xrotation
      JOINT thorax
      {
        OFFSET 0.001534 0.118558 0.007288
        CHANNELS 3 Zrotation Yrotation Xrotation
        JOINT lowerneck
        {
          OFFSET 0.002175 0.121761 0.016192
          CHANNELS 3 Zrotation Yrotation Xrotation
          JOINT upperneck
          {
            OFFSET -0.003596 0.106486 0.006549
            CHANNELS 3 Zrotation Yrotation Xrotation
            JOINT head
            {
              OFFSET 0.004633 0.105979 -0.006494
              CHANNELS 3 Zrotation Yrotation Xrotation
              End Site
              {
                OFFSET 0.001909 0.108988 -0.003095
              }
            }
          }
        }
        JOINT lclavicle
        {
          OFFSET 0.002175 0.121761 0.016192
          CHANNELS 3 Zrotation Yrotation Xrotation
          JOINT lhumerus
          {
            OFFSET 0.186776 0.079223 0.011377
            CHANNELS 3 Zrotation Yrotation Xrotation
            JOINT lradius
            {
              OFFSET 0.306663 -0.000000 0.000000
              CHANNELS 3 Zrotation Yrotation Xrotation
              JOINT lwrist
              {
                OFFSET 0.178328 -0.000000 0.000000
                CHANNELS 3 Zrotation Yrotation Xrotation
                End Site
                {
                  OFFSET 0.089164 -0.000000 0.000000
                }
              }
            }
          }
        }
        JOINT rclavicle
        {
          OFFSET 0.002175 0.121761 0.016192
          CHANNELS 3 Zrotation Yrotation Xrotation
          JOINT rhumerus
          {
            OFFSET -0.176641 0.090332 -0.000262
            CHANNELS 3 Zrotation Yrotation Xrotation
            JOINT rradius
            {
              OFFSET -0.301523 -0.000000 0.000000
              CHANNELS 3 Zrotation Yrotation Xrotation
              JOINT rwrist
              {
                OFFSET -0.180256 -0.000000 0.000000
                CHANNELS 3 Zrotation Yrotation Xrotation
                End Site
                {
                  OFFSET -0.090128 -0.000000 0.000000
                }
              }
            }
          }
        }
      }
    }
  }
}
MOTION
Frames: 22
Frame Time: 0.04166667
0.00000 0.81609 0.00000 -6.85907 0.00003 -6.32536 0.00000 -0.00000 0.00000 -23.35883 -21.45376 -24.05821 16.79009 19.75115 80.57735 1.47171 11.13728 -29.33834 0.57588 -4.85958 -13.50850 0.00000 -0.00000 0.00000 10.57548 20.84455 -48.44714 -5.93372 -14.36380 44.71512 -0.28552 8.48554 16.52252 -1.04133 -6.48989 18.21264 -5.23721 -1.01240 18.62860 3.66619 -2.06318 1.79410 7.53310 -0.74216 -8.17163 -8.65514 -1.58675 1.31183 10.03940 -2.43993 3.56176 4.41312 -1.23039 1.05803 -0.00000 0.00000 0.00000 -124.72509 -62.02358 138.87315 134.10414 -51.19989 -97.06517 0.00000 -0.00000 -15.57520 -0.00000 0.00000 0.00000 59.84250 32.36614 50.00487 -63.96407 57.27692 -37.65835 -0.00000 -0.00000 2.26372
0.00000 0.81413 0.00000 -5.27890 -15.18721 -3.70669 0.00000 -0.00000 0.00000 -23.00244 -15.65755 -31.03391 16.55573 19.71317 79.88319 0.88054 15.67800 -29.42683 0.25947 -3.27720 -9.05147 0.00000 -0.00000 0.00000 14.87643 19.46767 -52.12418 -9.28693 -16.98885 57.07721 0.17650 7.47223 1.85218 -2.26578 -9.39902 27.05166 -5.65566 1.13742 19.15770 1.84594 0.48231 2.15626 5.12096 0.45910 -8.46326 -7.25048 0.95364 -0.26715 9.01825 1.17161 2.26334 4.27921 0.60095 0.67198 -0.00000 -0.00000 0.00000 -154.62679 -69.90656 173.96087 130.89038 -52.63002 -94.53518 0.00000 -0.00000 -8.24345 -0.00000 -0.00000 0.00000 64.81893 37.12761 65.32312 -65.65715 57.63805 -39.08564 -0.00000 0.00000 -4.03672
0.00000 0.80587 0.00000 -5.37921 -26.84773 -2.16013 0.00000 -0.00000 0.00000 -20.73133 -9.43671 -39.07975 17.43144 19.84108 82.47089 0.60955 16.79893 -28.73502 0.13411 -2.36037 -6.50267 0.00000 -0.00000 0.00000 16.11487 17.76682 -51.35197 -15.34564 -19.47249 76.27566 -0.30345 3.83622 -9.79476 -5.43389 -13.85636 42.66509 -5.30460 2.28885 20.62810 0.81981 1.86768 2.02038 3.40002 1.10999 -9.55118 -6.37252 3.12378 -0.99305 7.94462 4.16877 1.44274 3.71815 2.10847 0.30719 0.00000 -0.00000 0.00000 -177.05787 -71.52689 -163.68740 126.17071 -54.42782 -90.73860 0.00000 0.00000 7.62163 0.00000 -0.00000 0.00000 69.62704 41.67507 80.59152 -74.21810 59.03765 -46.37664 -0.00000 0.00000 -16.19580
0.00000 0.80239 0.00000 -7.92208 -35.74595 1.70083 0.00000 -0.00000 0.00000 -16.23497 -3.61082 -46.30535 17.85791 19.88963 83.72588 0.82050 14.76256 -28.06355 0.11528 -2.18903 -6.02836 0.00000 -0.00000 0.00000 14.77914 14.10389 -46.22034 -19.63780 -19.99685 88.94094 -0.28182 -7.23125 -15.18808 -8.74728 -16.64231 55.21197 -3.99357 2.61488 19.89960 0.83792 2.61589 1.53573 2.46532 1.42045 -9.70769 -5.42542 4.97239 -0.99019 6.68884 6.68045 0.50747 3.06802 3.35738 -0.10807 -0.00000 -0.00000 0.00000 168.50931 -72.06580 -152.04178 121.67459 -55.84694 -87.04853 0.00000 0.00000 12.45190 -0.00000 -0.00000 0.00000 74.71763 45.33179 93.72023 -82.94287 59.81097 -53.89222 -0.00000 0.00000 -23.39380
0.00000 0.80668 0.00000 -9.60607 -42.08775 5.40311 0.00000 -0.00000 0.00000 -15.13610 2.56838 -51.25703 16.92346 19.77154 80.97182 0.84754 15.10300 -28.60618 0.00001 0.02284 0.06275 0.00000 -0.00000 0.00000 9.16658 8.21220 -37.94789 -20.67476 -19.98908 91.97321 0.36531 -14.96588 -16.72326 -10.23937 -17.54228 60.28544 -3.30295 3.06495 18.18220 0.81786 3.42349 0.95688 1.87432 1.78403 -9.41628 -4.30162 6.11725 -1.54992 5.42319 8.19249 1.16715 2.46349 4.11908 0.20365 -0.00000 0.00000 0.00000 162.52243 -73.25468 -148.99286 121.98166 -55.75834 -87.30251 0.00000 0.00000 10.46370 -0.00000 0.00000 0.00000 77.95596 47.89919 102.34217 -91.86571 59.98684 -61.61568 -0.00000 0.00000 -36.38410
0.00000 0.80802 0.00000 -12.58615 -47.67125 9.69210 0.00000 -0.00000 0.00000 -13.13716 7.89128 -56.23915 16.55319 19.71274 79.87566 0.74051 14.91847 -27.63922 0.03375 1.18577 3.26011 0.00000 -0.00000 0.00000 3.84456 4.10644 -28.70251 -19.44692 -19.99266 88.38271 0.53239 -15.96446 -16.10684 -9.87865 -17.34105 59.08201 -2.44056 3.80453 16.89760 1.14329 4.65324 0.30332 1.46196 2.35498 -9.45333 -3.27538 7.01493 -2.31922 4.99807 9.36760 1.86425 2.19555 4.71921 0.56204 -0.00000 -0.00000 0.00000 156.21888 -76.18297 -145.64427 122.63070 -55.56718 -87.83845 0.00000 0.00000 14.00860 -0.00000 -0.00000 0.00000 80.12720 49.96135 107.99074 -100.70535 59.56249 -69.25748 -0.00000 0.00000 -47.86950
0.00000 0.80704 0.00000 -16.60229 -53.01612 14.26015 0.00000 -0.00000 0.00000 -9.90712 12.07150 -60.19468 16.60799 19.72188 80.03812 0.50750 14.51660 -25.38570 0.04677 1.39575 3.83843 0.00000 -0.00000 0.00000 -0.19482 -0.23508 -21.89625 -17.09902 -19.79702 81.49047 0.55014 -13.79673 -10.04550 -7.58213 -15.80313 51.04319 -1.11049 4.70647 16.72590 1.11861 6.12192 -0.32444 0.30220 2.99477 -9.97859 -2.25577 7.57017 -1.99716 4.63193 10.09210 1.41248 1.87833 5.07742 0.40409 -0.00000 0.00000 0.00000 145.43218 -80.49089 -136.01869 123.74551 -55.22633 -88.75606 0.00000 0.00000 15.54100 -0.00000 0.00000 0.00000 82.80350 50.42964 110.62348 -108.02015 58.73675 -75.53972 -0.00000 0.00000 -59.98960
0.00000 0.80898 0.00000 -21.62431 -58.45538 20.05454 0.00000 -0.00000 0.00000 -6.23284 14.48133 -62.65375 16.28176 19.66525 79.07005 -0.08813 16.62749 -22.72940 0.09467 1.98437 5.46247 0.00000 -0.00000 0.00000 -1.66132 -2.08958 -18.56464 -14.44561 -19.24366 73.56085 -0.16008 -0.41600 -7.71939 -0.36953 -3.90464 10.80853 -0.46308 5.55570 16.80980 1.38555 7.42944 -1.00695 -0.15119 3.58230 -10.77350 -1.60024 8.31960 -2.22017 4.08692 11.05910 2.16237 1.63886 5.56510 0.70678 0.00000 0.00000 0.00000 83.98799 -85.83944 -75.54330 124.65049 -54.93768 -89.49812 0.00000 0.00000 17.61870 0.00000 0.00000 0.00000 84.97380 48.51213 111.05124 -113.38263 57.82980 -80.10241 -0.00000 0.00000 -69.03250
0.00000 0.80940 0.00000 -29.28041 -63.38392 28.35865 0.00000 -0.00000 0.00000 0.02692 13.55418 -62.68169 16.01638 19.61519 78.28050 -0.63798 18.54130 -19.89415 0.21453 2.98184 8.22818 0.00000 -0.00000 0.00000 0.63750 -2.40835 -18.94161 -12.53367 -18.60725 67.67067 -0.14557 14.94245 -12.04500 -1.45835 7.63267 -21.60380 0.23407 5.85207 17.92520 1.82226 8.06525 -1.85960 -0.39762 3.81724 -12.36380 0.41334 9.35023 -2.45382 3.24486 12.34690 3.34957 1.14105 6.22387 1.25573 0.00000 -0.00000 0.00000 -6.71340 -75.81823 10.45186 125.27756 -54.73122 -90.01075 0.00000 0.00000 24.46200 0.00000 -0.00000 0.00000 84.11168 39.41993 104.62960 -123.16802 55.40489 -88.28119 -0.00000 0.00000 -79.35170
0.00000 0.80688 0.00000 -33.80818 -65.69391 34.70012 0.00000 -0.00000 0.00000 6.20839 8.81009 -61.89015 15.64617 19.53932 77.17569 -0.48407 15.88364 -16.70611 0.14476 2.45197 6.75650 0.00000 -0.00000 0.00000 4.69983 -2.64208 -20.16814 -11.23173 -18.04663 63.53183 -1.03941 11.98195 -18.84555 -0.52868 4.65945 -12.93973 1.42204 4.44958 18.05890 2.40219 6.53061 -1.96273 0.00275 3.04040 -12.47660 1.79703 10.81860 -3.26250 0.47750 14.32870 3.53108 0.22237 7.17941 1.73642 -0.00000 -0.00000 0.00000 -28.01620 -53.70837 14.70972 130.51034 -52.78759 -94.23284 0.00000 -0.00000 -7.56552 -0.00000 -0.00000 0.00000 78.33730 22.29919 93.06280 -136.65315 49.93241 -99.03417 -0.00000 0.00000 -82.93490
0.00000 0.80536 0.00000 -35.07655 -64.62750 37.58538 0.00000 -0.00000 0.00000 10.18409 6.10644 -64.09694 15.00325 19.39055 75.24649 -1.06794 18.56491 -12.20764 0.16126 2.58731 7.13182 0.00000 -0.00000 0.00000 10.58563 -3.33233 -20.47182 -10.15967 -17.49867 60.02070 -2.04813 -3.66002 -28.54274 -0.51375 -4.59419 12.75463 3.73900 3.35095 18.20870 3.29228 5.59273 -0.89671 -0.02406 2.50554 -11.21800 3.26058 10.96780 -4.29209 -3.51973 14.52160 0.04586 -1.22538 7.21871 1.24217 0.00000 -0.00000 0.00000 -53.84647 -34.51641 0.70553 132.13350 -52.09793 -95.51965 0.00000 -0.00000 -69.10870 0.00000 -0.00000 0.00000 70.72924 -0.98599 70.15585 -141.64475 47.06469 -102.77479 -0.00000 0.00000 -68.27770
0.00000 0.80488 0.00000 -28.80751 -60.27540 33.27705 0.00000 -0.00000 0.00000 13.19962 1.60509 -67.07207 14.17058 19.16496 72.72473 -0.59816 13.55003 -4.88140 0.06495 1.64438 4.52382 0.00000 -0.00000 0.00000 14.58492 -6.93020 -21.94820 -9.57171 -17.16187 58.04706 -1.58969 -14.72014 -33.02870 -3.07494 -10.81539 31.65977 5.59055 1.98451 17.58430 3.75683 4.13935 -0.58235 -0.13180 1.75006 -10.43860 4.42870 10.50460 -3.83462 -4.96265 13.85600 -1.29069 -1.94036 6.88245 0.92598 -0.00000 0.00000 0.00000 -75.72382 -24.93457 0.25095 136.14230 -50.19644 -98.64247 0.00000 -0.00000 -44.74220 -0.00000 0.00000 0.00000 69.27268 -17.73448 38.27003 -114.95796 57.51029 -81.43356 -0.00000 0.00000 -71.69680
0.00000 0.80266 0.00000 -20.41451 -54.17279 24.04282 0.00000 -0.00000 0.00000 14.90596 -2.91042 -68.07453 13.55004 18.97185 70.82547 0.01915 0.98812 2.45715 0.00401 -0.40911 -1.12411 0.00000 -0.00000 0.00000 15.36553 -10.43331 -24.14518 -11.21093 -18.03677 63.46469 -1.88208 -14.88481 -34.83625 -5.73541 -14.16694 43.91036 4.81972 1.27534 19.59650 3.19302 3.09712 -0.03311 -0.09828 1.27109 -11.00350 2.68686 8.38981 -4.39717 -2.25239 11.06840 -1.19619 -0.90048 5.50956 0.63477 0.00000 -0.00000 0.00000 -86.64624 -20.68074 24.12608 141.97429 -46.85572 -103.01564 0.00000 -0.00000 -21.33840 0.00000 -0.00000 0.00000 71.05143 -14.32039 15.50758 -78.29695 59.47610 -49.88269 -0.00000 0.00000 -61.34600
0.00000 0.80281 0.00000 -18.04771 -48.02723 19.84125 0.00000 -0.00000 0.00000 14.75077 -3.45875 -69.84297 14.91201 19.36766 74.97152 -0.22287 -8.51030 1.29365 0.00031 -0.11328 -0.31123 0.00000 -0.00000 0.00000 17.83498 -15.35454 -23.89977 -11.42842 -18.13843 64.16519 -2.00855 -16.20587 -36.60590 -6.42192 -14.82511 46.65242 6.01168 1.54017 19.73180 3.90350 3.78658 0.21854 -0.18194 1.55954 -10.75470 0.91452 7.08372 -4.61247 -3.02811 9.46790 0.87944 -0.84455 4.68688 1.23940 0.00000 0.00000 0.00000 -92.60861 -22.26696 51.27087 142.67935 -46.39988 -103.52816 0.00000 -0.00000 -29.67140 0.00000 0.00000 0.00000 69.45631 -5.31274 15.03287 -72.70658 58.83927 -45.08183 -0.00000 0.00000 -51.38740
0.00000 0.80813 0.00000 -16.74669 -46.09054 17.57796 0.00000 -0.00000 0.00000 11.56917 0.72748 -69.72755 17.44424 19.84266 82.50860 0.05704 -0.81649 -4.29643 0.03316 1.17554 3.23193 0.00000 -0.00000 0.00000 18.77410 -16.62203 -23.14438 -11.19015 -18.02689 63.39755 -1.80584 -17.31263 -36.49242 -6.47005 -14.86889 46.84029 5.64991 2.70545 17.91930 3.64616 5.14443 -0.55264 -0.56053 2.22409 -10.54380 -0.27363 5.40098 -3.78470 -0.06773 7.22737 4.09511 0.22503 3.59564 1.90968 -0.00000 -0.00000 0.00000 -95.17687 -24.08032 67.61317 135.15219 -50.69370 -97.87907 0.00000 0.00000 3.14667 -0.00000 -0.00000 0.00000 70.76084 10.43517 34.35635 -74.04574 59.01603 -46.22886 -0.00000 0.00000 -33.09530
0.00000 0.81786 0.00000 -16.11561 -44.41493 15.71406 0.00000 -0.00000 0.00000 8.96236 4.26084 -66.64863 18.58484 19.95192 85.85917 -0.16131 7.86713 -6.48757 0.48696 4.47455 12.41573 0.00000 -0.00000 0.00000 20.03558 -16.79010 -20.81141 -10.48786 -17.67521 61.10683 -1.48383 -18.66889 -36.03307 -7.65290 -15.85792 51.30258 5.78585 4.07813 15.76880 3.70330 6.85893 -0.96830 -0.85541 3.07264 -9.69902 -1.91249 3.28862 -2.95419 1.01991 4.43091 5.44404 0.76563 2.19310 2.14375 0.00000 0.00000 0.00000 -96.29441 -26.53367 75.61402 128.17473 -53.70565 -92.36135 0.00000 0.00000 28.44380 0.00000 0.00000 0.00000 76.86350 28.46862 58.68648 -70.88352 58.57313 -43.52396 -0.00000 0.00000 -14.70260
0.00000 0.82743 0.00000 -13.77550 -40.11737 12.91826 0.00000 -0.00000 0.00000 5.20083 4.16068 -62.45555 17.77695 19.88110 83.48785 -0.51547 13.39592 -9.83384 0.21171 2.96230 8.17382 0.00000 -0.00000 0.00000 21.15276 -17.46480 -17.98123 -9.60073 -17.17913 58.14537 -0.94515 -21.71313 -36.29233 -9.33212 -17.01675 57.23176 5.33923 5.50585 14.73230 3.70479 8.67053 -1.74938 -0.94864 3.95619 -9.95685 -4.40393 0.79199 -2.63009 1.41181 1.18917 6.50050 1.24664 0.52500 2.48262 0.00000 -0.00000 0.00000 -97.02091 -27.26582 81.29589 128.00037 -53.77082 -92.22076 0.00000 0.00000 17.75150 0.00000 -0.00000 0.00000 86.26459 44.37710 80.54147 -61.63424 56.72991 -35.70421 -0.00000 -0.00000 8.41248
0.00000 0.83826 0.00000 -10.56197 -32.73873 11.01709 0.00000 -0.00000 0.00000 0.38370 0.63238 -58.61070 14.87641 19.35861 74.86415 -0.16140 12.43050 -15.38709 0.03784 -1.25554 -3.45221 0.00000 -0.00000 0.00000 22.36326 -17.99072 -16.06505 -8.87896 -16.72919 55.67057 -1.11472 -22.80160 -38.35652 -11.18465 -18.02427 63.37978 4.72909 6.42054 12.34920 2.82394 9.58881 -2.45802 -1.49938 4.44706 -9.26542 -6.19007 -1.98443 -2.44677 2.87722 -2.53600 6.44468 1.93620 -1.32815 2.62423 -0.00000 -0.00000 0.00000 -97.19462 -28.95886 82.78410 124.68987 -54.92487 -89.53035 0.00000 0.00000 17.17270 -0.00000 -0.00000 0.00000 95.02095 55.39158 94.08571 -51.65643 53.64210 -27.50262 -0.00000 -0.00000 25.58950
0.00000 0.84904 0.00000 -6.07472 -23.53768 9.28170 0.00000 -0.00000 0.00000 -5.27199 -4.01714 -56.00506 12.39916 18.55433 67.24855 0.21134 9.38324 -16.54231 0.01386 -0.76009 -2.08893 0.00000 -0.00000 0.00000 21.89881 -15.76763 -15.17858 -9.45203 -17.08997 57.64064 -0.19298 -24.16343 -35.11137 -11.84833 -18.32580 65.50727 2.95711 6.70291 9.83869 1.00235 9.44096 -2.84933 -2.12896 4.47325 -8.20550 -8.12973 -4.92828 -1.14543 5.18013 -6.60525 5.19284 2.94723 -3.33967 2.37378 0.00000 0.00000 0.00000 -98.23984 -32.34642 82.20478 117.98501 -56.82339 -83.97728 0.00000 0.00000 19.77380 0.00000 0.00000 0.00000 102.36819 65.21773 103.39423 -42.42919 49.44503 -20.26606 -0.00000 -0.00000 29.79320
0.00000 0.85565 0.00000 -4.25669 -13.77362 7.56609 0.00000 -0.00000 0.00000 -7.83419 -8.49377 -53.87077 11.28158 18.07014 63.69265 0.46994 4.23837 -15.19990 0.00253 -0.32478 -0.89236 0.00000 -0.00000 0.00000 22.49042 -13.60667 -14.55771 -10.59567 -17.73147 61.46136 -0.21150 -20.30228 -30.19333 -11.65019 -18.23883 64.87566 2.52318 6.17575 9.84517 0.37649 8.63105 -2.91605 -2.42845 4.08106 -8.27787 -9.50601 -7.15980 0.22845 6.48765 -9.73606 4.86298 3.56928 -4.91877 2.42395 -0.00000 -0.00000 0.00000 -100.69915 -34.85517 81.68519 113.78037 -57.75150 -80.43894 0.00000 0.00000 22.13540 -0.00000 -0.00000 0.00000 104.75765 71.76158 106.60228 -35.83852 45.40168 -15.40740 -0.00000 -0.00000 36.85590
0.00000 0.86158 0.00000 -3.42272 -4.76606 6.15625 0.00000 -0.00000 0.00000 -9.89803 -11.33283 -51.64922 10.46112 17.66112 61.01874 0.58877 -1.02647 -14.17890 0.00164 -0.26150 -0.71849 0.00000 -0.00000 0.00000 23.15927 -10.13976 -12.83040 -10.22439 -17.53412 60.23573 -0.67256 -18.04442 -30.57367 -11.24571 -18.05324 63.57694 2.04013 5.51207 10.00750 0.32741 7.67827 -2.86207 -2.08587 3.63617 -8.41249 -10.83630 -8.82551 1.55236 8.11835 -12.15980 4.59864 3.85839 -6.13024 2.27355 0.00000 0.00000 0.00000 -103.12900 -37.58470 81.96316 110.22581 -58.39640 -77.42176 0.00000 0.00000 22.34630 0.00000 0.00000 0.00000 93.65895 73.95791 93.01127 -36.13023 45.60252 -15.61547 -0.00000 -0.00000 35.91730
0.00000 0.86542 0.00000 -3.07001 2.10523 5.73868 0.00000 -0.00000 0.00000 -11.14265 -13.10105 -50.60834 10.01756 17.41971 59.54703 0.58715 -5.23520 -13.64445 0.00161 0.25928 0.71238 0.00000 -0.00000 0.00000 23.28614 -4.15486 -11.60016 -9.34680 -17.02578 57.28191 -0.92464 -19.22558 -33.45527 -11.38533 -18.11854 64.02671 1.22448 5.05963 9.33460 0.34920 6.95841 -2.94975 -1.44055 3.33599 -8.24543 -11.92180 -10.15390 2.46413 9.47046 -14.09910 4.26363 4.36335 -7.11432 2.38493 -0.00000 -0.00000 0.00000 -104.91810 -39.81573 84.49349 101.87238 -59.46064 -70.26316 0.00000 0.00000 20.07270 -0.00000 -0.00000 0.00000 77.89626 73.63486 73.96861 -39.51322 47.77884 -18.07792 -0.00000 -0.00000 38.98440
